NLLOC "./loc/global.20031214.101649.grid0" "LOCATED" "Location completed."
SIGNATURE "Anthony Lomax (www.alomax.net)   obs:./obs/20031214.1016_ARKANSAS.neic   NLLoc:v6.04.00(26Mar2015)  run:04Jun2015 13h52m05"
COMMENT "NEIC events"
GRID  361 181 601  -180 -90 0  1 1 1 PROB_DENSITY
SEARCH OCTREE nInitial 27648 nEvaluated 50000 smallestNodeSide 1.627604/1.627604/0.391276 oct_tree_integral 3.223103e+03 scatter_volume 3.223103e+03
HYPOCENTER  x -92.2705 y 35.2295 z 5.08659  OT 40.2132  ix -1 iy -1 iz -1
GEOGRAPHIC  OT 2003 12 14  10 16 40.213152  Lat 35.229492 Long -92.270508 Depth 5.08659
QUALITY  Pmax 3.46818e+13 MFmin 5.89806 MFmax 6.46196 RMS 0.328717 Nphs 9 Gap 138.121 Dist 0.458467 Mamp -9.90 0 Mdur -9.90 0
VPVSRATIO  VpVsRatio -1  Npair 0  Diff -2e+30
STATISTICS  ExpectX -92.916 Y 35.0164 Z 57.8725  CovXX 11902.1 XY 2445.96 XZ -2710.18 YY 2724.53 YZ -997.783 ZZ 2262.48 EllAz1  17.0107 Dip1  63.4116 Len1  69.9999 Az2  339.593 Dip2  -21.6788 Len2  88.8778 Len3  2.163777e+02
STAT_GEOG  ExpectLat 35.016433 Long -92.915971 Depth 57.872520
TRANSFORM  GLOBAL
QML_OriginQuality  assocPhCt 17  usedPhCt 9  assocStaCt -1  usedStaCt 9  depthPhCt -1  stdErr 0.328717  azGap 138.121  secAzGap 188.404  gtLevel -  minDist 50.9408 maxDist 413.345 medDist 272.949
QML_OriginUncertainty  horUnc -1  minHorUnc 69.7187  maxHorUnc 169.648  azMaxHorUnc 75.9705
QML_ConfidenceEllipsoid  semiMajorAxisLength 216.378  semiMinorAxisLength 69.9999  semiIntermediateAxisLength 88.8778  majorAxisPlunge -14.6386  majorAxisAzimuth 75.5531  majorAxisRotation 109.815
FOCALMECH  Hyp  35.229492 -92.270508 5.086589 Mech  0 0 0 mf  0 nObs 0
PHASE ID Ins Cmp On Pha  FM Date     HrMn   Sec     Err  ErrMag    Coda      Amp       Per  >   TTpred    Res       Weight    StaLoc(X  Y         Z)        SDist    SAzim  RAz  RDip RQual    Tcorr 
UALR   ?    ?    e P      ? 20031214 1016   49.0300 GAU  5.00e-01 -1.00e+00 -1.00e+00 -1.00e+00 >    8.8307 -1.3874e-02    1.1727  -92.3436   34.7753   -0.1380    0.4585 187.53  -1.0  -1.0  0     0.0000
MIAR   ?    ?    e P      ? 20031214 1017    4.5900 GAU  5.00e-01 -1.00e+00 -1.00e+00 -1.00e+00 >   24.2912 8.5603e-02    1.1403  -93.5765   34.5454   -0.2070    1.2720 237.81  -1.0  -1.0  0     0.0000
HBAR   ?    ?    e P      ? 20031214 1017    5.8700 GAU  5.00e-01 -1.00e+00 -1.00e+00 -1.00e+00 >   25.5563 1.0057e-01    1.1348  -90.6572   35.5550   -0.0740    1.3559  75.63  -1.0  -1.0  0     0.0000
GNAR   ?    ?    e P      ? 20031214 1017   15.0500 GAU  5.00e-01 -1.00e+00 -1.00e+00 -1.00e+00 >   34.0767 7.6017e-01    0.7621  -90.0178   35.9652   -0.0710    1.9754  67.46  -1.0  -1.0  0     0.0000
OXF    ?    ?    e P      ? 20031214 1017   20.6300 GAU  5.00e-01 -1.00e+00 -1.00e+00 -1.00e+00 >   40.6941 -2.7723e-01    1.0449  -89.4092   34.5118   -0.1010    2.4565 106.18  -1.0  -1.0  0     0.0000
HALT   ?    ?    e P      ? 20031214 1017   21.3600 GAU  5.00e-01 -1.00e+00 -1.00e+00 -1.00e+00 >   41.0337 1.1319e-01    1.0830  -89.3395   35.9106   -0.0850    2.4812  73.21  -1.0  -1.0  0     0.0000
GLAT   ?    ?    q P      ? 20031214 1017   23.4500 GAU  1.00e+00 -1.00e+00 -1.00e+00 -1.00e+00 >   43.1704 6.6487e-02    0.8364  -89.2876   36.2694   -0.1200    2.6366  65.89  -1.0  -1.0  0     0.0000
CCM    ?    ?    e P      ? 20031214 1017   27.3100 GAU  5.00e-01 -1.00e+00 -1.00e+00 -1.00e+00 >   47.4229 -3.2603e-01    1.0055  -91.2446   38.0557   -0.2225    2.9458  15.93  -1.0  -1.0  0     0.0000
WVT    ?    ?    e P      ? 20031214 1017   37.6200 GAU  5.00e-01 -1.00e+00 -1.00e+00 -1.00e+00 >   58.0693 -6.6244e-01    0.8203  -87.8300   36.1300   -0.1530    3.7201  74.69  -1.0  -1.0  0     0.0000
CPCT   ?    ?    e Pn     ? 20031214 1018   13.6900 GAU  5.00e-01 -1.00e+00 -1.00e+00 -1.00e+00 >    0.0000 0.0000e+00    0.0000  -84.5218   35.4497   -0.2750    0.0000   0.00  -1.0  -1.0  0     0.0000
PLAL   ?    ?    e Pn     ? 20031214 1017   34.3700 GAU  5.00e-01 -1.00e+00 -1.00e+00 -1.00e+00 >    0.0000 0.0000e+00    0.0000  -88.0755   34.9824   -0.1650    0.0000   0.00  -1.0  -1.0  0     0.0000
SIUC   ?    ?    e Pn     ? 20031214 1017   35.5900 GAU  5.00e-01 -1.00e+00 -1.00e+00 -1.00e+00 >    0.0000 0.0000e+00    0.0000  -89.2176   37.7149   -0.1370    0.0000   0.00  -1.0  -1.0  0     0.0000
SLM    ?    ?    q Pn     ? 20031214 1017   41.9400 GAU  1.00e+00 -1.00e+00 -1.00e+00 -1.00e+00 >    0.0000 0.0000e+00    0.0000  -90.2361   38.6361   -0.1610    0.0000   0.00  -1.0  -1.0  0     0.0000
LRAL   ?    ?    e Pn     ? 20031214 1017   53.1400 GAU  5.00e-01 -1.00e+00 -1.00e+00 -1.00e+00 >    0.0000 0.0000e+00    0.0000  -86.9978   33.0348   -0.1300    0.0000   0.00  -1.0  -1.0  0     0.0000
SWET   ?    ?    q Pn     ? 20031214 1018    0.6300 GAU  1.00e+00 -1.00e+00 -1.00e+00 -1.00e+00 >    0.0000 0.0000e+00    0.0000  -85.9320   35.2163   -0.5810    0.0000   0.00  -1.0  -1.0  0     0.0000
WMOK   ?    ?    e Pn     ? 20031214 1018    2.4100 GAU  5.00e-01 -1.00e+00 -1.00e+00 -1.00e+00 >    0.0000 0.0000e+00    0.0000  -98.7810   34.7379   -0.4860    0.0000   0.00  -1.0  -1.0  0     0.0000
BLO    ?    ?    e Pn     ? 20031214 1018   12.2900 GAU  5.00e-01 -1.00e+00 -1.00e+00 -1.00e+00 >    0.0000 0.0000e+00    0.0000  -86.5222   39.1719   -0.2460    0.0000   0.00  -1.0  -1.0  0     0.0000
END_PHASE
END_NLLOC

