NLLOC "./loc/global.20031210.094953.grid0" "LOCATED" "Location completed."
SIGNATURE "Anthony Lomax (www.alomax.net)   obs:./obs/20031210.0944_S_EAST_PACIFIC_RISE.neic   NLLoc:v6.04.00(26Mar2015)  run:04Jun2015 13h52m05"
COMMENT "NEIC events"
GRID  361 181 601  -180 -90 0  1 1 1 PROB_DENSITY
SEARCH OCTREE nInitial 27648 nEvaluated 50008 smallestNodeSide 6.510417/6.510417/1.565104 oct_tree_integral 3.811918e+05 scatter_volume 3.811918e+05
HYPOCENTER  x -114.932 y -49.7168 z 2.34766  OT 25.2151  ix -1 iy -1 iz -1
GEOGRAPHIC  OT 2003 12 10  09 42 25.215100  Lat -49.716797 Long -114.931641 Depth 2.34766
QUALITY  Pmax 9.02226e+23 MFmin 6.10427 MFmax 6.35202 RMS 1.33693 Nphs 16 Gap 158.144 Dist 39.0441 Mamp -9.90 0 Mdur -9.90 0
VPVSRATIO  VpVsRatio -1  Npair 0  Diff -2e+30
STATISTICS  ExpectX -111.629 Y -50.4194 Z 158.669  CovXX 52644.1 XY 5003.43 XZ 2924.03 YY 594700 YZ -17384 ZZ 16651.4 EllAz1  290.176 Dip1  84.9042 Len1  236.702 Az2  270.375 Dip2  -4.79598 Len2  431.954 Len3  1.449583e+03
STAT_GEOG  ExpectLat -50.419382 Long -111.628899 Depth 158.669330
TRANSFORM  GLOBAL
QML_OriginQuality  assocPhCt 173  usedPhCt 16  assocStaCt -1  usedStaCt 16  depthPhCt -1  stdErr 1.33693  azGap 158.144  secAzGap 178.418  gtLevel -  minDist 4338.24 maxDist 10518.7 medDist 9197.96
QML_OriginUncertainty  horUnc -1  minHorUnc 347.815  maxHorUnc 1169.58  azMaxHorUnc 0.528807
QML_ConfidenceEllipsoid  semiMajorAxisLength 1449.58  semiMinorAxisLength 236.702  semiIntermediateAxisLength 431.954  majorAxisPlunge -1.7182  majorAxisAzimuth 0.519039  majorAxisRotation 94.7896
FOCALMECH  Hyp  -49.716797 -114.931641 2.347656 Mech  0 0 0 mf  0 nObs 0
PHASE ID Ins Cmp On Pha  FM Date     HrMn   Sec     Err  ErrMag    Coda      Amp       Per  >   TTpred    Res       Weight    StaLoc(X  Y         Z)        SDist    SAzim  RAz  RDip RQual    Tcorr 
TRQA   ?    ?    e P      ? 20031210 0949   53.6900 GAU  5.00e-01 -1.00e+00 -1.00e+00 -1.00e+00 >  448.0597 4.1524e-01    1.1120  -61.9795  -38.0567   -0.5010   39.0441  93.34  -1.0  -1.0  0     0.0000
VNDA   ?    ?    q P      ? 20031210 0950    5.1600 GAU  1.00e+00 -1.00e+00 -1.00e+00 -1.00e+00 >  459.7660 1.7892e-01    1.0823  161.8528  -77.5172   -0.1210   40.4485 199.33  -1.0  -1.0  0     0.0000
CPUP   ?    ?    e P      ? 20031210 0951   17.6300 GAU  5.00e-01 -1.00e+00 -1.00e+00 -1.00e+00 >  532.4357 -2.0842e-02    1.1140  -57.3292  -26.3306   -0.0050   49.5826  84.00  -1.0  -1.0  0     0.0000
SNAA   ?    ?    e P      ? 20031210 0951   18.0100 GAU  5.00e-01 -1.00e+00 -1.00e+00 -1.00e+00 >  533.1083 -3.1343e-01    1.1034   -2.8379  -71.6707   -0.8460   49.6708 157.52  -1.0  -1.0  0     0.0000
OTAV   ?    ?    e P      ? 20031210 0952   26.2100 GAU  5.00e-01 -1.00e+00 -1.00e+00 -1.00e+00 >  600.5666 4.2832e-01    1.1116  -78.4508    0.2376   -3.4920   58.9328  43.98  -1.0  -1.0  0     0.0000
MAW    ?    ?    e P      ? 20031210 0952   52.3200 GAU  5.00e-01 -1.00e+00 -1.00e+00 -1.00e+00 >  626.3029 8.0199e-01    1.0927   62.8706  -67.6039   -0.0120   62.7149 179.06  -1.0  -1.0  0     0.0000
JCT    ?    ?    e P      ? 20031210 0954   41.9600 GAU  5.00e-01 -1.00e+00 -1.00e+00 -1.00e+00 >  738.1512 -1.4063e+00    0.9836  -99.8022   30.4794   -0.5910   81.3787  13.15  -1.0  -1.0  0     0.0000
TUC    ?    ?    e P      ? 20031210 0954   47.0500 GAU  5.00e-01 -1.00e+00 -1.00e+00 -1.00e+00 >  742.3367 -5.0180e-01    1.0915 -110.7842   32.3097   -0.9060   82.1712   3.54  -1.0  -1.0  0     0.0000
CPRX   ?    ?    e P      ? 20031210 0954   52.4500 GAU  5.00e-01 -1.00e+00 -1.00e+00 -1.00e+00 >  748.6838 -1.4489e+00    0.9767 -103.8667   33.0308   -1.3560   83.3921   9.32  -1.0  -1.0  0     0.0000
WMOK   ?    ?    e P      ? 20031210 0955    5.6300 GAU  5.00e-01 -1.00e+00 -1.00e+00 -1.00e+00 >  760.4902 -7.5265e-02    1.1128  -98.7810   34.7379   -0.4860   85.7253  13.25  -1.0  -1.0  0     0.0000
OXF    ?    ?    e P      ? 20031210 0955   16.3400 GAU  5.00e-01 -1.00e+00 -1.00e+00 -1.00e+00 >  768.1174 3.0075e+00    0.7486  -89.4092   34.5118   -0.1010   87.2819  20.82  -1.0  -1.0  0     0.0000
PV01   ?    ?    e P      ? 20031210 0955   15.3000 GAU  5.00e-01 -1.00e+00 -1.00e+00 -1.00e+00 >  772.0332 -1.9483e+00    0.8857 -108.5703   38.1344   -2.1820   88.0971   5.00  -1.0  -1.0  0     0.0000
MNV    ?    ?    q P      ? 20031210 0955   17.9500 GAU  1.00e+00 -1.00e+00 -1.00e+00 -1.00e+00 >  772.8199 -8.4972e-02    1.0791 -118.1531   38.4328   -1.5240   88.2620 357.48  -1.0  -1.0  0     0.0000
PV10   ?    ?    e P      ? 20031210 0955   20.1900 GAU  5.00e-01 -1.00e+00 -1.00e+00 -1.00e+00 >  773.0642 1.9107e+00    0.9580 -109.0388   38.3763   -2.3160   88.3132   4.62  -1.0  -1.0  0     0.0000
DUG    ?    ?    e P      ? 20031210 0955   30.7400 GAU  5.00e-01 -1.00e+00 -1.00e+00 -1.00e+00 >  780.9893 4.5356e+00    0.4356 -112.8133   40.1950   -1.4770   89.9990   1.62  -1.0  -1.0  0     0.0000
QLMT   ?    ?    e P      ? 20031210 0955   48.1800 GAU  5.00e-01 -1.00e+00 -1.00e+00 -1.00e+00 >  802.5619 4.0296e-01    1.1124 -111.4300   44.8307   -2.0640   94.6681   2.49  -1.0  -1.0  0     0.0000
SNZO   ?    ?    ? LR     ? 20031210 1005   27.2300 GAU  2.00e+00 -1.00e+00 -1.00e+00 -1.00e+00 >    0.0000 0.0000e+00    0.0000  174.7046  -41.3103    0.0120    0.0000   0.00  -1.0  -1.0  0     0.0000
CPUP   ?    ?    ? LR     ? 20031210 1005   55.8700 GAU  2.00e+00 -1.00e+00 -1.00e+00 -1.00e+00 >    0.0000 0.0000e+00    0.0000  -57.3292  -26.3306   -0.0050    0.0000   0.00  -1.0  -1.0  0     0.0000
PAYG   ?    ?    ? LR     ? 20031210 1007   47.0100 GAU  2.00e+00 -1.00e+00 -1.00e+00 -1.00e+00 >    0.0000 0.0000e+00    0.0000  -90.2858   -0.6740   -0.1957    0.0000   0.00  -1.0  -1.0  0     0.0000
OTAV   ?    ?    ? LR     ? 20031210 1010   22.6800 GAU  2.00e+00 -1.00e+00 -1.00e+00 -1.00e+00 >    0.0000 0.0000e+00    0.0000  -78.4508    0.2376   -3.4920    0.0000   0.00  -1.0  -1.0  0     0.0000
MAW    ?    ?    ? LR     ? 20031210 1012   13.4100 GAU  2.00e+00 -1.00e+00 -1.00e+00 -1.00e+00 >    0.0000 0.0000e+00    0.0000   62.8706  -67.6039   -0.0120    0.0000   0.00  -1.0  -1.0  0     0.0000
TAU    ?    ?    ? LR     ? 20031210 1012   26.0400 GAU  2.00e+00 -1.00e+00 -1.00e+00 -1.00e+00 >    0.0000 0.0000e+00    0.0000  147.3204  -42.9099   -0.1320    0.0000   0.00  -1.0  -1.0  0     0.0000
BDFB   ?    ?    ? LR     ? 20031210 1012   26.3500 GAU  2.00e+00 -1.00e+00 -1.00e+00 -1.00e+00 >    0.0000 0.0000e+00    0.0000  -48.0141  -15.6412   -1.0950    0.0000   0.00  -1.0  -1.0  0     0.0000
RCBR   ?    ?    ? LR     ? 20031210 1019   38.3000 GAU  2.00e+00 -1.00e+00 -1.00e+00 -1.00e+00 >    0.0000 0.0000e+00    0.0000  -35.9014   -5.8275   -0.4200    0.0000   0.00  -1.0  -1.0  0     0.0000
POHA   ?    ?    ? LR     ? 20031210 1019   38.6600 GAU  2.00e+00 -1.00e+00 -1.00e+00 -1.00e+00 >    0.0000 0.0000e+00    0.0000 -155.5325   19.7575   -1.9670    0.0000   0.00  -1.0  -1.0  0     0.0000
LTX    ?    ?    ? LR     ? 20031210 1020   14.7700 GAU  2.00e+00 -1.00e+00 -1.00e+00 -1.00e+00 >    0.0000 0.0000e+00    0.0000 -103.6669   29.3339   -1.0130    0.0000   0.00  -1.0  -1.0  0     0.0000
SJG    ?    ?    ? LR     ? 20031210 1020   31.2600 GAU  2.00e+00 -1.00e+00 -1.00e+00 -1.00e+00 >    0.0000 0.0000e+00    0.0000  -66.1500   18.1117   -0.4570    0.0000   0.00  -1.0  -1.0  0     0.0000
KIP    ?    ?    ? LR     ? 20031210 1020   50.2700 GAU  2.00e+00 -1.00e+00 -1.00e+00 -1.00e+00 >    0.0000 0.0000e+00    0.0000 -158.0139   21.4233   -0.0730    0.0000   0.00  -1.0  -1.0  0     0.0000
JCT    ?    ?    ? LR     ? 20031210 1021    0.9200 GAU  2.00e+00 -1.00e+00 -1.00e+00 -1.00e+00 >    0.0000 0.0000e+00    0.0000  -99.8022   30.4794   -0.5910    0.0000   0.00  -1.0  -1.0  0     0.0000
HKT    ?    ?    ? LR     ? 20031210 1021    4.6200 GAU  2.00e+00 -1.00e+00 -1.00e+00 -1.00e+00 >    0.0000 0.0000e+00    0.0000  -95.8333   29.9500    0.4150    0.0000   0.00  -1.0  -1.0  0     0.0000
TUC    ?    ?    ? LR     ? 20031210 1021   24.3100 GAU  2.00e+00 -1.00e+00 -1.00e+00 -1.00e+00 >    0.0000 0.0000e+00    0.0000 -110.7842   32.3097   -0.9060    0.0000   0.00  -1.0  -1.0  0     0.0000
GLA    ?    ?    ? LR     ? 20031210 1021   43.4100 GAU  2.00e+00 -1.00e+00 -1.00e+00 -1.00e+00 >    0.0000 0.0000e+00    0.0000 -114.8270   33.0520   -0.6270    0.0000   0.00  -1.0  -1.0  0     0.0000
SNCC   ?    ?    ? LR     ? 20031210 1021   52.2400 GAU  2.00e+00 -1.00e+00 -1.00e+00 -1.00e+00 >    0.0000 0.0000e+00    0.0000 -119.5240   33.2480   -0.1970    0.0000   0.00  -1.0  -1.0  0     0.0000
DWPF   ?    ?    ? LR     ? 20031210 1021   56.9600 GAU  2.00e+00 -1.00e+00 -1.00e+00 -1.00e+00 >    0.0000 0.0000e+00    0.0000  -81.4328   28.1103    0.1424    0.0000   0.00  -1.0  -1.0  0     0.0000
PFO    ?    ?    ? LR     ? 20031210 1021   59.7000 GAU  2.00e+00 -1.00e+00 -1.00e+00 -1.00e+00 >    0.0000 0.0000e+00    0.0000 -116.4553   33.6092   -1.2800    0.0000   0.00  -1.0  -1.0  0     0.0000
MWC    ?    ?    ? LR     ? 20031210 1022   18.3100 GAU  2.00e+00 -1.00e+00 -1.00e+00 -1.00e+00 >    0.0000 0.0000e+00    0.0000 -118.0577   34.2238   -1.7300    0.0000   0.00  -1.0  -1.0  0     0.0000
LDFC   ?    ?    ? LR     ? 20031210 1022   41.0500 GAU  2.00e+00 -1.00e+00 -1.00e+00 -1.00e+00 >    0.0000 0.0000e+00    0.0000 -115.1096   35.0781   -1.2090    0.0000   0.00  -1.0  -1.0  0     0.0000
ANMO   ?    ?    ? LR     ? 20031210 1022   46.1700 GAU  2.00e+00 -1.00e+00 -1.00e+00 -1.00e+00 >    0.0000 0.0000e+00    0.0000 -106.4602   34.9502   -1.7430    0.0000   0.00  -1.0  -1.0  0     0.0000
GSC    ?    ?    ? LR     ? 20031210 1022   48.0200 GAU  2.00e+00 -1.00e+00 -1.00e+00 -1.00e+00 >    0.0000 0.0000e+00    0.0000 -116.8057   35.3018   -1.0000    0.0000   0.00  -1.0  -1.0  0     0.0000
WUAZ   ?    ?    ? LR     ? 20031210 1022   54.8800 GAU  2.00e+00 -1.00e+00 -1.00e+00 -1.00e+00 >    0.0000 0.0000e+00    0.0000 -111.3739   35.5169   -1.5920    0.0000   0.00  -1.0  -1.0  0     0.0000
ISA    ?    ?    ? LR     ? 20031210 1022   59.6100 GAU  2.00e+00 -1.00e+00 -1.00e+00 -1.00e+00 >    0.0000 0.0000e+00    0.0000 -118.4740   35.6628   -0.8730    0.0000   0.00  -1.0  -1.0  0     0.0000
NWAO   ?    ?    ? LR     ? 20031210 1023    4.0900 GAU  2.00e+00 -1.00e+00 -1.00e+00 -1.00e+00 >    0.0000 0.0000e+00    0.0000  117.2339  -32.9269   -0.2650    0.0000   0.00  -1.0  -1.0  0     0.0000
WMOK   ?    ?    ? LR     ? 20031210 1023    4.4000 GAU  2.00e+00 -1.00e+00 -1.00e+00 -1.00e+00 >    0.0000 0.0000e+00    0.0000  -98.7810   34.7379   -0.4860    0.0000   0.00  -1.0  -1.0  0     0.0000
DAC    ?    ?    ? LR     ? 20031210 1023   16.2800 GAU  2.00e+00 -1.00e+00 -1.00e+00 -1.00e+00 >    0.0000 0.0000e+00    0.0000 -117.5937   36.2770   -1.8136    0.0000   0.00  -1.0  -1.0  0     0.0000
MIAR   ?    ?    ? LR     ? 20031210 1023   24.0900 GAU  2.00e+00 -1.00e+00 -1.00e+00 -1.00e+00 >    0.0000 0.0000e+00    0.0000  -93.5765   34.5454   -0.2070    0.0000   0.00  -1.0  -1.0  0     0.0000
LRAL   ?    ?    ? LR     ? 20031210 1023   24.2700 GAU  2.00e+00 -1.00e+00 -1.00e+00 -1.00e+00 >    0.0000 0.0000e+00    0.0000  -86.9978   33.0348   -0.1300    0.0000   0.00  -1.0  -1.0  0     0.0000
TPNV   ?    ?    ? LR     ? 20031210 1023   34.5900 GAU  2.00e+00 -1.00e+00 -1.00e+00 -1.00e+00 >    0.0000 0.0000e+00    0.0000 -116.2495   36.9488   -1.6000    0.0000   0.00  -1.0  -1.0  0     0.0000
OXF    ?    ?    ? LR     ? 20031210 1023   48.0400 GAU  2.00e+00 -1.00e+00 -1.00e+00 -1.00e+00 >    0.0000 0.0000e+00    0.0000  -89.4092   34.5118   -0.1010    0.0000   0.00  -1.0  -1.0  0     0.0000
GOGA   ?    ?    ? LR     ? 20031210 1024    1.1700 GAU  2.00e+00 -1.00e+00 -1.00e+00 -1.00e+00 >    0.0000 0.0000e+00    0.0000  -83.4666   33.4112   -0.1500    0.0000   0.00  -1.0  -1.0  0     0.0000
WRAB   ?    ?    ? LR     ? 20031210 1024    4.7500 GAU  2.00e+00 -1.00e+00 -1.00e+00 -1.00e+00 >    0.0000 0.0000e+00    0.0000  134.3502  -19.9333   -0.3660    0.0000   0.00  -1.0  -1.0  0     0.0000
TPH    ?    ?    ? LR     ? 20031210 1024    7.1600 GAU  2.00e+00 -1.00e+00 -1.00e+00 -1.00e+00 >    0.0000 0.0000e+00    0.0000 -117.2225   38.0750   -1.8837    0.0000   0.00  -1.0  -1.0  0     0.0000
SDCO   ?    ?    ? LR     ? 20031210 1024    7.4800 GAU  2.00e+00 -1.00e+00 -1.00e+00 -1.00e+00 >    0.0000 0.0000e+00    0.0000 -105.5012   37.7456   -2.5690    0.0000   0.00  -1.0  -1.0  0     0.0000
CMB    ?    ?    ? LR     ? 20031210 1024    9.3700 GAU  2.00e+00 -1.00e+00 -1.00e+00 -1.00e+00 >    0.0000 0.0000e+00    0.0000 -120.3865   38.0346   -0.6970    0.0000   0.00  -1.0  -1.0  0     0.0000
PLAL   ?    ?    ? LR     ? 20031210 1024    9.7000 GAU  2.00e+00 -1.00e+00 -1.00e+00 -1.00e+00 >    0.0000 0.0000e+00    0.0000  -88.0755   34.9824   -0.1650    0.0000   0.00  -1.0  -1.0  0     0.0000
PMG    ?    ?    ? LR     ? 20031210 1024   17.9500 GAU  2.00e+00 -1.00e+00 -1.00e+00 -1.00e+00 >    0.0000 0.0000e+00    0.0000  147.1589   -9.4062   -0.0650    0.0000   0.00  -1.0  -1.0  0     0.0000
MNV    ?    ?    ? LR     ? 20031210 1024   18.0600 GAU  2.00e+00 -1.00e+00 -1.00e+00 -1.00e+00 >    0.0000 0.0000e+00    0.0000 -118.1531   38.4328   -1.5240    0.0000   0.00  -1.0  -1.0  0     0.0000
MVU    ?    ?    ? LR     ? 20031210 1024   19.2300 GAU  2.00e+00 -1.00e+00 -1.00e+00 -1.00e+00 >    0.0000 0.0000e+00    0.0000 -112.2123   38.5037   -2.2396    0.0000   0.00  -1.0  -1.0  0     0.0000
HOPS   ?    ?    ? LR     ? 20031210 1024   41.3800 GAU  2.00e+00 -1.00e+00 -1.00e+00 -1.00e+00 >    0.0000 0.0000e+00    0.0000 -123.0723   38.9935   -0.2991    0.0000   0.00  -1.0  -1.0  0     0.0000
WVT    ?    ?    ? LR     ? 20031210 1024   42.6000 GAU  2.00e+00 -1.00e+00 -1.00e+00 -1.00e+00 >    0.0000 0.0000e+00    0.0000  -87.8300   36.1300   -0.1530    0.0000   0.00  -1.0  -1.0  0     0.0000
ISCO   ?    ?    ? LR     ? 20031210 1025    5.4000 GAU  2.00e+00 -1.00e+00 -1.00e+00 -1.00e+00 >    0.0000 0.0000e+00    0.0000 -105.6134   39.7997   -2.7430    0.0000   0.00  -1.0  -1.0  0     0.0000
DUG    ?    ?    ? LR     ? 20031210 1025    7.0600 GAU  2.00e+00 -1.00e+00 -1.00e+00 -1.00e+00 >    0.0000 0.0000e+00    0.0000 -112.8133   40.1950   -1.4770    0.0000   0.00  -1.0  -1.0  0     0.0000
CCM    ?    ?    ? LR     ? 20031210 1025   14.0200 GAU  2.00e+00 -1.00e+00 -1.00e+00 -1.00e+00 >    0.0000 0.0000e+00    0.0000  -91.2446   38.0557   -0.2225    0.0000   0.00  -1.0  -1.0  0     0.0000
BMN    ?    ?    ? LR     ? 20031210 1025   14.2300 GAU  2.00e+00 -1.00e+00 -1.00e+00 -1.00e+00 >    0.0000 0.0000e+00    0.0000 -117.2218   40.4315   -1.5941    0.0000   0.00  -1.0  -1.0  0     0.0000
KSU1   ?    ?    ? LR     ? 20031210 1025   15.6700 GAU  2.00e+00 -1.00e+00 -1.00e+00 -1.00e+00 >    0.0000 0.0000e+00    0.0000  -96.6094   39.1009   -0.3475    0.0000   0.00  -1.0  -1.0  0     0.0000
ELK    ?    ?    ? LR     ? 20031210 1025   22.3700 GAU  2.00e+00 -1.00e+00 -1.00e+00 -1.00e+00 >    0.0000 0.0000e+00    0.0000 -115.2388   40.7448   -2.2100    0.0000   0.00  -1.0  -1.0  0     0.0000
WDC    ?    ?    ? LR     ? 20031210 1025   25.2900 GAU  2.00e+00 -1.00e+00 -1.00e+00 -1.00e+00 >    0.0000 0.0000e+00    0.0000 -122.5411   40.5799   -0.2683    0.0000   0.00  -1.0  -1.0  0     0.0000
HWUT   ?    ?    ? LR     ? 20031210 1025   47.9900 GAU  2.00e+00 -1.00e+00 -1.00e+00 -1.00e+00 >    0.0000 0.0000e+00    0.0000 -111.5652   41.6069   -1.8300    0.0000   0.00  -1.0  -1.0  0     0.0000
WCI    ?    ?    ? LR     ? 20031210 1025   50.0600 GAU  2.00e+00 -1.00e+00 -1.00e+00 -1.00e+00 >    0.0000 0.0000e+00    0.0000  -86.2938   38.2290   -0.5000    0.0000   0.00  -1.0  -1.0  0     0.0000
YBH    ?    ?    ? LR     ? 20031210 1025   58.3100 GAU  2.00e+00 -1.00e+00 -1.00e+00 -1.00e+00 >    0.0000 0.0000e+00    0.0000 -122.7104   41.7320   -1.0597    0.0000   0.00  -1.0  -1.0  0     0.0000
MOD    ?    ?    ? LR     ? 20031210 1025   59.1700 GAU  2.00e+00 -1.00e+00 -1.00e+00 -1.00e+00 >    0.0000 0.0000e+00    0.0000 -120.3029   41.9024   -1.5545    0.0000   0.00  -1.0  -1.0  0     0.0000
BLA    ?    ?    ? LR     ? 20031210 1026    7.2300 GAU  2.00e+00 -1.00e+00 -1.00e+00 -1.00e+00 >    0.0000 0.0000e+00    0.0000  -80.4210   37.2113   -0.6340    0.0000   0.00  -1.0  -1.0  0     0.0000
WVOR   ?    ?    ? LR     ? 20031210 1026   12.3600 GAU  2.00e+00 -1.00e+00 -1.00e+00 -1.00e+00 >    0.0000 0.0000e+00    0.0000 -118.6367   42.4339   -1.3440    0.0000   0.00  -1.0  -1.0  0     0.0000
AHID   ?    ?    ? LR     ? 20031210 1026   21.3400 GAU  2.00e+00 -1.00e+00 -1.00e+00 -1.00e+00 >    0.0000 0.0000e+00    0.0000 -111.1004   42.7654   -1.9600    0.0000   0.00  -1.0  -1.0  0     0.0000
BW06   ?    ?    ? LR     ? 20031210 1026   22.9400 GAU  2.00e+00 -1.00e+00 -1.00e+00 -1.00e+00 >    0.0000 0.0000e+00    0.0000 -109.5582   42.7667   -2.2240    0.0000   0.00  -1.0  -1.0  0     0.0000
HUMO   ?    ?    ? LR     ? 20031210 1026   23.6600 GAU  2.00e+00 -1.00e+00 -1.00e+00 -1.00e+00 >    0.0000 0.0000e+00    0.0000 -122.9583   42.6086    0.0000    0.0000   0.00  -1.0  -1.0  0     0.0000
REDW   ?    ?    ? LR     ? 20031210 1026   38.5500 GAU  2.00e+00 -1.00e+00 -1.00e+00 -1.00e+00 >    0.0000 0.0000e+00    0.0000 -110.8518   43.3624   -2.1920    0.0000   0.00  -1.0  -1.0  0     0.0000
BBSR   ?    ?    ? LR     ? 20031210 1026   42.4600 GAU  2.00e+00 -1.00e+00 -1.00e+00 -1.00e+00 >    0.0000 0.0000e+00    0.0000  -64.6962   32.3712    0.0254    0.0000   0.00  -1.0  -1.0  0     0.0000
HLID   ?    ?    ? LR     ? 20031210 1026   42.6000 GAU  2.00e+00 -1.00e+00 -1.00e+00 -1.00e+00 >    0.0000 0.0000e+00    0.0000 -114.4138   43.5625   -1.7720    0.0000   0.00  -1.0  -1.0  0     0.0000
CBN    ?    ?    ? LR     ? 20031210 1026   59.4000 GAU  2.00e+00 -1.00e+00 -1.00e+00 -1.00e+00 >    0.0000 0.0000e+00    0.0000  -77.3732   38.2046   -0.0700    0.0000   0.00  -1.0  -1.0  0     0.0000
ACSO   ?    ?    ? LR     ? 20031210 1027    7.6900 GAU  2.00e+00 -1.00e+00 -1.00e+00 -1.00e+00 >    0.0000 0.0000e+00    0.0000  -82.9820   40.2319   -0.2880    0.0000   0.00  -1.0  -1.0  0     0.0000
RSSD   ?    ?    ? LR     ? 20031210 1027   11.4300 GAU  2.00e+00 -1.00e+00 -1.00e+00 -1.00e+00 >    0.0000 0.0000e+00    0.0000 -104.0362   44.1204   -2.0600    0.0000   0.00  -1.0  -1.0  0     0.0000
LKWY   ?    ?    ? LR     ? 20031210 1027   13.2200 GAU  2.00e+00 -1.00e+00 -1.00e+00 -1.00e+00 >    0.0000 0.0000e+00    0.0000 -110.4000   44.5652   -2.4240    0.0000   0.00  -1.0  -1.0  0     0.0000
YMR    ?    ?    ? LR     ? 20031210 1027   15.6600 GAU  2.00e+00 -1.00e+00 -1.00e+00 -1.00e+00 >    0.0000 0.0000e+00    0.0000 -110.9650   44.6687   -2.1490    0.0000   0.00  -1.0  -1.0  0     0.0000
MCWV   ?    ?    ? LR     ? 20031210 1027   16.7600 GAU  2.00e+00 -1.00e+00 -1.00e+00 -1.00e+00 >    0.0000 0.0000e+00    0.0000  -79.8456   39.6581   -0.2800    0.0000   0.00  -1.0  -1.0  0     0.0000
MBWA   ?    ?    ? LR     ? 20031210 1027   17.5200 GAU  2.00e+00 -1.00e+00 -1.00e+00 -1.00e+00 >    0.0000 0.0000e+00    0.0000  119.7310  -21.1590   -0.1940    0.0000   0.00  -1.0  -1.0  0     0.0000
COR    ?    ?    ? LR     ? 20031210 1027   20.4400 GAU  2.00e+00 -1.00e+00 -1.00e+00 -1.00e+00 >    0.0000 0.0000e+00    0.0000 -123.3032   44.5857   -0.1210    0.0000   0.00  -1.0  -1.0  0     0.0000
JFWS   ?    ?    ? LR     ? 20031210 1027   33.2600 GAU  2.00e+00 -1.00e+00 -1.00e+00 -1.00e+00 >    0.0000 0.0000e+00    0.0000  -90.2481   42.9142   -0.3350    0.0000   0.00  -1.0  -1.0  0     0.0000
BOZ    ?    ?    ? LR     ? 20031210 1027   43.0300 GAU  2.00e+00 -1.00e+00 -1.00e+00 -1.00e+00 >    0.0000 0.0000e+00    0.0000 -111.6296   45.6470   -1.5890    0.0000   0.00  -1.0  -1.0  0     0.0000
MIDW   ?    ?    ? LR     ? 20031210 1027   53.1700 GAU  2.00e+00 -1.00e+00 -1.00e+00 -1.00e+00 >    0.0000 0.0000e+00    0.0000 -177.3697   28.2157    0.0756    0.0000   0.00  -1.0  -1.0  0     0.0000
