NLLOC "./loc/global.20040224.022824.grid0" "LOCATED" "Location completed."
SIGNATURE "Anthony Lomax (www.alomax.net)   obs:./obs/20040224.0227_MOROCCO.neic   NLLoc:v6.04.00(26Mar2015)  run:04Jun2015 13h52m08"
COMMENT "NEIC events"
GRID  361 181 601  -180 -90 0  1 1 1 PROB_DENSITY
SEARCH OCTREE nInitial 27648 nEvaluated 50008 smallestNodeSide 1.627604/1.627604/0.391276 oct_tree_integral 1.018418e+04 scatter_volume 1.013931e+04
HYPOCENTER  x -3.87451 y 35.2954 z 0.195638  OT 47.0218  ix -1 iy -1 iz -1
GEOGRAPHIC  OT 2004 02 24  02 27 47.021827  Lat 35.295410 Long -3.874512 Depth 0.195638
QUALITY  Pmax 3.55565e+127 MFmin 20.206 MFmax 20.5691 RMS 0.949238 Nphs 50 Gap 180.874 Dist 2.22337 Mamp -9.90 0 Mdur -9.90 0
VPVSRATIO  VpVsRatio -1  Npair 0  Diff -2e+30
STATISTICS  ExpectX -3.86495 Y 35.352 Z 16.3924  CovXX 41.1659 XY -27.4032 XZ 8.82402 YY 165.18 YZ 52.9148 ZZ 138.286 EllAz1  73.6076 Dip1  -12.3141 Len1  10.4772 Az2  328.036 Dip2  -50.8826 Len2  19.3053 Len3  2.709401e+01
STAT_GEOG  ExpectLat 35.352021 Long -3.864946 Depth 16.392408
TRANSFORM  GLOBAL
QML_OriginQuality  assocPhCt 318  usedPhCt 50  assocStaCt -1  usedStaCt 50  depthPhCt -1  stdErr 0.949238  azGap 180.874  secAzGap 190.762  gtLevel -  minDist 247.041 maxDist 7167.01 medDist 5843.93
QML_OriginUncertainty  horUnc -1  minHorUnc 9.02083  maxHorUnc 19.8298  azMaxHorUnc 168.079
QML_ConfidenceEllipsoid  semiMajorAxisLength 27.094  semiMinorAxisLength 10.4772  semiIntermediateAxisLength 19.3053  majorAxisPlunge -36.4251  majorAxisAzimuth 172.878  majorAxisRotation 222.991
FOCALMECH  Hyp  35.295410 -3.874512 0.195638 Mech  0 0 0 mf  0 nObs 0
PHASE ID Ins Cmp On Pha  FM Date     HrMn   Sec     Err  ErrMag    Coda      Amp       Per  >   TTpred    Res       Weight    StaLoc(X  Y         Z)        SDist    SAzim  RAz  RDip RQual    Tcorr 
SFS    ?    ?    e P      d 20040224 0228   24.9800 GAU  5.00e-01 -1.00e+00 -1.00e+00 -1.00e+00 >   38.0744 -1.1623e-01    1.3716   -6.2055   36.4656   -0.0210    2.2234 302.46  -1.0  -1.0  0     0.0000
CART   ?    ?    i P      c 20040224 0228   37.7700 GAU  2.00e-01 -1.00e+00 -1.00e+00 -1.00e+00 >   52.2873 -1.5391e+00    1.0135   -1.0012   37.5868   -0.0650    3.2569  44.40  -1.0  -1.0  0     0.0000
ESLA   ?    ?    e P      d 20040224 0228   54.8000 GAU  5.00e-01 -1.00e+00 -1.00e+00 -1.00e+00 >   67.7644 1.3804e-02    1.3503   -3.9631   39.6742   -0.7520    4.3827 359.11  -1.0  -1.0  0     0.0000
MTE    ?    ?    ? P      ? 20040224 0229   14.3300 GAU  1.00e+00 -1.00e+00 -1.00e+00 -1.00e+00 >   88.2385 -9.3029e-01    1.1363   -7.5367   40.4033   -0.8150    5.8727 331.59  -1.0  -1.0  0     0.0000
VSL    ?    ?    e P      c 20040224 0230   29.2900 GAU  5.00e-01 -1.00e+00 -1.00e+00 -1.00e+00 >  163.0798 -8.1161e-01    1.0853    9.3780   39.4960   -0.3700   11.3301  64.30  -1.0  -1.0  0     0.0000
BNI    ?    ?    e P      ? 20040224 0230   51.4300 GAU  5.00e-01 -1.00e+00 -1.00e+00 -1.00e+00 >  181.0551 3.3531e+00    0.6563    6.6786   45.0522   -1.4100   12.6446  36.26  -1.0  -1.0  0     0.0000
VLC    ?    ?    e P      c 20040224 0231    9.3000 GAU  5.00e-01 -1.00e+00 -1.00e+00 -1.00e+00 >  200.6233 1.6548e+00    0.9759   10.3864   44.1594   -0.5550   14.0774  46.64  -1.0  -1.0  0     0.0000
CII    ?    ?    e P      c 20040224 0231   27.7400 GAU  5.00e-01 -1.00e+00 -1.00e+00 -1.00e+00 >  220.8749 -1.5668e-01    1.0708   14.3050   41.7230   -0.9100   15.5811  60.18  -1.0  -1.0  0     0.0000
WLF    ?    ?    ? P      ? 20040224 0231   37.9300 GAU  1.00e+00 -1.00e+00 -1.00e+00 -1.00e+00 >  228.1461 2.7621e+00    0.7729    6.1526   49.6646   -0.2950   16.1394  23.94  -1.0  -1.0  0     0.0000
STU    ?    ?    ? P      ? 20040224 0231   42.2300 GAU  1.00e+00 -1.00e+00 -1.00e+00 -1.00e+00 >  233.6594 1.5488e+00    0.9624    9.1950   48.7719   -0.3600   16.5705  31.53  -1.0  -1.0  0     0.0000
MORC   ?    ?    ? P      ? 20040224 0232   35.6000 GAU  1.00e+00 -1.00e+00 -1.00e+00 -1.00e+00 >  288.0743 5.0388e-01    1.0391   17.5425   49.7768   -0.7430   21.2936  40.53  -1.0  -1.0  0     0.0000
PSZ    ?    ?    ? P      ? 20040224 0232   39.7900 GAU  1.00e+00 -1.00e+00 -1.00e+00 -1.00e+00 >  292.1286 6.3956e-01    1.0350   19.8944   47.9184   -0.9400   21.6699  47.06  -1.0  -1.0  0     0.0000
SANT   ?    ?    ? P      ? 20040224 0233    0.9700 GAU  1.00e+00 -1.00e+00 -1.00e+00 -1.00e+00 >  313.8048 1.4335e-01    1.0407   25.4590   36.3710    0.0000   23.7323  78.76  -1.0  -1.0  0     0.0000
KONO   ?    ?    ? P      ? 20040224 0233   20.9300 GAU  1.00e+00 -1.00e+00 -1.00e+00 -1.00e+00 >  333.6001 3.0809e-01    1.0416    9.5982   59.6491   -0.2160   25.9051  15.64  -1.0  -1.0  0     0.0000
EIL    ?    ?    ? P      ? 20040224 0234   24.2600 GAU  1.00e+00 -1.00e+00 -1.00e+00 -1.00e+00 >  397.0201 2.1804e-01    1.0415   34.9512   29.6699   -0.2100   33.0432  88.64  -1.0  -1.0  0     0.0000
PHWY   ?    ?    ? P      ? 20040224 0239   26.2900 GAU  1.00e+00 -1.00e+00 -1.00e+00 -1.00e+00 >  418.3825 2.8089e+02    0.0000    0.0000    0.0000    0.0000   35.5067 173.31  -1.0  -1.0  0     0.0000
ARE0   ?    ?    ? P      ? 20040224 0235    5.4500 GAU  1.00e+00 -1.00e+00 -1.00e+00 -1.00e+00 >  438.3067 1.2148e-01    1.0404   25.5057   69.5348   -0.4030   37.8439  16.25  -1.0  -1.0  0     0.0000
EMMW   ?    ?    ? P      ? 20040224 0236   30.5100 GAU  1.00e+00 -1.00e+00 -1.00e+00 -1.00e+00 >  523.6280 -1.3981e-01    1.0325  -67.4583   44.7100   -0.0350   48.3893 301.60  -1.0  -1.0  0     0.0000
BBSR   ?    ?    ? P      ? 20040224 0236   42.2300 GAU  1.00e+00 -1.00e+00 -1.00e+00 -1.00e+00 >  534.7376 4.7062e-01    1.0398  -64.6962   32.3712    0.0254   49.8398 285.11  -1.0  -1.0  0     0.0000
WVL    ?    ?    ? P      ? 20040224 0236   42.9400 GAU  1.00e+00 -1.00e+00 -1.00e+00 -1.00e+00 >  535.5702 3.4793e-01    1.0415  -69.6575   44.5648   -0.0850   49.9490 301.86  -1.0  -1.0  0     0.0000
LBNH   ?    ?    ? P      ? 20040224 0236   56.1100 GAU  1.00e+00 -1.00e+00 -1.00e+00 -1.00e+00 >  548.0325 1.0556e+00    1.0112  -71.9259   44.2401   -0.3670   51.6011 301.97  -1.0  -1.0  0     0.0000
FFD    ?    ?    ? P      ? 20040224 0236   55.6500 GAU  1.00e+00 -1.00e+00 -1.00e+00 -1.00e+00 >  548.1132 5.1499e-01    1.0388  -71.6533   43.4701   -0.1311   51.6119 300.95  -1.0  -1.0  0     0.0000
WES    ?    ?    ? P      ? 20040224 0236   55.7100 GAU  1.00e+00 -1.00e+00 -1.00e+00 -1.00e+00 >  548.5562 1.3197e-01    1.0405  -71.3221   42.3847   -0.0600   51.6711 299.54  -1.0  -1.0  0     0.0000
HRV    ?    ?    ? P      ? 20040224 0236   56.3000 GAU  1.00e+00 -1.00e+00 -1.00e+00 -1.00e+00 >  549.5587 -2.8048e-01    1.0253  -71.5583   42.5064   -0.1800   51.8053 299.75  -1.0  -1.0  0     0.0000
HNH    ?    ?    ? P      ? 20040224 0236   59.1100 GAU  1.00e+00 -1.00e+00 -1.00e+00 -1.00e+00 >  550.9462 1.1420e+00    1.0041  -72.2856   43.7053   -0.1800   51.9913 301.40  -1.0  -1.0  0     0.0000
QUA2   ?    ?    ? P      ? 20040224 0237    2.2400 GAU  1.00e+00 -1.00e+00 -1.00e+00 -1.00e+00 >  554.2143 1.0039e+00    1.0150  -72.3525   42.2789   -0.1680   52.4325 299.68  -1.0  -1.0  0     0.0000
MIV    ?    ?    ? P      ? 20040224 0237    4.0600 GAU  1.00e+00 -1.00e+00 -1.00e+00 -1.00e+00 >  556.6253 4.1286e-01    1.0408  -73.5340   44.0747   -0.3170   52.7582 302.15  -1.0  -1.0  0     0.0000
NCB    ?    ?    ? P      ? 20040224 0237    8.0600 GAU  1.00e+00 -1.00e+00 -1.00e+00 -1.00e+00 >  560.3687 6.6949e-01    1.0339  -74.2236   43.9708   -0.5000   53.2638 302.20  -1.0  -1.0  0     0.0000
PAL    ?    ?    ? P      ? 20040224 0237   12.6600 GAU  1.00e+00 -1.00e+00 -1.00e+00 -1.00e+00 >  565.2129 4.2527e-01    1.0406  -73.9079   41.0055   -0.0660   53.9240 298.59  -1.0  -1.0  0     0.0000
BINY   ?    ?    ? P      ? 20040224 0237   20.8000 GAU  1.00e+00 -1.00e+00 -1.00e+00 -1.00e+00 >  573.1959 5.8230e-01    1.0370  -75.9861   42.1993   -0.4980   55.0235 300.59  -1.0  -1.0  0     0.0000
LUPA   ?    ?    ? P      ? 20040224 0237   21.3500 GAU  1.00e+00 -1.00e+00 -1.00e+00 -1.00e+00 >  573.7818 5.4634e-01    1.0380  -75.3714   40.5985   -0.2360   55.1047 298.56  -1.0  -1.0  0     0.0000
MVL    ?    ?    ? P      ? 20040224 0237   27.5200 GAU  1.00e+00 -1.00e+00 -1.00e+00 -1.00e+00 >  580.3077 1.9045e-01    1.0413  -76.3506   39.9992   -0.0910   56.0104 298.18  -1.0  -1.0  0     0.0000
RES    ?    ?    ? P      ? 20040224 0237   30.2500 GAU  1.00e+00 -1.00e+00 -1.00e+00 -1.00e+00 >  583.3804 -1.5226e-01    1.0320  -94.9000   74.6867   -0.0150   56.4405 341.52  -1.0  -1.0  0     0.0000
SDMD   ?    ?    ? P      ? 20040224 0237   44.0000 GAU  1.00e+00 -1.00e+00 -1.00e+00 -1.00e+00 >  584.2976 1.2681e+01    0.0014  -76.8403   39.4102   -0.2125   56.5691 297.67  -1.0  -1.0  0     0.0000
MTP    ?    ?    ? P      ? 20040224 0237   33.3100 GAU  1.00e+00 -1.00e+00 -1.00e+00 -1.00e+00 >  586.2882 -4.5475e-13    1.0376  -65.5570   18.0940   -0.1750   56.8495 269.52  -1.0  -1.0  0     0.0000
SSPA   ?    ?    ? P      ? 20040224 0237   33.6000 GAU  1.00e+00 -1.00e+00 -1.00e+00 -1.00e+00 >  586.5785 -3.2870e-04    1.0376  -77.8880   40.6358   -0.1580   56.8904 299.38  -1.0  -1.0  0     0.0000
HUMP   ?    ?    ? P      ? 20040224 0237   35.1700 GAU  1.00e+00 -1.00e+00 -1.00e+00 -1.00e+00 >  587.8080 3.4017e-01    1.0415  -65.8497   18.1425   -0.1780   57.0637 269.74  -1.0  -1.0  0     0.0000
CBN    ?    ?    ? P      ? 20040224 0237   37.6500 GAU  1.00e+00 -1.00e+00 -1.00e+00 -1.00e+00 >  590.1263 5.0187e-01    1.0391  -77.3732   38.2046   -0.0700   57.3924 296.51  -1.0  -1.0  0     0.0000
ALLY   ?    ?    ? P      ? 20040224 0237   43.2200 GAU  1.00e+00 -1.00e+00 -1.00e+00 -1.00e+00 >  595.2676 9.3057e-01    1.0201  -80.1448   41.6492   -0.3900   58.1240 301.22  -1.0  -1.0  0     0.0000
MGP    ?    ?    ? P      ? 20040224 0237   42.6500 GAU  1.00e+00 -1.00e+00 -1.00e+00 -1.00e+00 >  595.4168 2.1134e-01    1.0414  -67.0891   18.0076   -0.0600   58.1453 270.32  -1.0  -1.0  0     0.0000
BLA    ?    ?    ? P      ? 20040224 0237   56.3100 GAU  1.00e+00 -1.00e+00 -1.00e+00 -1.00e+00 >  608.2914 9.9676e-01    1.0155  -80.4210   37.2113   -0.6340   60.0019 296.52  -1.0  -1.0  0     0.0000
FWV    ?    ?    ? P      ? 20040224 0237   56.6200 GAU  1.00e+00 -1.00e+00 -1.00e+00 -1.00e+00 >  609.2298 3.6835e-01    1.0413  -80.8117   37.5817   -0.7560   60.1390 297.06  -1.0  -1.0  0     0.0000
ELN    ?    ?    ? P      ? 20040224 0237   57.7000 GAU  1.00e+00 -1.00e+00 -1.00e+00 -1.00e+00 >  609.8982 7.7994e-01    1.0289  -80.7517   37.2283   -0.6340   60.2367 296.66  -1.0  -1.0  0     0.0000
AAM    ?    ?    ? P      ? 20040224 0238    1.5300 GAU  1.00e+00 -1.00e+00 -1.00e+00 -1.00e+00 >  610.4189 4.0893e+00    0.5205  -83.6567   42.3012   -0.1720   60.3127 303.04  -1.0  -1.0  0     0.0000
FCC    ?    ?    ? P      ? 20040224 0237   58.2200 GAU  1.00e+00 -1.00e+00 -1.00e+00 -1.00e+00 >  611.9988 -8.0060e-01    0.9819  -94.0867   58.7617   -0.0390   60.5436 323.43  -1.0  -1.0  0     0.0000
ACSO   ?    ?    ? P      ? 20040224 0237   59.9600 GAU  1.00e+00 -1.00e+00 -1.00e+00 -1.00e+00 >  612.6851 2.5303e-01    1.0417  -82.9820   40.2319   -0.2880   60.6438 300.63  -1.0  -1.0  0     0.0000
BLO    ?    ?    ? P      ? 20040224 0238   18.5400 GAU  1.00e+00 -1.00e+00 -1.00e+00 -1.00e+00 >  632.3025 -7.8433e-01    0.9836  -86.5222   39.1719   -0.2460   63.5647 300.79  -1.0  -1.0  0     0.0000
CPCT   ?    ?    ? P      ? 20040224 0238   21.4600 GAU  1.00e+00 -1.00e+00 -1.00e+00 -1.00e+00 >  633.4742 9.6400e-01    1.0178  -84.5218   35.4497   -0.2750   63.7421 296.28  -1.0  -1.0  0     0.0000
WCI    ?    ?    ? P      ? 20040224 0238   20.1000 GAU  1.00e+00 -1.00e+00 -1.00e+00 -1.00e+00 >  633.9137 -8.3548e-01    0.9781  -86.2938   38.2290   -0.5000   63.8087 299.76  -1.0  -1.0  0     0.0000
JFWS   ?    ?    ? P      ? 20040224 0238   24.8100 GAU  1.00e+00 -1.00e+00 -1.00e+00 -1.00e+00 >  638.4762 -6.8800e-01    0.9935  -90.2481   42.9142   -0.3350   64.5031 305.89  -1.0  -1.0  0     0.0000
SWET   ?    ?    ? P      ? 20040224 0238   28.4000 GAU  1.00e+00 -1.00e+00 -1.00e+00 -1.00e+00 >  640.9109 4.6731e-01    0.0000  -85.9320   35.2163   -0.5810   64.8773 296.61  -1.0  -1.0  0     0.0000
USIN   ?    ?    ? P      ? 20040224 0238   27.9200 GAU  1.00e+00 -1.00e+00 -1.00e+00 -1.00e+00 >  641.0324 -1.3426e-01    1.0327  -87.6660   37.9651   -0.1707   64.8960 300.02  -1.0  -1.0  0     0.0000
WVT    ?    ?    ? P      ? 20040224 0238   33.6500 GAU  1.00e+00 -1.00e+00 -1.00e+00 -1.00e+00 >  647.1504 -5.2220e-01    0.0000  -87.8300   36.1300   -0.1530   65.8389 298.28  -1.0  -1.0  0     0.0000
SIUC   ?    ?    ? P      ? 20040224 0238   35.0500 GAU  1.00e+00 -1.00e+00 -1.00e+00 -1.00e+00 >  648.8561 -8.2789e-01    0.0000  -89.2176   37.7149   -0.1370   66.1039 300.38  -1.0  -1.0  0     0.0000
SLM    ?    ?    ? P      ? 20040224 0238   38.2300 GAU  1.00e+00 -1.00e+00 -1.00e+00 -1.00e+00 >  650.7293 4.7885e-01    0.0000  -90.2361   38.6361   -0.1610   66.3959 301.67  -1.0  -1.0  0     0.0000
UTMT   ?    ?    ? P      ? 20040224 0238   37.9300 GAU  1.00e+00 -1.00e+00 -1.00e+00 -1.00e+00 >  651.2875 -3.7928e-01    0.0000  -88.8642   36.3423   -0.1200   66.4831 298.90  -1.0  -1.0  0     0.0000
LBTB   ?    ?    ? P      ? 20040224 0238   35.9200 GAU  1.00e+00 -1.00e+00 -1.00e+00 -1.00e+00 >  651.3754 -2.4772e+00    0.0000   25.5970  -25.0145   -1.0280   66.4969 150.90  -1.0  -1.0  0     0.0000
PLAL   ?    ?    ? P      ? 20040224 0238   37.1700 GAU  1.00e+00 -1.00e+00 -1.00e+00 -1.00e+00 >  651.6839 -1.5357e+00    0.0000  -88.0755   34.9824   -0.1650   66.5451 297.27  -1.0  -1.0  0     0.0000
LRAL   ?    ?    ? P      ? 20040224 0238   39.8500 GAU  1.00e+00 -1.00e+00 -1.00e+00 -1.00e+00 >  652.4517 3.7646e-01    0.0000  -86.9978   33.0348   -0.1300   66.6652 294.93  -1.0  -1.0  0     0.0000
GLAT   ?    ?    ? P      ? 20040224 0238   40.1500 GAU  1.00e+00 -1.00e+00 -1.00e+00 -1.00e+00 >  653.4378 -3.0962e-01    0.0000  -89.2876   36.2694   -0.1200   66.8195 299.01  -1.0  -1.0  0     0.0000
FVM    ?    ?    ? P      ? 20040224 0238   39.1400 GAU  1.00e+00 -1.00e+00 -1.00e+00 -1.00e+00 >  653.4946 -1.3764e+00    0.0000  -90.4260   37.9840   -0.3100   66.8285 301.12  -1.0  -1.0  0     0.0000
HALT   ?    ?    ? P      ? 20040224 0238   41.2500 GAU  1.00e+00 -1.00e+00 -1.00e+00 -1.00e+00 >  654.7336 -5.0543e-01    0.0000  -89.3395   35.9106   -0.0850   67.0240 298.68  -1.0  -1.0  0     0.0000
CCM    ?    ?    ? P      ? 20040224 0238   42.4600 GAU  1.00e+00 -1.00e+00 -1.00e+00 -1.00e+00 >  656.9018 -1.4636e+00    0.0000  -91.2446   38.0557   -0.2225   67.3663 301.51  -1.0  -1.0  0     0.0000
GNAR   ?    ?    ? P      ? 20040224 0238   44.3700 GAU  1.00e+00 -1.00e+00 -1.00e+00 -1.00e+00 >  657.6452 -2.9698e-01    0.0000  -90.0178   35.9652   -0.0710   67.4837 299.01  -1.0  -1.0  0     0.0000
OXF    ?    ?    ? P      ? 20040224 0238   44.3200 GAU  1.00e+00 -1.00e+00 -1.00e+00 -1.00e+00 >  659.2336 -1.9355e+00    0.0000  -89.4092   34.5118   -0.1010   67.7344 297.37  -1.0  -1.0  0     0.0000
YKW3   ?    ?    ? P      ? 20040224 0238   45.6000 GAU  1.00e+00 -1.00e+00 -1.00e+00 -1.00e+00 >  659.2862 -7.0801e-01    0.0000 -114.6164   62.5608   -0.1980   67.7427 332.24  -1.0  -1.0  0     0.0000
TIXI   ?    ?    ? P      ? 20040224 0238   49.3700 GAU  1.00e+00 -1.00e+00 -1.00e+00 -1.00e+00 >  661.4615 8.8671e-01    0.0000  128.8665   71.6490   -0.0500   68.0882  14.44  -1.0  -1.0  0     0.0000
HBAR   ?    ?    ? P      ? 20040224 0238   48.7300 GAU  1.00e+00 -1.00e+00 -1.00e+00 -1.00e+00 >  661.7579 -4.9749e-02    0.0000  -90.6572   35.5550   -0.0740   68.1356 298.89  -1.0  -1.0  0     0.0000
UALR   ?    ?    ? P      ? 20040224 0238   58.2100 GAU  1.00e+00 -1.00e+00 -1.00e+00 -1.00e+00 >  671.5933 -4.0511e-01    0.0000  -92.3436   34.7753   -0.1380   69.7205 298.88  -1.0  -1.0  0     0.0000
INK    ?    ?    ? P      ? 20040224 0238   59.4200 GAU  1.00e+00 -1.00e+00 -1.00e+00 -1.00e+00 >  672.7490 -3.5081e-01    0.0000 -133.5200   68.3067   -0.0400   69.9087 342.35  -1.0  -1.0  0     0.0000
KSU1   ?    ?    ? P      ? 20040224 0239    2.9900 GAU  1.00e+00 -1.00e+00 -1.00e+00 -1.00e+00 >  676.5644 -5.9627e-01    0.0000  -96.6094   39.1009   -0.3475   70.5302 304.67  -1.0  -1.0  0     0.0000
MIAR   ?    ?    ? P      ? 20040224 0239    3.9500 GAU  1.00e+00 -1.00e+00 -1.00e+00 -1.00e+00 >  677.7014 -7.7322e-01    0.0000  -93.5765   34.5454   -0.2070   70.7154 299.20  -1.0  -1.0  0     0.0000
RSSD   ?    ?    ? P      ? 20040224 0239   16.4600 GAU  1.00e+00 -1.00e+00 -1.00e+00 -1.00e+00 >  689.4607 -2.2500e-02    0.0000 -104.0362   44.1204   -2.0600   72.6651 312.23  -1.0  -1.0  0     0.0000
CBKS   ?    ?    ? P      ? 20040224 0239   17.1400 GAU  1.00e+00 -1.00e+00 -1.00e+00 -1.00e+00 >  690.0575 6.0629e-02    0.0000  -99.7374   38.8140   -0.6770   72.7657 305.73  -1.0  -1.0  0     0.0000
TEIG   ?    ?    ? P      ? 20040224 0239   25.4300 GAU  1.00e+00 -1.00e+00 -1.00e+00 -1.00e+00 >  698.0665 3.4167e-01    0.0000  -88.2764   20.2263   -0.0690   74.1255 283.79  -1.0  -1.0  0     0.0000
WMOK   ?    ?    ? P      ? 20040224 0239   25.3700 GAU  1.00e+00 -1.00e+00 -1.00e+00 -1.00e+00 >  698.9682 -6.2004e-01    0.0000  -98.7810   34.7379   -0.4860   74.2802 301.70  -1.0  -1.0  0     0.0000
DAWY   ?    ?    ? P      ? 20040224 0239   29.1000 GAU  1.00e+00 -1.00e+00 -1.00e+00 -1.00e+00 >  701.3750 7.0316e-01    0.0000 -139.3909   64.0655   -0.8080   74.6931 341.47  -1.0  -1.0  0     0.0000
HKT    ?    ?    ? P      ? 20040224 0239   28.5600 GAU  1.00e+00 -1.00e+00 -1.00e+00 -1.00e+00 >  701.6004 -6.2209e-02    0.0000  -95.8333   29.9500    0.4150   74.7317 296.12  -1.0  -1.0  0     0.0000
WALA   ?    ?    ? P      ? 20040224 0239   32.1200 GAU  1.00e+00 -1.00e+00 -1.00e+00 -1.00e+00 >  705.3992 -3.0098e-01    0.0000 -113.9115   49.0586   -1.4000   75.3896 320.48  -1.0  -1.0  0     0.0000
HRY    ?    ?    ? P      ? 20040224 0239   34.4600 GAU  1.00e+00 -1.00e+00 -1.00e+00 -1.00e+00 >  707.1481 2.9010e-01    0.0000 -111.8312   46.7113   -1.3410   75.6952 317.68  -1.0  -1.0  0     0.0000
YAK    ?    ?    ? P      ? 20040224 0239   35.1700 GAU  1.00e+00 -1.00e+00 -1.00e+00 -1.00e+00 >  707.6553 4.9284e-01    0.0000  129.6811   62.0311   -0.0910   75.7838  20.53  -1.0  -1.0  0     0.0000
COLA   ?    ?    ? P      ? 20040224 0239   36.9600 GAU  1.00e+00 -1.00e+00 -1.00e+00 -1.00e+00 >  708.9144 1.0237e+00    0.0000 -147.8511   64.8738   -0.0740   76.0039 345.08  -1.0  -1.0  0     0.0000
ISCO   ?    ?    ? P      ? 20040224 0239   36.8200 GAU  1.00e+00 -1.00e+00 -1.00e+00 -1.00e+00 >  709.1024 6.9573e-01    0.0000 -105.6134   39.7997   -2.7430   76.0367 309.17  -1.0  -1.0  0     0.0000
IMA    ?    ?    ? P      ? 20040224 0239   36.2100 GAU  1.00e+00 -1.00e+00 -1.00e+00 -1.00e+00 >  709.2063 -1.8106e-02    0.0000 -153.6786   66.0685   -1.3800   76.0548 347.86  -1.0  -1.0  0     0.0000
DLBC   ?    ?    ? P      ? 20040224 0239   38.2700 GAU  1.00e+00 -1.00e+00 -1.00e+00 -1.00e+00 >  709.7729 1.4752e+00    0.0000 -130.0272   58.4372   -0.9780   76.1540 334.19  -1.0  -1.0  0     0.0000
LKWY   ?    ?    ? P      ? 20040224 0239   39.6100 GAU  1.00e+00 -1.00e+00 -1.00e+00 -1.00e+00 >  709.8530 2.7352e+00    0.0000 -110.4000   44.5652   -2.4240   76.1680 315.28  -1.0  -1.0  0     0.0000
BOZ    ?    ?    ? P      ? 20040224 0239   31.4700 GAU  1.00e+00 -1.00e+00 -1.00e+00 -1.00e+00 >  710.1538 -5.7056e+00    0.0000 -111.6296   45.6470   -1.5890   76.2210 316.71  -1.0  -1.0  0     0.0000
LCCM   ?    ?    ? P      ? 20040224 0239   40.9800 GAU  1.00e+00 -1.00e+00 -1.00e+00 -1.00e+00 >  710.2916 3.6666e+00    0.0000 -111.8782   45.8377   -1.6690   76.2453 316.98  -1.0  -1.0  0     0.0000
CHMT   ?    ?    ? P      ? 20040224 0239   37.9800 GAU  1.00e+00 -1.00e+00 -1.00e+00 -1.00e+00 >  710.8726 8.5564e-02    0.0000 -113.2520   46.9143   -2.0770   76.3481 318.45  -1.0  -1.0  0     0.0000
