NLLOC "./loc/global.20031203.073729.grid0" "LOCATED" "Location completed."
SIGNATURE "Anthony Lomax (www.alomax.net)   obs:./obs/20031203.0737_FIJI.neic   NLLoc:v6.04.00(26Mar2015)  run:04Jun2015 13h52m04"
COMMENT "NEIC events"
GRID  361 181 601  -180 -90 0  1 1 1 PROB_DENSITY
SEARCH OCTREE nInitial 27648 nEvaluated 50008 smallestNodeSide 3.255208/3.255208/0.782552 oct_tree_integral 6.355755e+04 scatter_volume 6.355755e+04
HYPOCENTER  x -178.682 y -20.5371 z 586.132  OT 56.4983  ix -1 iy -1 iz -1
GEOGRAPHIC  OT 2003 12 03  07 33 56.498334  Lat -20.537109 Long -178.681641 Depth 586.132
QUALITY  Pmax 1.12801e+130 MFmin 20.3514 MFmax 20.4085 RMS 0.631891 Nphs 50 Gap 84.4394 Dist 17.683 Mamp -9.90 0 Mdur -9.90 0
VPVSRATIO  VpVsRatio -1  Npair 0  Diff -2e+30
STATISTICS  ExpectX -178.597 Y -20.4571 Z 542.633  CovXX 293.377 XY -14.8012 XZ -57.4497 YY 393.506 YZ -512.769 ZZ 2908.43 EllAz1  46.0118 Dip1  8.55736 Len1  30.7046 Az2  314.941 Dip2  7.07646 Len2  33.5161 Len3  1.030794e+02
STAT_GEOG  ExpectLat -20.457141 Long -178.597302 Depth 542.632914
TRANSFORM  GLOBAL
QML_OriginQuality  assocPhCt 119  usedPhCt 50  assocStaCt -1  usedStaCt 50  depthPhCt -1  stdErr 0.631891  azGap 84.4394  secAzGap 128.018  gtLevel -  minDist 1964.78 maxDist 9578.24 medDist 9040.27
QML_OriginUncertainty  horUnc -1  minHorUnc 25.8813  maxHorUnc 30.166  azMaxHorUnc 171.765
QML_ConfidenceEllipsoid  semiMajorAxisLength 103.079  semiMinorAxisLength 30.7046  semiIntermediateAxisLength 33.5161  majorAxisPlunge -78.8617  majorAxisAzimuth 5.85368  majorAxisRotation 307.457
FOCALMECH  Hyp  -20.537109 -178.681641 586.131510 Mech  0 0 0 mf  0 nObs 0
PHASE ID Ins Cmp On Pha  FM Date     HrMn   Sec     Err  ErrMag    Coda      Amp       Per  >   TTpred    Res       Weight    StaLoc(X  Y         Z)        SDist    SAzim  RAz  RDip RQual    Tcorr 
RAR    ?    ?    e P      ? 20031203 0737   29.8700 GAU  5.00e-01 -1.00e+00 -1.00e+00 -1.00e+00 >  213.2116 1.6004e-01    1.0225 -159.7733  -21.2125   -0.0280   17.6830  95.57  -1.0  -1.0  0     0.0000
SNZO   ?    ?    e P      ? 20031203 0738    2.0600 GAU  5.00e-01 -1.00e+00 -1.00e+00 -1.00e+00 >  248.0192 -2.4575e+00    0.7304  174.7046  -41.3103    0.0120   21.5329 193.64  -1.0  -1.0  0     0.0000
PMG    ?    ?    e P      ? 20031203 0740    0.5600 GAU  5.00e-01 -1.00e+00 -1.00e+00 -1.00e+00 >  362.5386 1.5231e+00    0.8926  147.1589   -9.4062   -0.0650   34.7605 283.53  -1.0  -1.0  0     0.0000
WRAB   ?    ?    e P      ? 20031203 0741   12.7700 GAU  5.00e-01 -1.00e+00 -1.00e+00 -1.00e+00 >  436.1007 1.7101e-01    1.0223  134.3502  -19.9333   -0.3660   43.9496 262.19  -1.0  -1.0  0     0.0000
SBA    ?    ?    e P      ? 20031203 0742   53.3900 GAU  5.00e-01 -1.00e+00 -1.00e+00 -1.00e+00 >  536.1419 7.4972e-01    0.9898  166.7574  -77.8489   -0.0200   57.7853 183.59  -1.0  -1.0  0     0.0000
VNDA   ?    ?    e P      ? 20031203 0742   52.9700 GAU  5.00e-01 -1.00e+00 -1.00e+00 -1.00e+00 >  536.3137 1.5797e-01    1.0226  161.8528  -77.5172   -0.1210   57.8107 184.88  -1.0  -1.0  0     0.0000
SPA    ?    ?    e P      ? 20031203 0744    7.4900 GAU  5.00e-01 -1.00e+00 -1.00e+00 -1.00e+00 >  610.6798 3.1187e-01    1.0179  115.0000  -89.9954   -2.9270   69.5134 180.00  -1.0  -1.0  0     0.0000
MAJO   ?    ?    e P      ? 20031203 0744    9.8800 GAU  5.00e-01 -1.00e+00 -1.00e+00 -1.00e+00 >  614.4841 -1.1024e+00    0.9589  138.2070   36.5427   -0.4059   70.1544 324.27  -1.0  -1.0  0     0.0000
YSS    ?    ?    e P      ? 20031203 0744   44.1400 GAU  5.00e-01 -1.00e+00 -1.00e+00 -1.00e+00 >  647.6417 3.4106e-13    1.0245  142.7550   46.9539   -0.0980   75.9682 333.98  -1.0  -1.0  0     0.0000
LRV    ?    ?    e P      ? 20031203 0745    0.2300 GAU  5.00e-01 -1.00e+00 -1.00e+00 -1.00e+00 >  663.0822 6.4947e-01    0.9981 -121.0183   36.4248   -0.5410   78.8299  43.88  -1.0  -1.0  0     0.0000
LKC    ?    ?    e P      ? 20031203 0745    0.6300 GAU  5.00e-01 -1.00e+00 -1.00e+00 -1.00e+00 >  663.6957 4.3601e-01    1.0121 -122.0638   37.7380   -0.3120   78.9460  42.30  -1.0  -1.0  0     0.0000
NSHM   ?    ?    e P      ? 20031203 0745    0.8600 GAU  5.00e-01 -1.00e+00 -1.00e+00 -1.00e+00 >  664.4135 -5.1846e-02    1.0245 -122.6072   38.5200   -0.3280   79.0818  41.40  -1.0  -1.0  0     0.0000
HOPS   ?    ?    e P      ? 20031203 0745    0.6100 GAU  5.00e-01 -1.00e+00 -1.00e+00 -1.00e+00 >  664.4369 -3.2525e-01    1.0193 -123.0723   38.9935   -0.2991   79.0862  40.79  -1.0  -1.0  0     0.0000
MWC    ?    ?    e P      ? 20031203 0745    3.5500 GAU  5.00e-01 -1.00e+00 -1.00e+00 -1.00e+00 >  666.8500 2.0172e-01    1.0215 -118.0577   34.2238   -1.7300   79.5436  47.12  -1.0  -1.0  0     0.0000
ISA    ?    ?    e P      ? 20031203 0745    6.4600 GAU  5.00e-01 -1.00e+00 -1.00e+00 -1.00e+00 >  669.5954 3.6623e-01    1.0156 -118.4740   35.6628   -0.8730   80.0694  45.72  -1.0  -1.0  0     0.0000
CMB    ?    ?    e P      ? 20031203 0745    6.4900 GAU  5.00e-01 -1.00e+00 -1.00e+00 -1.00e+00 >  670.2030 -2.1130e-01    1.0225 -120.3865   38.0346   -0.6970   80.1865  42.86  -1.0  -1.0  0     0.0000
OHCM   ?    ?    e P      ? 20031203 0745    6.7000 GAU  5.00e-01 -1.00e+00 -1.00e+00 -1.00e+00 >  670.6464 -4.4471e-01    1.0143 -121.4840   39.3357   -0.0790   80.2721  41.28  -1.0  -1.0  0     0.0000
WDC    ?    ?    e P      ? 20031203 0745    7.5700 GAU  5.00e-01 -1.00e+00 -1.00e+00 -1.00e+00 >  671.2342 -1.6258e-01    1.0235 -122.5411   40.5799   -0.2683   80.3856  39.78  -1.0  -1.0  0     0.0000
MDJ    ?    ?    e P      ? 20031203 0745    8.4800 GAU  5.00e-01 -1.00e+00 -1.00e+00 -1.00e+00 >  671.7050 2.7664e-01    1.0192  129.5919   44.6164   -0.2500   80.4764 325.48  -1.0  -1.0  0     0.0000
OMM    ?    ?    e P      ? 20031203 0745   10.4300 GAU  5.00e-01 -1.00e+00 -1.00e+00 -1.00e+00 >  673.5936 3.3807e-01    1.0168 -118.9923   37.6185   -2.7500   80.8415  43.85  -1.0  -1.0  0     0.0000
MTUM   ?    ?    e P      ? 20031203 0745   10.6800 GAU  5.00e-01 -1.00e+00 -1.00e+00 -1.00e+00 >  674.2474 -6.5706e-02    1.0245 -118.5635   37.3533   -1.8100   80.9693  44.27  -1.0  -1.0  0     0.0000
GSC    ?    ?    e P      ? 20031203 0745   10.2400 GAU  5.00e-01 -1.00e+00 -1.00e+00 -1.00e+00 >  674.3932 -6.5149e-01    1.0019 -116.8057   35.3018   -1.0000   80.9978  46.79  -1.0  -1.0  0     0.0000
GLA    ?    ?    e P      ? 20031203 0745   12.5100 GAU  5.00e-01 -1.00e+00 -1.00e+00 -1.00e+00 >  675.2809 7.3077e-01    0.9914 -114.8270   33.0520   -0.6270   81.1714  49.60  -1.0  -1.0  0     0.0000
BEKR   ?    ?    e P      ? 20031203 0745   12.3000 GAU  5.00e-01 -1.00e+00 -1.00e+00 -1.00e+00 >  675.8647 -6.3082e-02    1.0245 -120.3586   39.8667   -1.7430   81.2855  41.37  -1.0  -1.0  0     0.0000
WCN    ?    ?    e P      ? 20031203 0745   12.8800 GAU  5.00e-01 -1.00e+00 -1.00e+00 -1.00e+00 >  676.0865 2.9513e-01    1.0185 -119.7563   39.3017   -1.7090   81.3289  42.11  -1.0  -1.0  0     0.0000
HUMO   ?    ?    e P      ? 20031203 0745   13.3900 GAU  5.00e-01 -1.00e+00 -1.00e+00 -1.00e+00 >  676.4292 4.6242e-01    1.0106 -122.9583   42.6086    0.0000   81.3959  37.97  -1.0  -1.0  0     0.0000
PAHR   ?    ?    e P      ? 20031203 0745   15.4600 GAU  5.00e-01 -1.00e+00 -1.00e+00 -1.00e+00 >  678.4882 4.7342e-01    1.0100 -119.3842   39.7065   -1.5000   81.7985  41.95  -1.0  -1.0  0     0.0000
MNV    ?    ?    e P      ? 20031203 0745   15.2100 GAU  5.00e-01 -1.00e+00 -1.00e+00 -1.00e+00 >  678.7485 -3.6837e-02    1.0245 -118.1531   38.4328   -1.5240   81.8497  43.55  -1.0  -1.0  0     0.0000
LDFC   ?    ?    e P      ? 20031203 0745   17.0500 GAU  5.00e-01 -1.00e+00 -1.00e+00 -1.00e+00 >  679.7312 8.2048e-01    0.9833 -115.1096   35.0781   -1.2090   82.0444  47.74  -1.0  -1.0  0     0.0000
TPH    ?    ?    e P      ? 20031203 0745   17.3200 GAU  5.00e-01 -1.00e+00 -1.00e+00 -1.00e+00 >  680.7808 4.0901e-02    1.0243 -117.2225   38.0750   -1.8837   82.2533  44.27  -1.0  -1.0  0     0.0000
TPNV   ?    ?    e P      ? 20031203 0745   17.4700 GAU  5.00e-01 -1.00e+00 -1.00e+00 -1.00e+00 >  680.8944 7.7227e-02    1.0239 -116.2495   36.9488   -1.6000   82.2759  45.65  -1.0  -1.0  0     0.0000
MOD    ?    ?    e P      ? 20031203 0745   18.6500 GAU  5.00e-01 -1.00e+00 -1.00e+00 -1.00e+00 >  682.1570 -5.3703e-03    1.0245 -120.3029   41.9024   -1.5545   82.5272  39.74  -1.0  -1.0  0     0.0000
BMN    ?    ?    e P      ? 20031203 0745   23.8300 GAU  5.00e-01 -1.00e+00 -1.00e+00 -1.00e+00 >  687.3734 -4.1777e-02    1.0245 -117.2218   40.4315   -1.5941   83.5722  42.30  -1.0  -1.0  0     0.0000
BMW    ?    ?    e P      ? 20031203 0745   24.2800 GAU  5.00e-01 -1.00e+00 -1.00e+00 -1.00e+00 >  687.8569 -7.5238e-02    1.0244 -123.2281   46.4750   -0.8700   83.6704  34.80  -1.0  -1.0  0     0.0000
TUC    ?    ?    e P      ? 20031203 0745   25.3600 GAU  5.00e-01 -1.00e+00 -1.00e+00 -1.00e+00 >  688.1557 7.0595e-01    0.9935 -110.7842   32.3097   -0.9060   83.7311  51.99  -1.0  -1.0  0     0.0000
WVOR   ?    ?    e P      ? 20031203 0745   24.9800 GAU  5.00e-01 -1.00e+00 -1.00e+00 -1.00e+00 >  688.6931 -2.1140e-01    1.0225 -118.6367   42.4339   -1.3440   83.8403  40.03  -1.0  -1.0  0     0.0000
SHW    ?    ?    e P      ? 20031203 0745   26.3400 GAU  5.00e-01 -1.00e+00 -1.00e+00 -1.00e+00 >  689.6186 2.2304e-01    1.0209 -122.2367   46.1925   -1.4230   84.0283  35.46  -1.0  -1.0  0     0.0000
VGB    ?    ?    e P      ? 20031203 0745   27.9200 GAU  5.00e-01 -1.00e+00 -1.00e+00 -1.00e+00 >  691.5223 -1.0066e-01    1.0242 -120.7775   45.5157   -0.7290   84.4185  36.62  -1.0  -1.0  0     0.0000
WUAZ   ?    ?    e P      ? 20031203 0745   30.6000 GAU  5.00e-01 -1.00e+00 -1.00e+00 -1.00e+00 >  693.7962 3.0550e-01    1.0181 -111.3739   35.5169   -1.5920   84.8863  48.94  -1.0  -1.0  0     0.0000
ELK    ?    ?    e P      ? 20031203 0745   30.5000 GAU  5.00e-01 -1.00e+00 -1.00e+00 -1.00e+00 >  694.3612 -3.5956e-01    1.0181 -115.2388   40.7448   -2.2100   85.0025  42.87  -1.0  -1.0  0     0.0000
RMW    ?    ?    e P      ? 20031203 0745   30.7600 GAU  5.00e-01 -1.00e+00 -1.00e+00 -1.00e+00 >  694.5651 -3.0346e-01    1.0201 -121.8053   47.4597   -1.0240   85.0445  34.64  -1.0  -1.0  0     0.0000
PMR    ?    ?    e P      ? 20031203 0745   32.1500 GAU  5.00e-01 -1.00e+00 -1.00e+00 -1.00e+00 >  696.9145 -1.2629e+00    0.9388 -149.1308   61.5922   -0.1000   85.5342  13.61  -1.0  -1.0  0     0.0000
HAWA   ?    ?    e P      ? 20031203 0745   33.5800 GAU  5.00e-01 -1.00e+00 -1.00e+00 -1.00e+00 >  697.4063 -3.2458e-01    1.0194 -119.5326   46.3925   -0.3640   85.6373  36.43  -1.0  -1.0  0     0.0000
BJT    ?    ?    e P      ? 20031203 0745   34.4800 GAU  5.00e-01 -1.00e+00 -1.00e+00 -1.00e+00 >  697.7899 1.9173e-01    1.0218  116.1679   40.0183   -0.1970   85.7177 315.82  -1.0  -1.0  0     0.0000
ENH    ?    ?    e P      ? 20031203 0745   34.9300 GAU  5.00e-01 -1.00e+00 -1.00e+00 -1.00e+00 >  697.9167 5.1499e-01    1.0075  109.4868   30.2718   -0.4870   85.7443 304.62  -1.0  -1.0  0     0.0000
RPW    ?    ?    e P      ? 20031203 0745   33.4000 GAU  5.00e-01 -1.00e+00 -1.00e+00 -1.00e+00 >  698.2183 -1.3166e+00    0.9315 -121.5136   48.4483   -0.8500   85.8075  33.98  -1.0  -1.0  0     0.0000
MSU    ?    ?    e P      ? 20031203 0745   34.9200 GAU  5.00e-01 -1.00e+00 -1.00e+00 -1.00e+00 >  698.3813 4.0401e-02    1.0243 -112.1742   38.5133   -2.1410   85.8417  46.02  -1.0  -1.0  0     0.0000
SML    ?    ?    e P      ? 20031203 0745   33.3200 GAU  5.00e-01 -1.00e+00 -1.00e+00 -1.00e+00 >  698.6721 -1.8504e+00    0.8470 -148.3330   61.8082   -0.7400   85.9026  13.85  -1.0  -1.0  0     0.0000
LNOR   ?    ?    e P      ? 20031203 0745   35.4200 GAU  5.00e-01 -1.00e+00 -1.00e+00 -1.00e+00 >  699.3001 -3.7839e-01    1.0173 -118.2850   45.8711   -0.7680   86.0342  37.36  -1.0  -1.0  0     0.0000
NLW    ?    ?    e P      ? 20031203 0745   35.8700 GAU  5.00e-01 -1.00e+00 -1.00e+00 -1.00e+00 >  700.1107 -7.3906e-01    0.9952 -120.3382   48.0783   -1.4900   86.2042  34.75  -1.0  -1.0  0     0.0000
DUG    ?    ?    e P      ? 20031203 0745   36.4500 GAU  5.00e-01 -1.00e+00 -1.00e+00 -1.00e+00 >  700.4680 -5.1632e-01    0.0000 -112.8133   40.1950   -1.4770   86.2791  44.32  -1.0  -1.0  0     0.0000
TNA    ?    ?    e P      ? 20031203 0745   36.8200 GAU  5.00e-01 -1.00e+00 -1.00e+00 -1.00e+00 >  701.7716 -1.4499e+00    0.0000 -167.9239   65.5606   -0.0740   86.5539   4.44  -1.0  -1.0  0     0.0000
MPU    ?    ?    e P      ? 20031203 0745   39.9600 GAU  5.00e-01 -1.00e+00 -1.00e+00 -1.00e+00 >  703.6959 -2.3421e-01    0.0000 -111.6333   40.0155   -1.9090   86.9642  44.93  -1.0  -1.0  0     0.0000
HLID   ?    ?    e P      ? 20031203 0745   40.7300 GAU  5.00e-01 -1.00e+00 -1.00e+00 -1.00e+00 >  704.0320 1.9964e-01    0.0000 -114.4138   43.5625   -1.7720   87.0362  40.82  -1.0  -1.0  0     0.0000
SPUT   ?    ?    e P      ? 20031203 0745   40.5100 GAU  5.00e-01 -1.00e+00 -1.00e+00 -1.00e+00 >  704.2808 -2.6914e-01    0.0000 -112.4492   41.3086   -1.6340   87.0894  43.50  -1.0  -1.0  0     0.0000
HVU    ?    ?    e P      ? 20031203 0745   40.5700 GAU  5.00e-01 -1.00e+00 -1.00e+00 -1.00e+00 >  704.4384 -3.6673e-01    0.0000 -112.7750   41.7797   -1.6090   87.1231  42.97  -1.0  -1.0  0     0.0000
CTU    ?    ?    e P      ? 20031203 0745   41.0300 GAU  5.00e-01 -1.00e+00 -1.00e+00 -1.00e+00 >  704.9349 -4.0321e-01    0.0000 -111.7503   40.6925   -1.7310   87.2294  44.30  -1.0  -1.0  0     0.0000
DPW    ?    ?    e P      ? 20031203 0745   40.8800 GAU  5.00e-01 -1.00e+00 -1.00e+00 -1.00e+00 >  704.9695 -5.8781e-01    0.0000 -118.2028   47.8706   -0.8920   87.2368  35.76  -1.0  -1.0  0     0.0000
JLU    ?    ?    e P      ? 20031203 0745   41.9300 GAU  5.00e-01 -1.00e+00 -1.00e+00 -1.00e+00 >  705.6416 -2.0991e-01    0.0000 -111.4499   40.6019   -2.2850   87.3806  44.50  -1.0  -1.0  0     0.0000
LAZ    ?    ?    e P      ? 20031203 0745   43.1000 GAU  5.00e-01 -1.00e+00 -1.00e+00 -1.00e+00 >  705.7575 8.4417e-01    0.0000 -107.1393   34.4020   -1.8530   87.4054  51.58  -1.0  -1.0  0     0.0000
DAU    ?    ?    e P      ? 20031203 0745   42.7500 GAU  5.00e-01 -1.00e+00 -1.00e+00 -1.00e+00 >  705.7942 4.5749e-01    0.0000 -111.2558   40.4125   -2.7710   87.4133  44.73  -1.0  -1.0  0     0.0000
LENM   ?    ?    e P      ? 20031203 0745   42.7000 GAU  5.00e-01 -1.00e+00 -1.00e+00 -1.00e+00 >  705.8200 3.8166e-01    0.0000 -106.9742   34.1655   -1.6980   87.4188  51.85  -1.0  -1.0  0     0.0000
MCK    ?    ?    e P      ? 20031203 0745   40.2700 GAU  5.00e-01 -1.00e+00 -1.00e+00 -1.00e+00 >  706.0733 -2.3016e+00    0.0000 -148.9350   63.7323   -0.6100   87.4730  12.70  -1.0  -1.0  0     0.0000
BNM    ?    ?    e P      ? 20031203 0745   43.9300 GAU  5.00e-01 -1.00e+00 -1.00e+00 -1.00e+00 >  706.9763 4.5534e-01    0.0000 -106.6278   34.1502   -2.1210   87.6674  52.00  -1.0  -1.0  0     0.0000
HWUT   ?    ?    e P      ? 20031203 0745   43.6300 GAU  5.00e-01 -1.00e+00 -1.00e+00 -1.00e+00 >  707.6471 -5.1545e-01    0.0000 -111.5652   41.6069   -1.8300   87.8120  43.58  -1.0  -1.0  0     0.0000
LTX    ?    ?    e P      ? 20031203 0745   44.8700 GAU  5.00e-01 -1.00e+00 -1.00e+00 -1.00e+00 >  707.6751 6.9657e-01    0.0000 -103.6669   29.3339   -1.0130   87.8181  57.43  -1.0  -1.0  0     0.0000
THY    ?    ?    e P      ? 20031203 0745   42.9000 GAU  5.00e-01 -1.00e+00 -1.00e+00 -1.00e+00 >  708.0004 -1.5987e+00    0.0000 -145.7522   63.4167   -0.7320   87.8882  14.09  -1.0  -1.0  0     0.0000
PV10   ?    ?    e P      ? 20031203 0745   44.0800 GAU  5.00e-01 -1.00e+00 -1.00e+00 -1.00e+00 >  708.1113 -5.2963e-01    0.0000 -109.0388   38.3763   -2.3160   87.9121  47.35  -1.0  -1.0  0     0.0000
NEW    ?    ?    e P      ? 20031203 0745   44.1900 GAU  5.00e-01 -1.00e+00 -1.00e+00 -1.00e+00 >  708.7761 -1.0845e+00    0.0000 -117.1200   48.2633   -0.7600   88.0555  35.86  -1.0  -1.0  0     0.0000
PV01   ?    ?    e P      ? 20031203 0745   45.1400 GAU  5.00e-01 -1.00e+00 -1.00e+00 -1.00e+00 >  709.0800 -4.3833e-01    0.0000 -108.5703   38.1344   -2.1820   88.1210  47.74  -1.0  -1.0  0     0.0000
ANMO   ?    ?    e P      ? 20031203 0745   45.2700 GAU  5.00e-01 -1.00e+00 -1.00e+00 -1.00e+00 >  709.2265 -4.5488e-01    0.0000 -106.4602   34.9502   -1.7430   88.1526  51.35  -1.0  -1.0  0     0.0000
GDL2   ?    ?    e P      ? 20031203 0745   48.0600 GAU  5.00e-01 -1.00e+00 -1.00e+00 -1.00e+00 >  710.8636 6.9811e-01    0.0000 -104.3635   32.2003   -1.2130   88.5056  54.59  -1.0  -1.0  0     0.0000
HIA    ?    ?    e P      ? 20031203 0745   47.3000 GAU  5.00e-01 -1.00e+00 -1.00e+00 -1.00e+00 >  711.4533 -6.5164e-01    0.0000  119.7417   49.2667   -0.6100   88.6328 324.97  -1.0  -1.0  0     0.0000
DLBC   ?    ?    e P      ? 20031203 0745   47.4900 GAU  5.00e-01 -1.00e+00 -1.00e+00 -1.00e+00 >  711.4905 -4.9885e-01    0.0000 -130.0272   58.4372   -0.9780   88.6408  23.15  -1.0  -1.0  0     0.0000
MCMT   ?    ?    e P      ? 20031203 0745   48.1300 GAU  5.00e-01 -1.00e+00 -1.00e+00 -1.00e+00 >  711.5695 6.2191e-02    0.0000 -112.8488   44.8277   -2.3230   88.6578  40.34  -1.0  -1.0  0     0.0000
AHID   ?    ?    e P      ? 20031203 0745   47.8500 GAU  5.00e-01 -1.00e+00 -1.00e+00 -1.00e+00 >  711.7302 -3.7853e-01    0.0000 -111.1004   42.7654   -1.9600   88.6925  42.75  -1.0  -1.0  0     0.0000
COLA   ?    ?    e P      ? 20031203 0745   45.3700 GAU  5.00e-01 -1.00e+00 -1.00e+00 -1.00e+00 >  711.7743 -2.9027e+00    0.0000 -147.8511   64.8738   -0.0740   88.7020  12.57  -1.0  -1.0  0     0.0000
IMA    ?    ?    e P      ? 20031203 0745   46.9800 GAU  5.00e-01 -1.00e+00 -1.00e+00 -1.00e+00 >  711.8300 -1.3483e+00    0.0000 -153.6786   66.0685   -1.3800   88.7140   9.88  -1.0  -1.0  0     0.0000
RW3    ?    ?    e P      ? 20031203 0745   49.3100 GAU  5.00e-01 -1.00e+00 -1.00e+00 -1.00e+00 >  712.1780 6.3364e-01    0.0000 -107.6870   38.2502   -2.6030   88.7890  47.96  -1.0  -1.0  0     0.0000
REDW   ?    ?    e P      ? 20031203 0745   50.2300 GAU  5.00e-01 -1.00e+00 -1.00e+00 -1.00e+00 >  713.8432 -1.1156e-01    0.0000 -110.8518   43.3624   -2.1920   89.1481  42.33  -1.0  -1.0  0     0.0000
CPRX   ?    ?    e P      ? 20031203 0745   50.6500 GAU  5.00e-01 -1.00e+00 -1.00e+00 -1.00e+00 >  714.2740 -1.2234e-01    0.0000 -103.8667   33.0308   -1.3560   89.2410  54.02  -1.0  -1.0  0     0.0000
QLMT   ?    ?    e P      ? 20031203 0745   52.8200 GAU  5.00e-01 -1.00e+00 -1.00e+00 -1.00e+00 >  715.5889 7.3278e-01    0.0000 -111.4300   44.8307   -2.0640   89.5245  40.85  -1.0  -1.0  0     0.0000
CM31   ?    ?    e P      ? 20031203 0745   54.7800 GAU  5.00e-01 -1.00e+00 -1.00e+00 -1.00e+00 >  716.3035 1.9781e+00    0.0000   98.9429   18.4575   -0.3066   89.6786 289.92  -1.0  -1.0  0     0.0000
YMR    ?    ?    e P      ? 20031203 0745   53.5300 GAU  5.00e-01 -1.00e+00 -1.00e+00 -1.00e+00 >  716.5375 4.9412e-01    0.0000 -110.9650   44.6687   -2.1490   89.7291  41.15  -1.0  -1.0  0     0.0000
LCCM   ?    ?    e P      ? 20031203 0745   52.9600 GAU  5.00e-01 -1.00e+00 -1.00e+00 -1.00e+00 >  716.6954 -2.3374e-01    0.0000 -111.8782   45.8377   -1.6690   89.7632  39.82  -1.0  -1.0  0     0.0000
BOZ    ?    ?    e P      ? 20031203 0745   53.4400 GAU  5.00e-01 -1.00e+00 -1.00e+00 -1.00e+00 >  716.9394 2.2436e-03    0.0000 -111.6296   45.6470   -1.5890   89.8159  40.07  -1.0  -1.0  0     0.0000
DAWY   ?    ?    e P      ? 20031203 0745   52.8500 GAU  5.00e-01 -1.00e+00 -1.00e+00 -1.00e+00 >  717.7114 -1.3597e+00    0.0000 -139.3909   64.0655   -0.8080   89.9829  16.08  -1.0  -1.0  0     0.0000
SDCO   ?    ?    e P      ? 20031203 0745   54.3000 GAU  5.00e-01 -1.00e+00 -1.00e+00 -1.00e+00 >  718.2333 -4.3161e-01    0.0000 -105.5012   37.7456   -2.5690   90.0959  49.19  -1.0  -1.0  0     0.0000
HRY    ?    ?    e P      ? 20031203 0745   55.1300 GAU  5.00e-01 -1.00e+00 -1.00e+00 -1.00e+00 >  718.8804 -2.4874e-01    0.0000 -111.8312   46.7113   -1.3410   90.2360  39.08  -1.0  -1.0  0     0.0000
