NLLOC "./loc/global.20060717.082155.grid0" "LOCATED" "Location completed."
SIGNATURE "Anthony Lomax (www.alomax.net)   obs:./obs/20060717.0819_S_JAVA_INDONESIA.neic   NLLoc:v6.04.00(26Mar2015)  run:04Jun2015 13h52m09"
COMMENT "NEIC events"
GRID  361 181 601  -180 -90 0  1 1 1 PROB_DENSITY
SEARCH OCTREE nInitial 27648 nEvaluated 50000 smallestNodeSide 3.255208/3.255208/0.782552 oct_tree_integral 1.121949e+05 scatter_volume 1.121949e+05
HYPOCENTER  x 107.432 y -9.16992 z 0.782552  OT 22.7093  ix -1 iy -1 iz -1
GEOGRAPHIC  OT 2006 07 17  08 19 22.709315  Lat -9.169922 Long 107.431641 Depth 0.782552
QUALITY  Pmax 2.87737e+65 MFmin 12.4347 MFmax 12.5364 RMS 1.17086 Nphs 31 Gap 81.8589 Dist 16.8648 Mamp -9.90 0 Mdur -9.90 0
VPVSRATIO  VpVsRatio -1  Npair 0  Diff -2e+30
STATISTICS  ExpectX 107.47 Y -9.15544 Z 75.5716  CovXX 174.576 XY 45.419 XZ 237.266 YY 161.951 YZ 65.172 ZZ 2987.12 EllAz1  133.031 Dip1  -2.57333 Len1  20.3738 Az2  222.838 Dip2  4.28676 Len2  26.3976 Len3  1.030561e+02
STAT_GEOG  ExpectLat -9.155435 Long 107.469984 Depth 75.571580
TRANSFORM  GLOBAL
QML_OriginQuality  assocPhCt 111  usedPhCt 31  assocStaCt -1  usedStaCt 31  depthPhCt -1  stdErr 1.17086  azGap 81.8589  secAzGap 90.4905  gtLevel -  minDist 1873.87 maxDist 10776.8 medDist 7443.41
QML_OriginUncertainty  horUnc -1  minHorUnc 16.7791  maxHorUnc 22.1918  azMaxHorUnc 48.9564
QML_ConfidenceEllipsoid  semiMajorAxisLength 103.056  semiMinorAxisLength 20.3738  semiIntermediateAxisLength 26.3976  majorAxisPlunge 84.9977  majorAxisAzimuth 73.9255  majorAxisRotation 31.3803
FOCALMECH  Hyp  -9.169922 107.431641 0.782552 Mech  0 0 0 mf  0 nObs 0
PHASE ID Ins Cmp On Pha  FM Date     HrMn   Sec     Err  ErrMag    Coda      Amp       Per  >   TTpred    Res       Weight    StaLoc(X  Y         Z)        SDist    SAzim  RAz  RDip RQual    Tcorr 
MBWA   ?    ?    e P      ? 20060717 0823   14.5500 GAU  5.00e-01 -1.00e+00 -1.00e+00 -1.00e+00 >  237.3064 -5.4657e+00    0.2360  119.7310  -21.1590   -0.1940   16.8648 136.74  -1.0  -1.0  0     0.0000
DAV    ?    ?    e P      ? 20060717 0824   45.8100 GAU  5.00e-01 -1.00e+00 -1.00e+00 -1.00e+00 >  319.1269 3.9738e+00    0.4814  125.5790    7.0700   -0.1457   24.3234  48.67  -1.0  -1.0  0     0.0000
NWAO   ?    ?    e P      ? 20060717 0824   49.7600 GAU  5.00e-01 -1.00e+00 -1.00e+00 -1.00e+00 >  329.3041 -2.2535e+00    0.8448  117.2339  -32.9269   -0.2650   25.4419 160.56  -1.0  -1.0  0     0.0000
WRAB   ?    ?    e P      ? 20060717 0825   16.3900 GAU  5.00e-01 -1.00e+00 -1.00e+00 -1.00e+00 >  353.7520 -7.1269e-02    1.0974  134.3502  -19.9333   -0.3660   28.1548 115.50  -1.0  -1.0  0     0.0000
PALK   ?    ?    e P      ? 20060717 0825   45.8400 GAU  5.00e-01 -1.00e+00 -1.00e+00 -1.00e+00 >  381.8264 1.3043e+00    1.0053   80.7022    7.2728   -0.4600   31.3237 300.82  -1.0  -1.0  0     0.0000
TATO   ?    ?    e P      ? 20060717 0826   31.8300 GAU  5.00e-01 -1.00e+00 -1.00e+00 -1.00e+00 >  429.5087 -3.8797e-01    1.0892  121.4881   24.9754   -0.0530   36.8192  21.57  -1.0  -1.0  0     0.0000
CTAO   ?    ?    e P      ? 20060717 0826   52.6300 GAU  5.00e-01 -1.00e+00 -1.00e+00 -1.00e+00 >  448.2311 1.6896e+00    0.9470  146.2544  -20.0883   -0.3570   39.0356 110.70  -1.0  -1.0  0     0.0000
PMG    ?    ?    e P      ? 20060717 0826   54.6400 GAU  5.00e-01 -1.00e+00 -1.00e+00 -1.00e+00 >  449.7373 2.1934e+00    0.8556  147.1589   -9.4062   -0.0650   39.2152  93.67  -1.0  -1.0  0     0.0000
TAU    ?    ?    e P      ? 20060717 0828    8.0500 GAU  5.00e-01 -1.00e+00 -1.00e+00 -1.00e+00 >  524.2660 1.0746e+00    1.0341  147.3204  -42.9099   -0.1320   48.4843 141.12  -1.0  -1.0  0     0.0000
INCN   ?    ?    e P      ? 20060717 0828   20.0500 GAU  5.00e-01 -1.00e+00 -1.00e+00 -1.00e+00 >  536.1266 1.2141e+00    1.0172  126.6330   37.4830   -0.4200   50.0342  19.92  -1.0  -1.0  0     0.0000
MAJO   ?    ?    e P      ? 20060717 0828   47.4000 GAU  5.00e-01 -1.00e+00 -1.00e+00 -1.00e+00 >  566.6002 -1.9095e+00    0.9094  138.2070   36.5427   -0.4059   54.1270  30.50  -1.0  -1.0  0     0.0000
ULN    ?    ?    e P      ? 20060717 0829   10.2900 GAU  5.00e-01 -1.00e+00 -1.00e+00 -1.00e+00 >  587.8234 -2.4268e-01    1.0943  107.0528   47.8652   -1.6150   57.0791 359.70  -1.0  -1.0  0     0.0000
AAK    ?    ?    e P      ? 20060717 0829   29.0500 GAU  5.00e-01 -1.00e+00 -1.00e+00 -1.00e+00 >  607.7892 -1.4485e+00    0.9849   74.4940   42.6390   -1.6450   59.9424 332.46  -1.0  -1.0  0     0.0000
YSS    ?    ?    e P      ? 20060717 0829   59.3400 GAU  5.00e-01 -1.00e+00 -1.00e+00 -1.00e+00 >  637.4988 -8.6812e-01    1.0557  142.7550   46.9539   -0.0980   64.3686  25.97  -1.0  -1.0  0     0.0000
KURK   ?    ?    e P      ? 20060717 0830    3.6900 GAU  5.00e-01 -1.00e+00 -1.00e+00 -1.00e+00 >  641.2181 -2.3741e-01    1.0945   78.6202   50.7154   -0.1840   64.9392 340.31  -1.0  -1.0  0     0.0000
SNZO   ?    ?    e P      ? 20060717 0830   16.7100 GAU  5.00e-01 -1.00e+00 -1.00e+00 -1.00e+00 >  654.4270 -4.2632e-01    1.0874  174.7046  -41.3103    0.0120   66.9907 131.15  -1.0  -1.0  0     0.0000
YAK    ?    ?    e P      ? 20060717 0830   54.9200 GAU  5.00e-01 -1.00e+00 -1.00e+00 -1.00e+00 >  693.3114 -1.1007e+00    1.0310  129.6811   62.0311   -0.0910   73.3304  10.69  -1.0  -1.0  0     0.0000
SBA    ?    ?    e P      ? 20060717 0831    4.5500 GAU  5.00e-01 -1.00e+00 -1.00e+00 -1.00e+00 >  702.3637 -5.2301e-01    1.0822  166.7574  -77.8489   -0.0200   74.8794 169.19  -1.0  -1.0  0     0.0000
PET    ?    ?    e P      ? 20060717 0831   10.8900 GAU  5.00e-01 -1.00e+00 -1.00e+00 -1.00e+00 >  708.2219 -4.1231e-02    1.0976  158.6531   53.0239   -0.0680   75.8997  28.92  -1.0  -1.0  0     0.0000
GNI    ?    ?    e P      ? 20060717 0831   11.5200 GAU  5.00e-01 -1.00e+00 -1.00e+00 -1.00e+00 >  708.6054 2.0528e-01    1.0953   44.7414   40.1495   -1.5830   75.9667 315.55  -1.0  -1.0  0     0.0000
ARU    ?    ?    e P      ? 20060717 0831   16.6400 GAU  5.00e-01 -1.00e+00 -1.00e+00 -1.00e+00 >  714.3437 -4.1304e-01    1.0880   58.5625   56.4302   -0.2500   76.9793 334.69  -1.0  -1.0  0     0.0000
MA2    ?    ?    e P      ? 20060717 0831   16.9600 GAU  5.00e-01 -1.00e+00 -1.00e+00 -1.00e+00 >  714.3724 -1.2175e-01    1.0969  150.7678   59.5753   -0.3390   76.9844  20.90  -1.0  -1.0  0     0.0000
LSZ    ?    ?    e P      ? 20060717 0831   20.0600 GAU  5.00e-01 -1.00e+00 -1.00e+00 -1.00e+00 >  716.5189 8.3175e-01    1.0592   28.1882  -15.2766   -1.1848   77.3652 256.28  -1.0  -1.0  0     0.0000
KIV    ?    ?    e P      ? 20060717 0831   28.5400 GAU  5.00e-01 -1.00e+00 -1.00e+00 -1.00e+00 >  725.3369 4.9376e-01    1.0840   42.6863   43.9553   -1.0540   78.9553 318.43  -1.0  -1.0  0     0.0000
EIL    ?    ?    e P      ? 20060717 0831   32.3800 GAU  5.00e-01 -1.00e+00 -1.00e+00 -1.00e+00 >  729.5586 1.1213e-01    1.0970   34.9512   29.6699   -0.2100   79.7290 302.62  -1.0  -1.0  0     0.0000
TIXI   ?    ?    e P      ? 20060717 0831   43.8100 GAU  5.00e-01 -1.00e+00 -1.00e+00 -1.00e+00 >  742.3619 -1.2613e+00    1.0111  128.8665   71.6490   -0.0500   82.1265   6.67  -1.0  -1.0  0     0.0000
SMY    ?    ?    e P      ? 20060717 0831   53.5900 GAU  5.00e-01 -1.00e+00 -1.00e+00 -1.00e+00 >  750.7745 1.0616e-01    1.0971  174.0994   52.7295   -0.0580   83.7499  34.02  -1.0  -1.0  0     0.0000
TSUM   ?    ?    e P      ? 20060717 0832   10.0600 GAU  5.00e-01 -1.00e+00 -1.00e+00 -1.00e+00 >  766.6143 7.3638e-01    1.0674   17.5838  -19.2022   -1.2400   86.9189 251.05  -1.0  -1.0  0     0.0000
OBN    ?    ?    e P      ? 20060717 0832    9.5300 GAU  5.00e-01 -1.00e+00 -1.00e+00 -1.00e+00 >  766.7566 6.4133e-02    1.0975   36.5687   55.1138   -0.1300   86.9482 327.24  -1.0  -1.0  0     0.0000
PSZ    ?    ?    e P      ? 20060717 0832   47.8400 GAU  5.00e-01 -1.00e+00 -1.00e+00 -1.00e+00 >  805.3761 -2.4545e-01    1.0943   19.8944   47.9184   -0.9400   95.2266 317.76  -1.0  -1.0  0     0.0000
MORC   ?    ?    e P      ? 20060717 0832   56.8500 GAU  5.00e-01 -1.00e+00 -1.00e+00 -1.00e+00 >  813.4000 7.4066e-01    1.0671   17.5425   49.7768   -0.7430   96.9909 319.42  -1.0  -1.0  0     0.0000
LAO    ?    ?    e PKPdf  ? 20060717 0838   41.6300 GAU  5.00e-01 -1.00e+00 -1.00e+00 -1.00e+00 >    0.0000 0.0000e+00    0.0000 -106.2222   46.6886   -0.7440    0.0000   0.00  -1.0  -1.0  0     0.0000
DUG    ?    ?    e PKPdf  ? 20060717 0838   41.6600 GAU  5.00e-01 -1.00e+00 -1.00e+00 -1.00e+00 >    0.0000 0.0000e+00    0.0000 -112.8133   40.1950   -1.4770    0.0000   0.00  -1.0  -1.0  0     0.0000
HWUT   ?    ?    e PKPdf  ? 20060717 0838   42.2000 GAU  5.00e-01 -1.00e+00 -1.00e+00 -1.00e+00 >    0.0000 0.0000e+00    0.0000 -111.5652   41.6069   -1.8300    0.0000   0.00  -1.0  -1.0  0     0.0000
GSC    ?    ?    e PKPdf  ? 20060717 0838   42.4900 GAU  5.00e-01 -1.00e+00 -1.00e+00 -1.00e+00 >    0.0000 0.0000e+00    0.0000 -116.8057   35.3018   -1.0000    0.0000   0.00  -1.0  -1.0  0     0.0000
DAU    ?    ?    e PKPdf  ? 20060717 0838   42.5000 GAU  5.00e-01 -1.00e+00 -1.00e+00 -1.00e+00 >    0.0000 0.0000e+00    0.0000 -111.2558   40.4125   -2.7710    0.0000   0.00  -1.0  -1.0  0     0.0000
BW06   ?    ?    e PKPdf  ? 20060717 0838   43.8000 GAU  5.00e-01 -1.00e+00 -1.00e+00 -1.00e+00 >    0.0000 0.0000e+00    0.0000 -109.5582   42.7667   -2.2240    0.0000   0.00  -1.0  -1.0  0     0.0000
SHPR   ?    ?    e PKPdf  ? 20060717 0838   43.9900 GAU  5.00e-01 -1.00e+00 -1.00e+00 -1.00e+00 >    0.0000 0.0000e+00    0.0000 -115.1602   36.5055   -1.5900    0.0000   0.00  -1.0  -1.0  0     0.0000
MSU    ?    ?    e PKPdf  ? 20060717 0838   44.5700 GAU  5.00e-01 -1.00e+00 -1.00e+00 -1.00e+00 >    0.0000 0.0000e+00    0.0000 -112.1742   38.5133   -2.1410    0.0000   0.00  -1.0  -1.0  0     0.0000
PFO    ?    ?    e PKPdf  ? 20060717 0838   45.4600 GAU  5.00e-01 -1.00e+00 -1.00e+00 -1.00e+00 >    0.0000 0.0000e+00    0.0000 -116.4553   33.6092   -1.2800    0.0000   0.00  -1.0  -1.0  0     0.0000
SRU    ?    ?    e PKPdf  ? 20060717 0838   46.1400 GAU  5.00e-01 -1.00e+00 -1.00e+00 -1.00e+00 >    0.0000 0.0000e+00    0.0000 -110.5238   39.1108   -1.8040    0.0000   0.00  -1.0  -1.0  0     0.0000
RWWY   ?    ?    e PKPdf  ? 20060717 0838   46.8700 GAU  5.00e-01 -1.00e+00 -1.00e+00 -1.00e+00 >    0.0000 0.0000e+00    0.0000 -100000000000000000000.0000 -100000000000000000000.0000 -100000000000000000000.0000    0.0000   0.00  -1.0  -1.0  0     0.0000
BNM    ?    ?    e PKPdf  ? 20060717 0838   52.6100 GAU  5.00e-01 -1.00e+00 -1.00e+00 -1.00e+00 >    0.0000 0.0000e+00    0.0000 -106.6278   34.1502   -2.1210    0.0000   0.00  -1.0  -1.0  0     0.0000
LPM    ?    ?    e PKPdf  ? 20060717 0838   55.6400 GAU  5.00e-01 -1.00e+00 -1.00e+00 -1.00e+00 >    0.0000 0.0000e+00    0.0000 -106.6318   34.3117   -1.7370    0.0000   0.00  -1.0  -1.0  0     0.0000
EMMW   ?    ?    e PKPdf  ? 20060717 0838   59.4000 GAU  5.00e-01 -1.00e+00 -1.00e+00 -1.00e+00 >    0.0000 0.0000e+00    0.0000  -67.4583   44.7100   -0.0350    0.0000   0.00  -1.0  -1.0  0     0.0000
AMTX   ?    ?    e PKPdf  ? 20060717 0839    0.8300 GAU  5.00e-01 -1.00e+00 -1.00e+00 -1.00e+00 >    0.0000 0.0000e+00    0.0000    0.0000    0.0000    0.0000    0.0000   0.00  -1.0  -1.0  0     0.0000
LBNH   ?    ?    e PKPdf  ? 20060717 0839    2.5500 GAU  5.00e-01 -1.00e+00 -1.00e+00 -1.00e+00 >    0.0000 0.0000e+00    0.0000  -71.9259   44.2401   -0.3670    0.0000   0.00  -1.0  -1.0  0     0.0000
MIV    ?    ?    e PKPdf  ? 20060717 0839    2.6600 GAU  5.00e-01 -1.00e+00 -1.00e+00 -1.00e+00 >    0.0000 0.0000e+00    0.0000  -73.5340   44.0747   -0.3170    0.0000   0.00  -1.0  -1.0  0     0.0000
NCB    ?    ?    e PKPdf  ? 20060717 0839    2.9600 GAU  5.00e-01 -1.00e+00 -1.00e+00 -1.00e+00 >    0.0000 0.0000e+00    0.0000  -74.2236   43.9708   -0.5000    0.0000   0.00  -1.0  -1.0  0     0.0000
ACCN   ?    ?    e PKPdf  ? 20060717 0839    4.8100 GAU  5.00e-01 -1.00e+00 -1.00e+00 -1.00e+00 >    0.0000 0.0000e+00    0.0000  -73.6678   43.3843   -0.3400    0.0000   0.00  -1.0  -1.0  0     0.0000
WVL    ?    ?    e PKPdf  ? 20060717 0839    5.9200 GAU  5.00e-01 -1.00e+00 -1.00e+00 -1.00e+00 >    0.0000 0.0000e+00    0.0000  -69.6575   44.5648   -0.0850    0.0000   0.00  -1.0  -1.0  0     0.0000
FVM    ?    ?    e PKPdf  ? 20060717 0839    6.5100 GAU  5.00e-01 -1.00e+00 -1.00e+00 -1.00e+00 >    0.0000 0.0000e+00    0.0000  -90.4260   37.9840   -0.3100    0.0000   0.00  -1.0  -1.0  0     0.0000
BINY   ?    ?    e PKPdf  ? 20060717 0839    6.5300 GAU  5.00e-01 -1.00e+00 -1.00e+00 -1.00e+00 >    0.0000 0.0000e+00    0.0000  -75.9861   42.1993   -0.4980    0.0000   0.00  -1.0  -1.0  0     0.0000
SLM    ?    ?    e PKPdf  ? 20060717 0839    7.0700 GAU  5.00e-01 -1.00e+00 -1.00e+00 -1.00e+00 >    0.0000 0.0000e+00    0.0000  -90.2361   38.6361   -0.1610    0.0000   0.00  -1.0  -1.0  0     0.0000
HRV    ?    ?    e PKPdf  ? 20060717 0839    7.1500 GAU  5.00e-01 -1.00e+00 -1.00e+00 -1.00e+00 >    0.0000 0.0000e+00    0.0000  -71.5583   42.5064   -0.1800    0.0000   0.00  -1.0  -1.0  0     0.0000
ERPA   ?    ?    e PKPb   c 20060717 0839    7.6600 GAU  5.00e-01 -1.00e+00 -1.00e+00 -1.00e+00 >    0.0000 0.0000e+00    0.0000  -79.9891   42.1175   -0.3063    0.0000   0.00  -1.0  -1.0  0     0.0000
WES    ?    ?    e PKPb   c 20060717 0839    8.2500 GAU  5.00e-01 -1.00e+00 -1.00e+00 -1.00e+00 >    0.0000 0.0000e+00    0.0000  -71.3221   42.3847   -0.0600    0.0000   0.00  -1.0  -1.0  0     0.0000
SDMD   ?    ?    e PKPdf  ? 20060717 0839    9.0100 GAU  5.00e-01 -1.00e+00 -1.00e+00 -1.00e+00 >    0.0000 0.0000e+00    0.0000  -76.8403   39.4102   -0.2125    0.0000   0.00  -1.0  -1.0  0     0.0000
MIAR   ?    ?    e PKPb   c 20060717 0839   11.9500 GAU  5.00e-01 -1.00e+00 -1.00e+00 -1.00e+00 >    0.0000 0.0000e+00    0.0000  -93.5765   34.5454   -0.2070    0.0000   0.00  -1.0  -1.0  0     0.0000
PAL    ?    ?    e PKPb   c 20060717 0839   12.1800 GAU  5.00e-01 -1.00e+00 -1.00e+00 -1.00e+00 >    0.0000 0.0000e+00    0.0000  -73.9079   41.0055   -0.0660    0.0000   0.00  -1.0  -1.0  0     0.0000
OXF    ?    ?    e PKPdf  ? 20060717 0839   12.8200 GAU  5.00e-01 -1.00e+00 -1.00e+00 -1.00e+00 >    0.0000 0.0000e+00    0.0000  -89.4092   34.5118   -0.1010    0.0000   0.00  -1.0  -1.0  0     0.0000
LVC    ?    ?    e PKPb   c 20060717 0839   13.1600 GAU  5.00e-01 -1.00e+00 -1.00e+00 -1.00e+00 >    0.0000 0.0000e+00    0.0000  -68.9113  -22.6128   -2.1650    0.0000   0.00  -1.0  -1.0  0     0.0000
UTMT   ?    ?    e PKPdf  ? 20060717 0839   13.6100 GAU  5.00e-01 -1.00e+00 -1.00e+00 -1.00e+00 >    0.0000 0.0000e+00    0.0000  -88.8642   36.3423   -0.1200    0.0000   0.00  -1.0  -1.0  0     0.0000
TZTN   ?    ?    e PKPdf  ? 20060717 0839   14.0500 GAU  5.00e-01 -1.00e+00 -1.00e+00 -1.00e+00 >    0.0000 0.0000e+00    0.0000 -100000000000000000000.0000 -100000000000000000000.0000 -100000000000000000000.0000    0.0000   0.00  -1.0  -1.0  0     0.0000
CPCT   ?    ?    e PKPdf  ? 20060717 0839   15.2600 GAU  5.00e-01 -1.00e+00 -1.00e+00 -1.00e+00 >    0.0000 0.0000e+00    0.0000  -84.5218   35.4497   -0.2750    0.0000   0.00  -1.0  -1.0  0     0.0000
MIAR   ?    ?    e PKPab  ? 20060717 0839   15.6300 GAU  5.00e-01 -1.00e+00 -1.00e+00 -1.00e+00 >    0.0000 0.0000e+00    0.0000  -93.5765   34.5454   -0.2070    0.0000   0.00  -1.0  -1.0  0     0.0000
LRAL   ?    ?    e PKPdf  ? 20060717 0839   15.9600 GAU  5.00e-01 -1.00e+00 -1.00e+00 -1.00e+00 >    0.0000 0.0000e+00    0.0000  -86.9978   33.0348   -0.1300    0.0000   0.00  -1.0  -1.0  0     0.0000
PAL    ?    ?    e PKPab  ? 20060717 0839   16.9000 GAU  5.00e-01 -1.00e+00 -1.00e+00 -1.00e+00 >    0.0000 0.0000e+00    0.0000  -73.9079   41.0055   -0.0660    0.0000   0.00  -1.0  -1.0  0     0.0000
BRNJ   ?    ?    e PKPab  ? 20060717 0839   17.5600 GAU  5.00e-01 -1.00e+00 -1.00e+00 -1.00e+00 >    0.0000 0.0000e+00    0.0000  -74.5660   40.6828   -0.0500    0.0000   0.00  -1.0  -1.0  0     0.0000
GLAT   ?    ?    e PKPab  ? 20060717 0839   18.0800 GAU  5.00e-01 -1.00e+00 -1.00e+00 -1.00e+00 >    0.0000 0.0000e+00    0.0000  -89.2876   36.2694   -0.1200    0.0000   0.00  -1.0  -1.0  0     0.0000
USIN   ?    ?    e PKPab  ? 20060717 0839   18.2400 GAU  5.00e-01 -1.00e+00 -1.00e+00 -1.00e+00 >    0.0000 0.0000e+00    0.0000  -87.6660   37.9651   -0.1707    0.0000   0.00  -1.0  -1.0  0     0.0000
CPNY   ?    ?    e PKPab  ? 20060717 0839   18.5200 GAU  5.00e-01 -1.00e+00 -1.00e+00 -1.00e+00 >    0.0000 0.0000e+00    0.0000  -73.9600   40.7912   -0.0270    0.0000   0.00  -1.0  -1.0  0     0.0000
UALR   ?    ?    e PKPab  ? 20060717 0839   18.6000 GAU  5.00e-01 -1.00e+00 -1.00e+00 -1.00e+00 >    0.0000 0.0000e+00    0.0000  -92.3436   34.7753   -0.1380    0.0000   0.00  -1.0  -1.0  0     0.0000
MCWV   ?    ?    e PKPab  ? 20060717 0839   19.0200 GAU  5.00e-01 -1.00e+00 -1.00e+00 -1.00e+00 >    0.0000 0.0000e+00    0.0000  -79.8456   39.6581   -0.2800    0.0000   0.00  -1.0  -1.0  0     0.0000
CBN    ?    ?    e PKPab  ? 20060717 0839   19.2500 GAU  5.00e-01 -1.00e+00 -1.00e+00 -1.00e+00 >    0.0000 0.0000e+00    0.0000  -77.3732   38.2046   -0.0700    0.0000   0.00  -1.0  -1.0  0     0.0000
MVL    ?    ?    e PKPab  ? 20060717 0839   19.3600 GAU  5.00e-01 -1.00e+00 -1.00e+00 -1.00e+00 >    0.0000 0.0000e+00    0.0000  -76.3506   39.9992   -0.0910    0.0000   0.00  -1.0  -1.0  0     0.0000
MYNC   ?    ?    e PKPb   c 20060717 0839   22.0800 GAU  5.00e-01 -1.00e+00 -1.00e+00 -1.00e+00 >    0.0000 0.0000e+00    0.0000  -84.1279   35.0739   -0.5500    0.0000   0.00  -1.0  -1.0  0     0.0000
HKT    ?    ?    e PKPab  ? 20060717 0839   22.3300 GAU  5.00e-01 -1.00e+00 -1.00e+00 -1.00e+00 >    0.0000 0.0000e+00    0.0000  -95.8333   29.9500    0.4150    0.0000   0.00  -1.0  -1.0  0     0.0000
NATX   ?    ?    e PKPab  ? 20060717 0839   22.5500 GAU  5.00e-01 -1.00e+00 -1.00e+00 -1.00e+00 >    0.0000 0.0000e+00    0.0000 -100000000000000000000.0000 -100000000000000000000.0000 -100000000000000000000.0000    0.0000   0.00  -1.0  -1.0  0     0.0000
COCO   ?    ?    e Pn     ? 20060717 0821   55.5800 GAU  5.00e-01 -1.00e+00 -1.00e+00 -1.00e+00 >    0.0000 0.0000e+00    0.0000   96.8349  -12.1901    0.0690    0.0000   0.00  -1.0  -1.0  0     0.0000
MYNC   ?    ?    e PKPab  ? 20060717 0839   26.7600 GAU  5.00e-01 -1.00e+00 -1.00e+00 -1.00e+00 >    0.0000 0.0000e+00    0.0000  -84.1279   35.0739   -0.5500    0.0000   0.00  -1.0  -1.0  0     0.0000
TATO   ?    ?    e pP     ? 20060717 0826   44.0900 GAU  1.00e+00 -1.00e+00 -1.00e+00 -1.00e+00 >    0.0000 0.0000e+00    0.0000  121.4881   24.9754   -0.0530    0.0000   0.00  -1.0  -1.0  0     0.0000
CTAO   ?    ?    e pP     ? 20060717 0827    5.3300 GAU  1.00e+00 -1.00e+00 -1.00e+00 -1.00e+00 >    0.0000 0.0000e+00    0.0000  146.2544  -20.0883   -0.3570    0.0000   0.00  -1.0  -1.0  0     0.0000
PMG    ?    ?    e pP     ? 20060717 0827    9.6200 GAU  1.00e+00 -1.00e+00 -1.00e+00 -1.00e+00 >    0.0000 0.0000e+00    0.0000  147.1589   -9.4062   -0.0650    0.0000   0.00  -1.0  -1.0  0     0.0000
INCN   ?    ?    e pP     ? 20060717 0828   32.2000 GAU  1.00e+00 -1.00e+00 -1.00e+00 -1.00e+00 >    0.0000 0.0000e+00    0.0000  126.6330   37.4830   -0.4200    0.0000   0.00  -1.0  -1.0  0     0.0000
OBN    ?    ?    e pP     ? 20060717 0832   16.3800 GAU  1.00e+00 -1.00e+00 -1.00e+00 -1.00e+00 >    0.0000 0.0000e+00    0.0000   36.5687   55.1138   -0.1300    0.0000   0.00  -1.0  -1.0  0     0.0000
IMA2   ?    ?    e Pdif   ? 20060717 0833   23.2400 GAU  5.00e-01 -1.00e+00 -1.00e+00 -1.00e+00 >    0.0000 0.0000e+00    0.0000 -100000000000000000000.0000 -100000000000000000000.0000 -100000000000000000000.0000    0.0000   0.00  -1.0  -1.0  0     0.0000
GNW    ?    ?    e PKPdf  ? 20060717 0838   23.4200 GAU  5.00e-01 -1.00e+00 -1.00e+00 -1.00e+00 >    0.0000 0.0000e+00    0.0000 -122.8253   47.5644   -0.1650    0.0000   0.00  -1.0  -1.0  0     0.0000
