NLLOC "./loc/alaska.20181130.175512.grid0" "LOCATED" "Location completed."
SIGNATURE "NonLinLoc - ALomax Scientific   obs:./obs/2018-11-30-mww70-southern-alaska.obs   NLLoc:v7.00.02(17Oct2018)   run:06Dec2018 13h26m12"
COMMENT "2018-11-30 Mww7.0 Southern Alaska (NonLinLoc Sample Location)"
GRID  201 201 106  -100 -100 -5  1 1 1 PROB_DENSITY
SEARCH OCTREE nInitial 400 nEvaluated 20008 smallestNodeSide 0.156250/0.156250/0.207031 oct_tree_integral 9.701647e+01 scatter_volume 9.685554e+01
HYPOCENTER  x 2.26562 y 46.4844 z -4.89648  OT 3.41004  ix -1 iy -1 iz -1 MAXIMUM_LIKELIHOOD
GEOGRAPHIC  OT 2018 11 30  17 55 3.410039  Lat 61.417192 Long -149.957567 Depth -4.896484
QUALITY  Pmax 1.28031e+53 MFmin 18.7007 MFmax 20.1264 RMS 1.13689 Nphs 25 Gap 62.0896 Dist 38.4135 Mamp -9.90 0 Mdur -9.90 0
VPVSRATIO  VpVsRatio -1  Npair 0  Diff -2e+30
STATISTICS  ExpectX 2.06531 Y 46.197 Z 4.37717  CovXX 3.39121 XY -2.56666 XZ 4.64997 YY 15.8938 YZ -27.3523 ZZ 236.657 EllAz1  78.3521 Dip1  0.237275 Len1  3.18947 Az2  348.323 Dip2  7.06587 Len2  6.76437 Len3  2.911264e+01
STAT_GEOG  ExpectLat 61.414614 Long -149.961322 Depth 4.377172
TRANSFORM  LAMBERT RefEllipsoid Clarke-1880  LatOrig 61.000000  LongOrig -150.000000  FirstStdParal 60.000000  SecondStdParal 62.000000  RotCW 0.000000
QML_OriginQuality  assocPhCt 32  usedPhCt 25  assocStaCt -1  usedStaCt 25  depthPhCt -1  stdErr 1.13689  azGap 62.0896  secAzGap 116.003  gtLevel -  minDist 38.4135 maxDist 247.409 medDist 162.556
QML_OriginUncertainty  horUnc -1  minHorUnc 2.57586  maxHorUnc 6.14169  azMaxHorUnc 168.839
QML_ConfidenceEllipsoid  semiMajorAxisLength 29.1126  semiMinorAxisLength 3.18947  semiIntermediateAxisLength 6.76437  majorAxisPlunge 0  majorAxisAzimuth 0  majorAxisRotation 0.242264
FOCALMECH  Hyp  61.417192 -149.957567 -4.896484 Mech  0 0 0 mf  0 nObs 0
DIFFERENTIAL  Nhyp 140735587367032
PHASE ID Ins Cmp On Pha  FM Date     HrMn   Sec     Err  ErrMag    Coda      Amp       Per       PriorWt  >   TTpred    Res       Weight    StaLoc(X  Y         Z)        SDist    SAzim  RAz  RDip RQual    Tcorr       TTerr
AK_RC01_--   ?    BHZ  ? P      -0ÿÿÿÿâ 20181130 1755   13.6000 GAU  6.00e-02 -1.00e+00  1.75e+01  1.28e+00    1.0000 >    7.3155    2.8744    0.3888   14.0814    9.9332   -0.3900   38.4135 162.09 162.1 200.0  0     0.0000   -1.0000
AT_PMR_--    ?    BHZ  ? S      -0ÿÿÿÿâ 20181130 1755   22.2400 GAU  6.00e-02 -1.00e+00  1.47e+01  2.56e+00    1.0000 >   15.3668    3.4632    0.2580   46.1491   66.2909   -0.1000   48.1462  65.71  65.7 200.0  0     0.0000   -1.0000
AK_GHO_--    ?    BHZ  ? S      0 20181130 1755   26.8684 GAU  8.00e-02 -1.00e+00  1.20e+01  1.28e+00    1.0000 >   21.4450    2.0133    0.6046   56.6953   86.3740   -1.0320   67.4816  53.76  53.8 200.0  0     0.0000   -1.0000
AK_KNK_--    ?    BHZ  ? S      -0ÿÿÿÿâ 20181130 1755   29.0284 GAU  6.00e-02 -1.00e+00  1.04e+01  1.60e-01    1.0000 >   25.1884    0.4300    1.3243   82.3084   46.9963   -0.5980   80.0445  89.63  89.6 200.0  0     0.0000   -1.0000
AK_SAW_--    ?    BHZ  ? P      ? 20181130 1755   20.7684 GAU  4.00e-02 -1.00e+00  1.09e+01  2.00e-02    1.0000 >   17.4196   -0.0613    1.5611   87.9646   91.0412   -0.7810   96.5900  62.53  62.5 200.0  0     0.0000   -1.0000
AK_SLK_--    ?    BHZ  ? S      -0ÿÿÿÿâ 20181130 1755   34.2884 GAU  1.00e-01 -1.00e+00  1.05e+01  2.56e+00    1.0000 >   30.4899    0.3885    1.3066  -12.2555  -54.3822   -0.6550  101.9064 188.19 188.2 200.0  0     0.0000   -1.0000
AK_PWL_--    ?    HNZ  ? P      0 20181130 1755   22.3145 GAU  2.50e-02 -1.00e+00  1.15e+01  5.00e-03    1.0000 >   18.8776    0.0268    1.5516   90.5585  -14.6245   -0.5500  107.3775 124.69 124.7 200.0  0     0.0000   -1.0000
AV_SPCG_--   ?    BHZ  ? P      ? 20181130 1755   22.9600 GAU  4.00e-02 -1.00e+00  1.19e+01  2.00e-02    1.0000 >   19.5194    0.0306    1.5411 -108.4188   34.1306   -1.3290  111.3718 263.63 263.6 200.0  0     0.0000   -1.0000
AV_SPCP_--   ?    BHZ  ? P      -0ÿÿÿÿâ 20181130 1755   24.0680 GAU  1.00e-01 -1.00e+00  1.23e+01  2.00e-02    1.0000 >   20.5627    0.0952    1.5118 -115.5968   31.4831   -1.6160  118.8132 262.75 262.7 200.0  0     0.0000   -1.0000
AV_SPCR_--   ?    BHZ  ? P      -0ÿÿÿÿâ 20181130 1755   24.2200 GAU  4.00e-02 -1.00e+00  1.43e+01  2.00e-02    1.0000 >   21.0487   -0.2388    1.4241 -118.7430   24.3192   -0.9840  123.0219 259.62 259.6 200.0  0     0.0000   -1.0000
AK_SCM_--    ?    BHZ  ? P      -0ÿÿÿÿâ 20181130 1755   27.5084 GAU  4.00e-02 -1.00e+00  1.19e+01  2.00e-02    1.0000 >   24.2138   -0.1154    1.4410  140.6889   95.5759   -1.0500  146.8706  70.47  70.5 200.0  0     0.0000   -1.0000
AK_SWD_--    ?    BHZ  ? S      -0ÿÿÿÿâ 20181130 1755   47.3284 GAU  1.20e-01 -1.00e+00  1.19e+01  5.12e+00    1.0000 >   40.8874    3.0310    0.4731   30.4489  -99.6652   -0.0770  148.8422 169.09 169.1 200.0  0     0.0000   -1.0000
AV_RDT_--    ?    BHZ  ? S      ? 20181130 1755   48.4000 GAU  6.00e-02 -1.00e+00  1.10e+01  3.20e-01    1.0000 >   44.0744    0.9156    1.0593 -131.9721  -45.1925   -0.9300  162.5559 235.67 235.7 200.0  0     0.0000   -1.0000
AK_GLI_--    ?    HNZ  ? P      -0ÿÿÿÿâ 20181130 1755   29.0545 GAU  2.50e-02 -1.00e+00  1.17e+01  8.00e-02    1.0000 >   26.5273   -0.8829    0.7798  157.6640   -9.9635   -0.4300  165.3330 109.96 110.0 200.0  0     0.0000   -1.0000
AK_WAT7_--   ?    BHZ  ? S      0 20181130 1755   50.4684 GAU  1.20e-01 -1.00e+00  1.08e+01  5.12e+00    1.0000 >   45.3542    1.7041    0.8040   58.7508  204.8162   -1.2320  168.1058  19.63  19.6 200.0  0     0.0000   -1.0000
AK_WAT6_--   ?    BHZ  ? S      -0ÿÿÿÿâ 20181130 1755   51.0884 GAU  8.00e-02 -1.00e+00  1.21e+01  2.56e+00    1.0000 >   46.7681    0.9103    1.0556  116.1703  178.1736   -1.6810  174.1159  40.86  40.9 200.0  0     0.0000   -1.0000
AV_RDJH_--   ?    BHZ  ? S      -0ÿÿÿÿâ 20181130 1755   52.5000 GAU  8.00e-02 -1.00e+00  1.08e+01  1.28e+00    1.0000 >   47.8791    1.2109    0.9631 -153.7080  -42.3314   -1.4140  179.4882 240.34 240.3 200.0  0     0.0000   -1.0000
AV_RDWB_--   ?    BHZ  ? S      -0ÿÿÿÿâ 20181130 1755   54.8000 GAU  8.00e-02 -1.00e+00  1.22e+01  6.40e-01    1.0000 >   49.6566    1.7334    0.8081 -156.2149  -53.7095   -1.5460  187.4964 237.70 237.7 200.0  0     0.0000   -1.0000
AV_RED_--    ?    BHZ  ? P      0 20181130 1755   32.6800 GAU  6.00e-02 -1.00e+00  1.70e+01  2.00e-02    1.0000 >   29.6760   -0.4060    1.2084 -152.7839  -61.4282   -1.0710  188.9061 235.16 235.2 200.0  0     0.0000   -1.0000
AK_FID_--    ?    BHZ  ? P      0 20181130 1755   33.4484 GAU  1.00e-01 -1.00e+00  1.20e+01  1.28e+00    1.0000 >   30.6345   -0.5961    1.0542  185.5109  -25.5209   -0.5000  196.8847 111.45 111.5 200.0  0     0.0000   -1.0000
AK_PPLA_--   ?    BHZ  ? P      -0ÿÿÿÿâ 20181130 1755   35.0884 GAU  6.00e-02 -1.00e+00  1.09e+01  2.00e-02    1.0000 >   31.4058    0.2726    1.3355 -111.3681  213.1967   -1.5190  201.7564 325.72 325.7 200.0  0     0.0000   -1.0000
AK_KLU_--    ?    BHZ  ? P      0 20181130 1755   35.5884 GAU  4.00e-02 -1.00e+00  1.11e+01  2.00e-02    1.0000 >   33.1010   -0.9227    0.7742  217.0370   61.6207   -1.0471  215.3040  85.97  86.0 200.0  0     0.0000   -1.0000
AK_HIN_--    ?    HNZ  ? P      0 20181130 1755   38.6695 GAU  2.00e-02 -1.00e+00  1.08e+01  5.00e-03    1.0000 >   33.5513    1.7082    0.7401  192.6700  -62.1501   -0.6229  219.2151 119.71 119.7 200.0  0     0.0000   -1.0000
AK_CNP_--    ?    BHZ  ? S      -0ÿÿÿÿâ 20181130 1756    4.8284 GAU  6.00e-02 -1.00e+00  1.43e+01  2.56e+00    1.0000 >   57.0129    4.4055    0.1784  -70.0410 -163.6652   -0.5640  222.2411 198.99 199.0 200.0  0     0.0000   -1.0000
AK_EYAK_--   ?    BHZ  ? P      -0ÿÿÿÿâ 20181130 1755   41.9684 GAU  4.00e-02 -1.00e+00  1.14e+01  2.00e-02    1.0000 >   37.1363    1.4221    0.8533  233.0342  -42.7188   -0.1339  247.4092 111.13 111.1 200.0  0     0.0000   -1.0000
AK_DHY_--    ?    BHZ  ? S      -0ÿÿÿÿâ 20181130 1756    5.0483 GAU  2.40e-01 -1.00e+00  1.03e+01  1.02e+01    1.0000 >    0.0000    0.0000    0.0000  132.6689  233.9657   -1.6110    0.0000   0.00 359.0  -1.0  0     0.0000   -1.0000
AK_KTH_--    ?    BHZ  ? P      0 20181130 1755   40.6484 GAU  6.00e-02 -1.00e+00  1.26e+01  2.00e-02    1.0000 >    0.0000    0.0000    0.0000  -45.9401  284.8846   -1.1720    0.0000   0.00 359.0  -1.0  0     0.0000   -1.0000
AK_CHUM_--   ?    BHZ  ? P      -0ÿÿÿÿâ 20181130 1755   46.8084 GAU  6.00e-02 -1.00e+00  1.04e+01  2.00e-02    1.0000 >    0.0000    0.0000    0.0000 -113.8756  323.3981   -0.2170    0.0000   0.00 359.0  -1.0  0     0.0000   -1.0000
AK_BMR_--    ?    BHZ  ? P      ? 20181130 1755   49.5484 GAU  4.00e-02 -1.00e+00  1.30e+01  2.00e-02    1.0000 >    0.0000    0.0000    0.0000  291.8435    8.4259   -0.8420    0.0000   0.00 359.0  -1.0  0     0.0000   -1.0000
AK_GOAT_--   ?    BHZ  ? P      0 20181130 1755   49.7684 GAU  6.00e-02 -1.00e+00  1.08e+01  4.00e-02    1.0000 >    0.0000    0.0000    0.0000  288.6122  -35.1201   -0.8955    0.0000   0.00 359.0  -1.0  0     0.0000   -1.0000
AK_GLB_--    ?    BHZ  ? P      -0ÿÿÿÿâ 20181130 1755   54.4084 GAU  4.00e-02 -1.00e+00  1.31e+01  2.00e-02    1.0000 >    0.0000    0.0000    0.0000  329.6303   64.7945   -0.8549    0.0000   0.00 359.0  -1.0  0     0.0000   -1.0000
NP040_D0     ?    HNZ  ? P      ? 20181130 1755   12.0345 GAU  5.00e-03 -1.00e+00  1.56e+01  5.00e-03    1.0000 >    0.0000    0.0000    0.0000 -100000000000000000000.0000 -100000000000000000000.0000 -100000000000000000000.0000    0.0000   0.00 359.0  -1.0  0     0.0000   -1.0000
END_PHASE
SCATTER Nsamples 5000
   1.1872   46.3402   -4.7438  1.29e+02
   5.0283   49.8568   -2.9224  1.25e+02
   0.9923   37.8687   41.1927  1.25e+02
   2.8746   44.7870   -4.3258  1.29e+02
   2.0093   47.5464   -3.7330  1.29e+02
   4.0321   44.0979   30.3536  1.25e+02
   4.1969   44.8737   30.4209  1.25e+02
   1.0486   45.7062    1.5131  1.27e+02
   0.6958   45.6453    1.3917  1.27e+02
   4.9239   48.2533   -4.1230  1.27e+02
   4.4629   51.3747   -1.6630  1.25e+02
   2.5016   39.6016    1.0510  1.25e+02
   0.1145   45.2968   -0.0506  1.27e+02
   2.8325   47.9076   -4.2038  1.29e+02
  -0.6447   48.0187   -4.0835  1.27e+02
   2.2104   47.2043   -3.5547  1.29e+02
   2.3691   47.4316   -3.5090  1.29e+02
   4.7505   42.9672   -2.9587  1.27e+02
   2.5843   40.8289   -3.3074  1.27e+02
   1.9364   46.9275   -3.5289  1.29e+02
   0.9549   47.6171   -4.7686  1.29e+02
   3.1811   46.0928    0.8245  1.27e+02
  -0.4727   50.6752   -2.3469  1.27e+02
  -1.1262   41.8343   -4.2526  1.25e+02
   2.1554   51.2595   -2.9145  1.27e+02
   2.4693   51.8104   -2.8995  1.27e+02
  -2.1936   45.3979   -0.3884  1.25e+02
   2.2942   47.9289   -3.3615  1.29e+02
   2.2426   47.8205   -3.3660  1.29e+02
   0.2459   51.7924   -2.0711  1.27e+02
   1.4227   41.2289   -4.7269  1.27e+02
   1.2844   51.9033   -4.4929  1.27e+02
   2.3542   46.6555   -3.4166  1.29e+02
  -0.9540   48.4318   -4.7334  1.27e+02
   1.9519   46.3717   -3.3475  1.29e+02
   3.0472   41.3921   -1.9564  1.27e+02
   2.1745   48.1297   -3.6319  1.29e+02
   4.9408   40.6930   33.9570  1.23e+02
   1.8941   49.0777   -4.8206  1.29e+02
   2.1842   49.2564   -4.8496  1.29e+02
  -4.2571   50.4114   -1.3717  1.25e+02
   2.3692   37.7758   -2.0142  1.25e+02
   2.1084   37.5447   -2.4509  1.25e+02
   1.4590   47.3052   -3.8607  1.29e+02
   2.7476   44.4736   48.4245  1.25e+02
   2.2648   43.2927   38.2723  1.25e+02
  -1.3507   51.2959    1.0005  1.25e+02
   0.5006   44.5893   -0.9876  1.27e+02
   1.4776   46.5917   -3.8875  1.29e+02
   1.6777   47.9098   -3.4438  1.29e+02
   1.5034   48.0927   -3.8931  1.29e+02
   2.5513   44.6761    2.2015  1.27e+02
   2.2590   46.1974   -3.5542  1.29e+02
   1.7618   47.4049   -3.6541  1.29e+02
   1.6762   56.1554   -2.8571  1.25e+02
  -1.2190   47.2880   -2.8356  1.27e+02
   3.0896   47.1378   -4.0567  1.29e+02
   1.0097   48.1992   -4.8648  1.29e+02
  -0.9390   53.8972    2.8544  1.25e+02
  -0.0693   54.1758    2.7346  1.25e+02
  -3.0956   52.0205   -0.5230  1.25e+02
   4.5448   46.6127   31.0203  1.25e+02
   2.1000   44.3957   -4.4509  1.29e+02
  -0.5173   55.5637    1.8157  1.25e+02
  -0.6126   48.4163   -0.8322  1.27e+02
   0.3248   45.8747    0.3579  1.27e+02
   1.9337   44.1073   -4.9921  1.29e+02
   2.0038   45.6319   -3.4450  1.29e+02
   2.5079   44.7468   -3.9906  1.29e+02
   2.7244   44.7354   -4.0879  1.29e+02
   1.5698   44.7785   -4.2930  1.29e+02
   3.5455   40.1960   -4.2705  1.27e+02
   1.5671   44.4805   -4.8597  1.29e+02
   3.0227   46.5591   -4.0076  1.29e+02
   5.3480   46.4451    0.8863  1.25e+02
   1.6061   46.6125   -3.6822  1.29e+02
   3.0082   49.8223    0.2880  1.27e+02
   4.5660   47.2948   -2.1375  1.27e+02
  -0.4814   49.6376   -0.8434  1.27e+02
   1.2896   48.9496   -4.5721  1.29e+02
   1.3645   48.8880   -4.4966  1.29e+02
   1.3448   46.1358   -4.0587  1.29e+02
   1.0670   45.7263   -4.7761  1.29e+02
   1.3125   45.9411    2.3873  1.27e+02
   3.7400   42.9202   51.3114  1.25e+02
   3.2148   51.7997   57.8342  1.23e+02
   2.7230   47.5999   -3.3472  1.29e+02
   0.9397   42.1854   41.7366  1.25e+02
   1.1842   41.2526   42.7440  1.25e+02
   2.9615   47.6891   -3.9481  1.29e+02
   3.7122   44.6605   39.2073  1.25e+02
  -4.7556   52.4320   -2.7145  1.25e+02
   2.7703   46.9205   -3.7374  1.29e+02
  -4.7198   50.5472   -4.5651  1.25e+02
  -4.0347   50.3061   -4.2963  1.25e+02
   2.5598   42.5923   -0.4755  1.27e+02
   1.6067   48.9901   -3.7622  1.29e+02
  -3.6820   47.5113    1.3208  1.25e+02
   3.4371   46.5355   -4.5006  1.29e+02
   0.7992   51.2751   -0.8904  1.27e+02
   1.9612   44.8406   -3.8627  1.29e+02
   3.1579   47.0575   -4.4140  1.29e+02
  -0.9882   57.8239   -3.7360  1.25e+02
  -0.2547   58.4651   -3.7156  1.25e+02
   0.3971   44.1093   -1.8780  1.27e+02
   2.6842   42.3054   -1.2861  1.27e+02
   2.1855   40.5484   -4.8368  1.27e+02
  -1.2230   46.3490   -4.1642  1.27e+02
   3.4965   40.0422   36.7653  1.25e+02
   2.4156   45.5771   -3.6373  1.29e+02
   2.8688   45.8497   -3.7655  1.29e+02
   0.1062   52.3193    3.6827  1.25e+02
   2.3394   46.3218   43.0821  1.23e+02
   2.9613   40.5925   43.7226  1.27e+02
   2.7838   40.0683   43.0667  1.27e+02
   1.7971   46.2021   -3.5348  1.29e+02
   3.4341   48.0747   -4.8765  1.29e+02
   1.3363   49.3705   -4.6441  1.29e+02
   1.3706   49.2722   -4.8147  1.29e+02
  -0.5388   46.9178   -0.7171  1.27e+02
   3.6083   37.5100   -0.4571  1.25e+02
   2.5525   39.4879   43.6889  1.27e+02
  -1.9966   53.6585   -0.2300  1.25e+02
   3.1283   44.2026   -4.7975  1.29e+02
   3.3395   44.3720   -4.6555  1.29e+02
   2.8324   43.9840   -4.6121  1.29e+02
   2.9952   44.0131   -4.7693  1.29e+02
   1.7306   45.0189   -4.0962  1.29e+02
   3.1338   45.8352   -4.3739  1.29e+02
   1.5393   48.5960   -4.0897  1.29e+02
   5.9957   43.6752    6.8644  1.25e+02
   1.1381   46.8379   -4.5180  1.29e+02
   1.8759   37.0543   44.0319  1.25e+02
   2.0831   54.6989    9.3783  1.23e+02
   0.9941   52.0720   -3.7928  1.27e+02
   0.7666   52.0041   -3.6098  1.27e+02
   3.2971   44.8384    1.1662  1.27e+02
   3.1450   44.6562    0.9824  1.27e+02
   3.3649   54.3045   -1.7724  1.25e+02
   3.7578   46.5573   15.2689  1.23e+02
   1.7338   48.6423   -3.5011  1.29e+02
   1.5751   48.5779   -3.4588  1.29e+02
   1.2994   48.4718   50.8699  1.23e+02
   1.1668   47.2936   -4.2246  1.29e+02
   2.8801   50.5381   -0.4161  1.27e+02
   1.6934   49.2278   -4.2714  1.29e+02
   2.5333   46.4041   -3.7089  1.29e+02
   2.1774   50.3345    0.3419  1.27e+02
   2.2577   44.2743   -4.2388  1.29e+02
  -4.8032   51.0118    1.3717  1.25e+02
   1.5290   48.8919    5.5767  1.25e+02
   2.6428   39.5283   42.4956  1.27e+02
  -3.3641   47.0899   -3.3480  1.25e+02
   2.2783   43.8432   -4.7997  1.29e+02
   2.5034   40.1687   -4.1465  1.27e+02
   2.7881   45.3763   57.2040  1.23e+02
   0.4921   55.2199    2.3896  1.25e+02
   2.9771   40.5188   44.3521  1.27e+02
   1.4673   48.6408    2.3309  1.27e+02
   2.9925   45.0252   -3.8975  1.29e+02
   1.9972   40.8959   35.2170  1.25e+02
   1.6674   40.9989   36.1248  1.25e+02
   1.9077   47.7118   -3.0592  1.29e+02
   3.3732   45.2842   -4.5201  1.29e+02
   3.1408   45.0597   -4.4198  1.29e+02
   1.2335   47.8827   -4.5235  1.29e+02
   2.0656   48.0345   -3.2195  1.29e+02
   4.7351   39.6187   39.7366  1.25e+02
   2.8854   44.6449   28.6221  1.25e+02
   0.6368   49.7401    0.8824  1.27e+02
   2.3217   48.4641   -3.4097  1.29e+02
   3.9565   49.8449   -2.8784  1.27e+02
  -0.7965   48.2210   -2.9111  1.27e+02
   2.3284   44.5380   -3.9701  1.29e+02
   4.1209   44.1829   -0.5284  1.27e+02
   2.8116   45.8994   -3.5119  1.29e+02
  -1.1607   48.8438   -3.4787  1.27e+02
  -0.8017   49.3180   -3.8427  1.27e+02
   2.5094   48.5215   -3.8367  1.29e+02
   2.0808   62.2415   -0.7591  1.23e+02
   1.3073   44.5399   43.7897  1.25e+02
   1.9340   47.2495   -3.2441  1.29e+02
   2.0058   47.4622   -3.3203  1.29e+02
   1.5954   41.8221   -1.7223  1.27e+02
   2.3275   48.9919   -3.7914  1.29e+02
   3.0204   44.1806   -4.2697  1.29e+02
   2.8395   44.1808   -4.3096  1.29e+02
   1.5362   44.7206   -4.9860  1.29e+02
   1.4469   45.0468   -4.2380  1.29e+02
   2.7969   40.0333   42.8743  1.27e+02
   2.3682   47.5843   -3.0243  1.29e+02
   1.0579   46.1763   -4.4558  1.29e+02
   1.0342   46.2173   -4.1907  1.29e+02
   0.5157   43.5586   -3.1351  1.27e+02
   4.2023   45.2402   -0.7972  1.27e+02
   4.0297   45.4475   -0.3793  1.27e+02
   3.3129   47.7456   -4.3660  1.29e+02
   0.2593   49.4370   10.4636  1.23e+02
   2.1830   48.4105   -3.2220  1.29e+02
   2.3622   47.3674   -2.9909  1.29e+02
   2.4380   47.3748   -3.3323  1.29e+02
   2.2199   48.0281   -2.9696  1.29e+02
   2.1301   45.1254   -3.5727  1.29e+02
   1.7736   52.4088   51.5410  1.23e+02
   0.9698   48.9991   -4.9366  1.29e+02
   2.0574   46.9047   -3.0583  1.29e+02
   2.0154   47.0859   -3.0227  1.29e+02
  -0.4293   44.6445   -3.9785  1.27e+02
   1.3479   40.9462   -3.0945  1.27e+02
  -1.2270   49.9012   -4.2257  1.27e+02
   2.8240   49.3515    1.0159  1.27e+02
   4.5559   42.6957   45.7102  1.25e+02
   2.3447   43.8440    1.6815  1.27e+02
   2.7519   39.7344   44.2373  1.27e+02
   2.9843   39.7961   44.1238  1.27e+02
   2.5960   48.2619   -3.6132  1.29e+02
   0.6682   40.2391   43.2592  1.25e+02
   3.0734   44.9970   -4.1692  1.29e+02
   1.4580   48.9989   -3.8679  1.29e+02
   1.2683   48.0633   -3.7067  1.29e+02
   3.6679   46.2775   -4.9282  1.29e+02
   3.6420   46.4391   -4.9330  1.29e+02
   1.3350   47.6855   -3.7225  1.29e+02
   2.3062   47.0117   -2.9986  1.29e+02
   3.6309   45.8676   -4.9613  1.29e+02
   1.8264   45.5022   -3.4921  1.29e+02
   1.5272   47.4038   -3.3687  1.29e+02
   2.0927   46.6148   -2.9646  1.29e+02
   1.2580   48.1565   -3.4747  1.29e+02
   1.6232   47.9449   -3.0639  1.29e+02
   2.6598   48.8652   -4.5455  1.29e+02
   1.4412   49.2705   -4.5177  1.29e+02
   4.5387   46.0124   34.9684  1.25e+02
   4.8857   46.8459   26.8088  1.25e+02
   1.5188   47.1542   -3.4511  1.29e+02
   4.4915   45.2977   26.1501  1.25e+02
   2.6830   40.6795   44.6565  1.27e+02
   1.8498   47.5606   -3.2978  1.29e+02
   2.3418   50.6813   -0.5907  1.27e+02
   2.3463   49.7985    0.8532  1.27e+02
   2.1642   48.9196   -3.3538  1.29e+02
   1.2907   45.4147   -3.9921  1.29e+02
   1.7710   49.0088   -3.4790  1.29e+02
   1.0035   48.7441   -4.3598  1.29e+02
   2.7813   39.1003   42.3696  1.27e+02
   2.6008   40.6840   43.7237  1.27e+02
   1.4032   46.6467   -3.4663  1.29e+02
   1.6032   48.1860   -3.0186  1.29e+02
   5.2011   45.6800   -4.9303  1.27e+02
   2.5518   45.2918   -3.3622  1.29e+02
   2.3880   48.2075   -3.1929  1.29e+02
   2.3697   46.6733   -3.1319  1.29e+02
   1.2271   41.4185   -4.4281  1.27e+02
   1.8828   46.4225   -3.2176  1.29e+02
  -0.5759   51.4781   -4.2551  1.27e+02
   3.6651   45.2032   -4.9605  1.29e+02
   4.4078   45.8144   -2.3732  1.27e+02
   3.4715   47.0505   -4.6613  1.29e+02
   1.6175   49.6445   -4.6980  1.29e+02
   1.6017   47.3371   -3.0090  1.29e+02
