NLLOC "./loc/alaska.20181130.182011.grid0" "LOCATED" "Location completed."
SIGNATURE "NonLinLoc - ALomax Scientific   obs:./obs/2018-11-30-mww70-southern-alaska.obs   NLLoc:v7.00.02(17Oct2018)   run:06Dec2018 13h26m13"
COMMENT "2018-11-30 Mww7.0 Southern Alaska (NonLinLoc Sample Location)"
GRID  201 201 106  -100 -100 -5  1 1 1 PROB_DENSITY
SEARCH OCTREE nInitial 400 nEvaluated 20008 smallestNodeSide 0.312500/0.312500/0.414062 oct_tree_integral 1.324097e+02 scatter_volume 1.321752e+02
HYPOCENTER  x -42.0312 y 62.3438 z -3.96484  OT 1.36628  ix -1 iy -1 iz -1 MAXIMUM_LIKELIHOOD
GEOGRAPHIC  OT 2018 11 30  18 20 1.366281  Lat 61.557250 Long -150.790755 Depth -3.964844
QUALITY  Pmax 1.08972e+23 MFmin 13.4643 MFmax 14.4948 RMS 0.940362 Nphs 16 Gap 56.9178 Dist 55.9413 Mamp -9.90 0 Mdur -9.90 0
VPVSRATIO  VpVsRatio -1  Npair 0  Diff -2e+30
STATISTICS  ExpectX -35.3136 Y 62.9412 Z 10.925  CovXX 82.2499 XY -25.816 XZ 17.1032 YY 54.2834 YZ 48.7336 ZZ 390.115 EllAz1  209.515 Dip1  8.07314 Len1  10.5825 Az2  299.268 Dip2  -1.74221 Len2  18.5343 Len3  3.746410e+01
STAT_GEOG  ExpectLat 61.563281 Long -150.664495 Depth 10.924957
TRANSFORM  LAMBERT RefEllipsoid Clarke-1880  LatOrig 61.000000  LongOrig -150.000000  FirstStdParal 60.000000  SecondStdParal 62.000000  RotCW 0.000000
QML_OriginQuality  assocPhCt 23  usedPhCt 16  assocStaCt -1  usedStaCt 16  depthPhCt -1  stdErr 0.940362  azGap 56.9178  secAzGap 103.063  gtLevel -  minDist 55.9413 maxDist 265.675 medDist 163.789
QML_OriginUncertainty  horUnc -1  minHorUnc 9.4597  maxHorUnc 14.9847  azMaxHorUnc 120.779
QML_ConfidenceEllipsoid  semiMajorAxisLength 37.4641  semiMinorAxisLength 10.5825  semiIntermediateAxisLength 18.5343  majorAxisPlunge 0  majorAxisAzimuth 0  majorAxisRotation 163.938
FOCALMECH  Hyp  61.557250 -150.790755 -3.964844 Mech  0 0 0 mf  0 nObs 0
DIFFERENTIAL  Nhyp 140735587367032
PHASE ID Ins Cmp On Pha  FM Date     HrMn   Sec     Err  ErrMag    Coda      Amp       Per       PriorWt  >   TTpred    Res       Weight    StaLoc(X  Y         Z)        SDist    SAzim  RAz  RDip RQual    Tcorr       TTerr
AV_STLK_--   ?    BHZ  ? P      ? 20181130 1820   11.9800 GAU  6.00e-02 -1.00e+00  1.41e+01  2.00e-02    1.0000 >   10.5803    0.0334    2.6657  -97.7049   56.8786   -0.9450   55.9413 264.39 264.4  85.9  9     0.0000   -1.0000
AK_SKN_--    ?    BHZ  ? P      0 20181130 1820   12.9284 GAU  4.00e-02 -1.00e+00  1.62e+01  2.00e-02    1.0000 >   11.5824   -0.0203    2.6738  -80.3077  110.1399   -0.5810   61.2336 321.31 321.3  85.9  9     0.0000   -1.0000
AV_SPBL_--   ?    BHZ  ? P      0 20181130 1820   12.7800 GAU  4.00e-02 -1.00e+00  1.40e+01  2.00e-02    1.0000 >   11.7598   -0.3461    1.8108 -101.2807   43.4033   -0.9270   62.2033 252.27 252.3  86.2  9     0.0000   -1.0000
AV_SPCG_--   ?    BHZ  ? P      ? 20181130 1820   15.2000 GAU  6.00e-02 -1.00e+00  1.12e+01  2.00e-02    1.0000 >   13.6260    0.2077    2.1891 -108.4188   34.1306   -1.3290   72.1339 246.98 247.0  83.5  9     0.0000   -1.0000
AV_SPCR_--   ?    BHZ  ? P      0 20181130 1820   17.0600 GAU  6.00e-02 -1.00e+00  1.21e+01  2.00e-02    1.0000 >   15.7441   -0.0503    2.4757 -118.7430   24.3192   -0.9840   85.6187 243.63 243.6  50.2 10     0.0000   -1.0000
AK_CUT_--    ?    BHZ  ? P      -0ÿÿÿÿâ 20181130 1820   16.1400 GAU  6.00e-02 -1.00e+00  1.23e+01  2.00e-02    1.0000 >   17.5542   -2.7805    0.3955  -13.5739  156.6879   -0.5740   98.5426  16.79  16.8  47.7 10     0.0000   -1.0000
AK_SLK_--    ?    BHZ  ? P      0 20181130 1820   14.5884 GAU  4.00e-02 -1.00e+00  1.52e+01  2.00e-02    1.0000 >   20.5375   -7.3153    0.0214  -12.2555  -54.3822   -0.6550  120.4638 165.69 165.7  45.7 10     0.0000   -1.0000
AV_RDJH_--   ?    BHZ  ? P      0 20181130 1820   30.6600 GAU  1.20e-01 -1.00e+00  1.10e+01  5.12e+00    1.0000 >   24.9402    4.3535    0.2179 -153.7080  -42.3314   -1.4140  153.0640 226.85 226.9  43.5 10     0.0000   -1.0000
AK_WAT7_--   ?    BHZ  ? P      -0ÿÿÿÿâ 20181130 1820   30.6484 GAU  8.00e-02 -1.00e+00  1.29e+01  2.56e+00    1.0000 >   27.7014    1.5807    0.1576   58.7508  204.8162   -1.2320  174.5149  35.27  35.3  43.5 10     0.0000   -1.0000
AK_SWD_--    ?    BHZ  ? P      0 20181130 1820   26.9484 GAU  8.00e-02 -1.00e+00  1.15e+01  3.20e-01    1.0000 >   27.9299   -2.3478    0.4711   30.4489  -99.6652   -0.0770  177.4831 155.90 155.9  43.5 10     0.0000   -1.0000
AK_SCM_--    ?    BHZ  ? P      0 20181130 1820   25.8884 GAU  8.00e-02 -1.00e+00  1.18e+01  6.40e-01    1.0000 >   29.1315   -4.6094    0.1711  140.6889   95.5759   -1.0500  185.7176  79.69  79.7  43.5 10     0.0000   -1.0000
AK_WAT6_--   ?    BHZ  ? P      -0ÿÿÿÿâ 20181130 1820   32.1084 GAU  4.00e-02 -1.00e+00  1.07e+01  2.00e-02    1.0000 >   30.5621    0.1800    1.7423  116.1703  178.1736   -1.6810  196.0722  53.79  53.8  43.5 10     0.0000   -1.0000
AK_BRSE_--   ?    BHZ  ? P      0 20181130 1820   36.3084 GAU  4.00e-02 -1.00e+00  1.12e+01  2.00e-02    1.0000 >   31.2159    3.7262    0.2259  -41.6971 -139.9566   -0.5410  202.3006 179.91 179.9  43.5 10     0.0000   -1.0000
AK_GLI_--    ?    HNZ  ? P      -0ÿÿÿÿâ 20181130 1820   28.3395 GAU  1.50e-02 -1.00e+00  1.07e+01  8.00e-02    1.0000 >   32.5102   -5.5369    0.1747  157.6640   -9.9635   -0.4300  212.3829 109.90 109.9  43.5 10     0.0000   -1.0000
AK_TRF_--    ?    BHZ  ? P      0 20181130 1820   40.9484 GAU  6.00e-02 -1.00e+00  1.02e+01  4.00e-02    1.0000 >   32.7125    6.8696    0.0036  -14.4406  273.1461   -1.7099  212.6003   7.46   7.5  43.5 10     0.0000   -1.0000
AK_HIN_--    ?    HNZ  ? P      0 20181130 1820   39.1995 GAU  2.00e-02 -1.00e+00  1.19e+01  5.00e-03    1.0000 >   39.3948   -1.5616    0.6038  192.6700  -62.1501   -0.6229  265.6754 117.94 117.9  42.2 10     0.0000   -1.0000
AK_CAST_--   ?    BHZ  ? P      ? 20181130 1820   39.1484 GAU  1.80e-01 -1.00e+00  1.01e+01  1.60e-01    1.0000 >    0.0000    0.0000    0.0000 -104.1740  271.2800   -0.6110    0.0000   0.00 359.0  -1.0  0     0.0000   -1.0000
AK_CHUM_--   ?    BHZ  ? P      -0ÿÿÿÿâ 20181130 1820   44.8884 GAU  4.00e-02 -1.00e+00  1.29e+01  2.00e-02    1.0000 >    0.0000    0.0000    0.0000 -113.8756  323.3981   -0.2170    0.0000   0.00 359.0  -1.0  0     0.0000   -1.0000
AK_KTH_--    ?    BHZ  ? P      0 20181130 1820   38.6484 GAU  1.20e-01 -1.00e+00  1.02e+01  5.12e+00    1.0000 >    0.0000    0.0000    0.0000  -45.9401  284.8846   -1.1720    0.0000   0.00 359.0  -1.0  0     0.0000   -1.0000
NP_AMJG1     ?    HNZ  ? P      0 20181130 1820   12.6850 GAU  2.00e-02 -1.00e+00  1.32e+01  8.00e-02    1.0000 >    0.0000    0.0000    0.0000 -100000000000000000000.0000 -100000000000000000000.0000 -100000000000000000000.0000    0.0000   0.00 359.0  -1.0  0     0.0000   -1.0000
NP0521       ?    HNZ  ? S      -0ÿÿÿÿâ 20181130 1820   49.6350 GAU  4.00e-02 -1.00e+00  1.03e+01  5.00e-03    1.0000 >    0.0000    0.0000    0.0000 -100000000000000000000.0000 -100000000000000000000.0000 -100000000000000000000.0000    0.0000   0.00 359.0  -1.0  0     0.0000   -1.0000
AK_RAG_--    ?    BHZ  ? P      0 20181130 1820   51.8284 GAU  4.00e-02 -1.00e+00  1.39e+01  2.00e-02    1.0000 >    0.0000    0.0000    0.0000  293.2037  -56.4555   -0.7520    0.0000   0.00 359.0  -1.0  0     0.0000   -1.0000
AK_MCK_--    ?    BHZ  ? P      -0ÿÿÿÿâ 20181130 1820   42.7684 GAU  1.20e-01 -1.00e+00  1.16e+01  2.56e+00    1.0000 >    0.0000    0.0000    0.0000   52.5517  304.9713   -0.6180    0.0000   0.00 359.0  -1.0  0     0.0000   -1.0000
END_PHASE
SCATTER Nsamples 5000
 -26.2059   64.4109   24.6143  5.21e+01
 -26.1839   63.9509   23.8270  5.21e+01
 -41.6842   61.3113   -2.4638  5.42e+01
 -29.9125   60.0828    0.3122  5.21e+01
 -29.1050   60.2120    1.1676  5.21e+01
 -44.7803   63.1204    1.9842  5.21e+01
 -43.7744   62.9022    2.9585  5.21e+01
 -38.7947   60.6254   -3.0273  5.42e+01
 -29.8228   63.7973   12.5935  5.21e+01
 -29.9321   64.5901   12.0374  5.21e+01
 -45.8739   64.6113   -0.5971  5.41e+01
 -44.9470   64.5001   -0.4224  5.41e+01
 -29.1144   65.5002   10.4331  5.21e+01
 -29.7928   65.6714   10.8823  5.21e+01
 -26.4856   62.0179   21.8000  5.00e+01
 -27.0107   61.9463   22.3681  5.00e+01
 -38.1556   45.6134   -2.1947  5.21e+01
 -37.9226   45.7422   -2.2987  5.21e+01
 -28.4927   67.4220   42.5000  5.21e+01
 -28.0117   66.8063   42.1063  5.21e+01
 -37.1187   47.7886   -3.7781  5.21e+01
 -36.4029   48.7247   -4.2316  5.21e+01
 -39.6452   62.9513   -3.0200  5.41e+01
 -38.5124   73.5870    0.6836  4.79e+01
 -37.9090   74.2930   -2.5664  4.79e+01
 -25.5778   65.8195   19.7793  5.21e+01
 -25.2287   65.0834   18.6427  5.21e+01
 -29.3339   67.3847   19.8170  5.20e+01
 -29.4959   67.4748   19.5554  5.20e+01
 -24.5349   63.9287   21.7199  5.00e+01
 -26.3978   64.7400   -4.5242  5.20e+01
 -27.3494   64.8448   -4.6397  5.20e+01
 -32.6087   62.4974   -4.3766  5.41e+01
 -33.0352   62.2034   -4.9795  5.41e+01
 -36.8153   58.4085   -4.8564  5.41e+01
 -33.6641   68.7956   52.6833  5.20e+01
 -26.6178   65.5061   33.7557  5.20e+01
 -20.1598   48.0240   85.9524  4.58e+01
 -25.3721   47.5169   87.3294  4.58e+01
 -26.2131   65.3342   15.1171  5.20e+01
 -26.1586   65.1817   15.3919  5.20e+01
 -25.0597   56.6602   23.6424  4.99e+01
 -36.0791   62.4567   -3.8644  5.41e+01
 -44.3228   64.3894   -1.3467  5.41e+01
 -44.1071   64.4568   -1.3985  5.41e+01
 -48.1602   66.2133    3.8708  5.20e+01
 -48.0925   65.2004    3.9737  5.20e+01
 -47.0154   63.9560    4.8212  5.20e+01
 -31.1195   63.0696   -4.5093  5.41e+01
 -26.9984   66.3560   29.7504  5.20e+01
 -27.3722   67.1506   28.6123  5.20e+01
 -23.9222   61.4625    3.8711  5.20e+01
 -23.7755   62.4597    3.9768  5.20e+01
 -28.4192   62.9833   -4.3497  5.41e+01
 -28.2452   62.6251   -4.7884  5.41e+01
 -74.5482   98.5514   36.7460  4.99e+01
 -74.5799   98.8847   35.9219  4.99e+01
 -20.3088   51.9638   22.0142  4.79e+01
 -26.6127   56.1943    7.1514  5.20e+01
 -27.4160   55.0116    7.9910  5.20e+01
 -32.3651   66.8691   30.9647  5.20e+01
 -31.8204   66.2614   30.9654  5.20e+01
 -23.2831   64.5621   27.6283  4.99e+01
 -22.7457   64.8584   25.9497  4.99e+01
 -23.7595   62.9272    9.2770  5.20e+01
 -24.5436   62.6609    8.9384  5.20e+01
 -38.6667   59.5268   -4.0697  5.41e+01
 -38.3745   59.4839   -3.7151  5.41e+01
 -34.1934   61.6908   -4.0533  5.41e+01
 -27.7352   56.8876   38.9385  4.99e+01
 -29.8954   55.5912   40.1027  4.99e+01
 -25.0926   54.6694   27.7546  4.99e+01
   6.0705   50.1975   19.1105  4.58e+01
 -26.9668   59.1215   -4.9751  5.41e+01
 -35.1396   71.0046   42.5446  4.99e+01
 -28.3512   62.4343   -3.7729  5.41e+01
 -28.3094   62.3003   -3.6669  5.41e+01
 -43.6001   47.9914   19.5598  4.99e+01
 -43.9926   48.8397   18.6225  4.99e+01
 -42.0955   62.3576   -4.1416  5.62e+01
 -42.1603   62.3547   -3.7764  5.62e+01
 -39.0613   45.2337   -3.5116  5.20e+01
 -38.8217   46.0496   -4.2643  5.20e+01
 -26.0715   62.2624    9.2576  5.20e+01
 -27.0338   60.5809    0.5337  5.20e+01
 -27.2367   60.6022    1.1148  5.20e+01
 -33.4751   69.5850   55.1583  5.20e+01
 -44.6284   63.9720    0.2227  5.41e+01
 -44.9206   63.7746    0.7459  5.41e+01
 -34.6072   63.7503   -0.8295  5.20e+01
 -34.0020   64.0232   -0.6735  5.20e+01
 -44.8749   61.9428   -3.8785  5.41e+01
 -44.5091   62.4135   -3.9756  5.41e+01
 -41.3396   61.9922   -4.2277  5.61e+01
 -62.4955   91.9760   20.5543  4.99e+01
 -60.6465   91.4046   19.2295  4.99e+01
 -28.6036   62.8912    9.6488  5.20e+01
 -27.6502   63.6961    9.6542  5.20e+01
 -25.8626   64.2634   27.8435  5.20e+01
 -31.0891   65.8537   19.6497  5.20e+01
 -41.7423   62.3151   -4.0237  5.61e+01
 -41.7276   62.4384   -4.1224  5.61e+01
 -41.8285   61.9376   -4.2741  5.61e+01
 -29.0598   67.9940   32.8564  5.20e+01
 -27.0887   55.2282    1.5586  5.20e+01
 -26.3478   58.0523    7.6123  5.20e+01
 -44.6000   62.1399   -2.3389  5.41e+01
 -44.7039   62.3235   -2.2511  5.41e+01
 -41.5834   62.0022   -3.8583  5.61e+01
 -28.0272   63.4796    5.2451  5.20e+01
 -28.4225   62.5963    5.9242  5.20e+01
 -36.3269   59.1280   -3.4062  5.41e+01
 -32.6780   62.9755    5.8304  5.20e+01
 -27.4649   55.5960    3.4884  5.20e+01
 -27.3282   55.2239    3.9947  5.20e+01
 -42.2257   62.4769   -4.0565  5.61e+01
 -42.4915   62.4817   -4.0824  5.61e+01
 -27.8424   59.3890   -4.9697  5.40e+01
 -31.7898   55.1403   35.3673  4.99e+01
 -30.3142   55.4426   36.7536  4.99e+01
 -26.6106   67.0562   25.7565  5.20e+01
 -27.3321   66.7923   25.7264  5.20e+01
 -30.7784   65.6632   40.9343  5.20e+01
 -30.0481   65.0110   40.5476  5.20e+01
 -27.7525   61.2920   -3.6949  5.40e+01
 -27.8796   61.6011   -3.6271  5.40e+01
 -41.5502   61.9349   -3.8874  5.61e+01
 -41.3874   62.0152   -3.9543  5.61e+01
 -41.1929   61.8706   -4.6882  5.61e+01
 -41.0814   61.8970   -4.4158  5.61e+01
 -32.4196   67.8507   14.9536  4.99e+01
 -30.9411   68.7378   15.3431  4.99e+01
 -41.6318   62.3498   -4.5672  5.61e+01
 -28.6719   57.2963   14.1923  5.20e+01
 -28.2693   57.8419    2.0345  5.20e+01
 -41.4218   61.9234   -4.8914  5.61e+01
 -28.1917   65.8599    2.7861  5.20e+01
 -28.2787   66.1368    2.4733  5.20e+01
 -40.7009   61.8071   -4.9635  5.61e+01
 -42.1479   61.9009   -3.9843  5.61e+01
 -29.7714   63.7591    9.6160  5.20e+01
 -26.5458   55.9924   10.1612  5.20e+01
 -27.4194   55.8851   11.0195  5.20e+01
 -41.2150   48.0817   17.2285  4.99e+01
 -34.7043   64.8430    9.7216  5.19e+01
 -30.7764   57.1272   48.4688  4.99e+01
 -25.1895   65.7941   12.8402  5.19e+01
 -40.0516   59.4633   -4.8272  5.40e+01
 -28.0659   54.8410   23.1535  4.99e+01
 -28.2371   54.7409   22.3817  4.99e+01
 -41.1991   62.1150   -4.7048  5.61e+01
 -34.2896   62.6958    0.2214  5.19e+01
 -34.3546   63.2277    1.2538  5.19e+01
 -41.2938   50.0039   13.2148  4.99e+01
 -42.7279   61.8788   -1.3834  5.40e+01
 -42.9164   62.3925   -1.0002  5.40e+01
 -42.1407   62.2705   -4.2356  5.61e+01
 -42.0396   62.3166   -4.1954  5.61e+01
 -25.2370   58.6980   -4.9548  5.40e+01
 -25.2378   58.2634   -4.8981  5.40e+01
 -31.1099   63.0945    5.4629  5.19e+01
 -30.5665   62.7922    6.1495  5.19e+01
 -30.9895   69.9102   48.1766  5.19e+01
 -30.0892   69.4132   48.2461  5.19e+01
 -42.2355   62.3722   -3.7318  5.61e+01
 -42.4011   62.4874   -3.6517  5.61e+01
 -25.9363   60.5726   -4.5718  5.40e+01
 -41.0620   61.6053   -4.3876  5.61e+01
 -33.2333   68.2123   50.1539  5.19e+01
 -27.5876   64.8306   -3.0162  5.19e+01
 -28.5317   64.5672   -2.9298  5.19e+01
 -31.0978   62.2478   -4.1232  5.40e+01
 -44.6242   62.5825   -4.9995  5.40e+01
 -42.0644   62.2749   -3.4626  5.61e+01
 -42.0977   62.4289   -3.6657  5.61e+01
 -42.3665   62.7642   -3.5589  5.61e+01
 -28.7606   64.3442   32.2314  5.19e+01
 -41.5000   61.8123   -4.5698  5.61e+01
 -37.0753   72.9567   65.1843  4.98e+01
 -42.2410   62.6236   -4.0157  5.61e+01
 -42.7980   62.7872   -3.4063  5.61e+01
 -42.6000   62.6877   -3.4666  5.61e+01
 -24.3108   54.0457    6.5814  4.98e+01
 -32.2965   64.0716    2.3678  5.19e+01
 -31.8556   64.8361    2.2059  5.19e+01
 -42.0144   61.9813   -4.2040  5.61e+01
 -41.9120   62.0193   -4.5254  5.61e+01
 -41.5332   61.7993   -4.6290  5.61e+01
 -41.5181   61.7973   -4.8326  5.61e+01
 -26.9199   61.1743   30.2953  4.98e+01
 -41.3542   62.2886   -4.4489  5.61e+01
 -40.1115   63.4866   -4.6245  5.40e+01
 -39.5509   49.1524   -1.8067  5.19e+01
 -41.5462   62.3428   -3.8321  5.61e+01
 -95.1458   60.9006   16.6145  4.57e+01
 -28.7911   53.9713   28.1986  4.98e+01
 -41.6677   61.9475   -4.6192  5.61e+01
 -41.7547   62.0810   -4.6793  5.61e+01
 -17.1198   48.7829    0.9036  4.78e+01
 -33.2045   60.7136   -3.8224  5.40e+01
 -33.7075   60.8933   -3.5678  5.40e+01
 -27.9485   62.6581   12.1427  5.19e+01
 -40.3372   61.5805   -4.9372  5.61e+01
 -40.4760   61.7599   -4.7268  5.61e+01
 -27.7216   56.4835   10.2613  5.19e+01
 -28.5916   56.9765   10.4549  5.19e+01
 -28.6323   60.9047   -3.7558  5.40e+01
 -41.9642   62.6670   -3.8502  5.61e+01
 -45.7716   66.1407    4.8822  5.19e+01
 -27.6255   66.3614   17.2538  5.19e+01
 -40.9316   61.7514   -4.3925  5.61e+01
 -33.1570   56.7043   52.5607  4.98e+01
 -34.7258   55.5558   52.8468  4.98e+01
 -30.9757   62.2328    4.3475  5.19e+01
 -30.4458   61.2532    3.9925  5.19e+01
 -32.6698   68.0637   44.3247  5.19e+01
 -33.1802   68.3465   44.4263  5.19e+01
 -33.1568   68.9473   48.7203  5.19e+01
 -24.5997   63.1870   10.3447  5.19e+01
 -24.1015   62.5428   11.4822  5.19e+01
 -41.8239   60.1616   -3.8614  5.40e+01
 -32.0954   67.1365   46.6051  5.19e+01
 -27.0616   58.7968    1.9639  5.19e+01
 -45.6218   64.6048    0.5245  5.40e+01
 -42.6628   62.7455   -2.9319  5.61e+01
 -27.0319   66.1682    0.0330  5.19e+01
 -27.9539   60.6076    2.1641  5.19e+01
 -40.7217   61.9987   -4.8144  5.61e+01
 -40.7001   61.9312   -4.8619  5.61e+01
 -41.2112   62.0103   -4.0597  5.61e+01
 -43.2023   64.1944   -4.4154  5.40e+01
 -43.7195   64.0623   -4.3641  5.40e+01
 -33.5990   69.1605   57.8022  5.19e+01
 -30.2409   61.3151   -3.6237  5.40e+01
 -30.2070   61.2968   -3.9965  5.40e+01
 -23.3894   45.5938   22.0479  4.77e+01
 -37.9921   60.9684   -2.6683  5.40e+01
 -38.3208   59.1672   -4.4492  5.40e+01
 -38.6180   59.3387   -4.6643  5.40e+01
 -33.4424   68.0430   47.5913  5.19e+01
 -42.7118   62.4022   -3.6328  5.60e+01
 -25.4058   62.3397   11.5339  5.19e+01
 -28.8115   66.2679   15.7396  5.19e+01
 -29.2966   67.3129   15.0626  5.19e+01
 -27.4973   66.5121   21.8480  5.19e+01
 -40.6622   62.1839   -4.3416  5.60e+01
 -40.6473   62.0905   -4.4719  5.60e+01
 -46.1950   64.5387    0.7173  5.40e+01
 -46.2388   64.5766    0.2078  5.40e+01
 -30.6671   67.4005   19.9517  5.19e+01
 -30.7349   67.4734   20.7265  5.19e+01
 -29.9758   64.8214   -0.3461  5.19e+01
 -40.3256   61.3539   -4.8549  5.60e+01
 -39.8888   48.2052   -0.4863  5.19e+01
 -58.3623   69.1991   11.4104  4.98e+01
 -40.7899   61.3988   -4.9235  5.60e+01
 -40.7137   61.3641   -4.7280  5.60e+01
 -42.5757   62.7041   -3.9259  5.60e+01
 -42.6575   62.5047   -4.1695  5.60e+01
 -30.0641   62.9726   -4.0494  5.40e+01
 -26.4066   63.5053   24.1728  5.19e+01
 -27.1204   63.1734   24.6903  5.19e+01
 -43.0916   62.7461   -3.1701  5.60e+01
 -24.1839   62.4638    6.8149  5.19e+01
   0.4215   55.2372   -4.9696  4.56e+01
   6.8750   56.8293   -2.7969  4.56e+01
 -42.5728   62.3912   -3.9517  5.60e+01
 -42.5953   62.3337   -4.1182  5.60e+01
 -42.2484   62.2446   -4.4057  5.60e+01
 -41.8150   61.6976   -4.4177  5.60e+01
 -27.2758   62.8619   27.4057  5.19e+01
 -41.9208   62.5352   -3.6642  5.60e+01
 -27.0181   65.3388   36.2366  5.19e+01
 -41.7472   62.3626   -3.5026  5.60e+01
 -42.4986   61.9631   -4.1290  5.60e+01
 -32.7925   69.8993   27.5689  4.98e+01
 -42.4473   62.6573   -3.3154  5.60e+01
 -42.3354   62.5847   -3.1026  5.60e+01
 -33.2010   68.3342   40.7608  5.19e+01
 -41.4574   61.7743   -4.0084  5.60e+01
 -41.3699   61.5852   -3.9619  5.60e+01
 -42.8960   62.6770   -3.7548  5.60e+01
 -36.2195   68.9037   59.0535  4.98e+01
 -41.7023   62.2275   -4.8418  5.60e+01
 -41.8557   62.3863   -4.9964  5.60e+01
 -45.0466   61.8447   -3.5185  5.19e+01
 -40.1633   61.5621   -4.7343  5.60e+01
 -31.3797   68.4727   32.0390  5.19e+01
 -38.5213   46.9517   22.0504  4.98e+01
 -41.3326   62.2963   -4.6288  5.60e+01
 -41.4079   62.3271   -4.7567  5.60e+01
 -42.8157   62.8606   -3.3150  5.60e+01
 -36.1288   58.5297   -3.1153  5.19e+01
 -29.9856   68.4637   49.0778  5.19e+01
 -32.8094   56.2073   55.3220  4.98e+01
 -34.5532   55.9264   56.1947  4.98e+01
 -44.1892   46.1789   16.3917  4.98e+01
 -41.9352   61.9227   -3.7220  5.60e+01
 -41.9575   61.9900   -3.5478  5.60e+01
 -40.1184   61.6192   -4.8056  5.60e+01
 -41.7162   62.7721   -3.8368  5.60e+01
 -44.1617   62.7223   -0.4809  5.39e+01
 -41.0117   61.8450   -4.0866  5.60e+01
 -41.0490   61.7761   -4.1357  5.60e+01
 -45.8047   64.3367    0.2533  5.39e+01
 -40.5453   61.7006   -4.2615  5.60e+01
 -40.3770   61.7970   -4.4810  5.60e+01
 -26.1590   65.4221    8.5833  5.18e+01
 -38.8814   48.4776   13.2838  4.98e+01
 -29.6255   64.8031   46.1208  4.98e+01
 -45.0108   63.6263   20.5814  4.77e+01
 -41.0836   61.3440   -4.6345  5.60e+01
