NLLOC "./loc/alaska.20181130.173543.grid0" "LOCATED" "Location completed."
SIGNATURE "NonLinLoc - ALomax Scientific   obs:./obs/2018-11-30-mww70-southern-alaska.obs   NLLoc:v7.00.02(17Oct2018)   run:06Dec2018 13h26m12"
COMMENT "2018-11-30 Mww7.0 Southern Alaska (NonLinLoc Sample Location)"
GRID  201 201 106  -100 -100 -5  1 1 1 PROB_DENSITY
SEARCH OCTREE nInitial 400 nEvaluated 20000 smallestNodeSide 0.156250/0.156250/0.207031 oct_tree_integral 1.018053e+02 scatter_volume 1.010323e+02
HYPOCENTER  x -0.546875 y 28.9844 z -4.89648  OT 35.1973  ix -1 iy -1 iz -1 MAXIMUM_LIKELIHOOD
GEOGRAPHIC  OT 2018 11 30  17 35 35.197325  Lat 61.260139 Long -150.010191 Depth -4.896484
QUALITY  Pmax 5.3917e+70 MFmin 22.9886 MFmax 24.5223 RMS 0.947007 Nphs 30 Gap 45.5132 Dist 24.0194 Mamp -9.90 0 Mdur -9.90 0
VPVSRATIO  VpVsRatio -1  Npair 0  Diff -2e+30
STATISTICS  ExpectX -5.25727 Y 27.2947 Z 12.6917  CovXX 14.8815 XY 2.32928 XZ -43.7072 YY 7.33386 YZ -16.0305 ZZ 179.536 EllAz1  59.5174 Dip1  14.5504 Len1  3.30197 Az2  330.191 Dip2  -2.59198 Len2  4.91224 Len3  2.602209e+01
STAT_GEOG  ExpectLat 61.244940 Long -150.097927 Depth 12.691673
TRANSFORM  LAMBERT RefEllipsoid Clarke-1880  LatOrig 61.000000  LongOrig -150.000000  FirstStdParal 60.000000  SecondStdParal 62.000000  RotCW 0.000000
QML_OriginQuality  assocPhCt 34  usedPhCt 30  assocStaCt -1  usedStaCt 30  depthPhCt -1  stdErr 0.947007  azGap 45.5132  secAzGap 72.416  gtLevel -  minDist 24.0194 maxDist 244.339 medDist 139.64
QML_OriginUncertainty  horUnc -1  minHorUnc 3.91761  maxHorUnc 5.97894  azMaxHorUnc 74.1582
QML_ConfidenceEllipsoid  semiMajorAxisLength 26.0221  semiMinorAxisLength 3.30197  semiIntermediateAxisLength 4.91224  majorAxisPlunge 0  majorAxisAzimuth 0  majorAxisRotation 16.7615
FOCALMECH  Hyp  61.260139 -150.010191 -4.896484 Mech  0 0 0 mf  0 nObs 0
DIFFERENTIAL  Nhyp 140735587367032
PHASE ID Ins Cmp On Pha  FM Date     HrMn   Sec     Err  ErrMag    Coda      Amp       Per       PriorWt  >   TTpred    Res       Weight    StaLoc(X  Y         Z)        SDist    SAzim  RAz  RDip RQual    Tcorr       TTerr
AK_RC01_--   ?    BHZ  ? P      0 20181130 1735   44.6200 GAU  8.00e-02 -1.00e+00  1.17e+01  2.00e-02    1.0000 >    4.6304    4.7923    0.0476   14.0814    9.9332   -0.3900   24.0194 142.48 142.5 200.0  0     0.0000   -1.0000
AT_PMR_--    ?    BHZ  ? P      0 20181130 1735   49.9200 GAU  8.00e-02 -1.00e+00  1.03e+01  3.20e-01    1.0000 >   11.3294    3.3933    0.3059   46.1491   66.2909   -0.1000   59.7686  51.38  51.4 200.0  0     0.0000   -1.0000
AK_GHO_--    ?    BHZ  ? P      0 20181130 1735   50.2284 GAU  2.20e-01 -1.00e+00  1.01e+01  5.12e+00    1.0000 >   15.1936   -0.1626    1.5414   56.6953   86.3740   -1.0320   81.0570  44.93  44.9 200.0  0     0.0000   -1.0000
AK_CAPN_--   ?    BHZ  ? S      0 20181130 1736    4.1684 GAU  1.00e-01 -1.00e+00  1.11e+01  1.28e+00    1.0000 >   25.7218    3.2493    0.3414  -62.8803  -25.2610   -0.0470   82.6318 228.97 229.0 200.0  0     0.0000   -1.0000
AK_SLK_--    ?    BHZ  ? S      -0ÿÿÿÿâ 20181130 1736    2.8284 GAU  4.00e-02 -1.00e+00  1.08e+01  2.00e-02    1.0000 >   26.2234    1.4076    0.5557  -12.2555  -54.3822   -0.6550   84.1847 187.99 188.0 200.0  0     0.0000   -1.0000
AK_KNK_--    ?    BHZ  ? P      -0ÿÿÿÿâ 20181130 1735   50.7884 GAU  1.20e-01 -1.00e+00  1.20e+01  2.56e+00    1.0000 >   15.6903   -0.0992    1.6104   82.3084   46.9963   -0.5980   84.7905  77.74  77.7 200.0  0     0.0000   -1.0000
AK_PWL_--    ?    HNZ  ? P      0 20181130 1735   53.2345 GAU  7.50e-02 -1.00e+00  1.01e+01  6.40e-01    1.0000 >   18.0115    0.0257    1.6051   90.5585  -14.6245   -0.5500  101.0046 115.58 115.6 200.0  0     0.0000   -1.0000
AV_STLK_--   ?    BHZ  ? P      -0ÿÿÿÿâ 20181130 1735   53.6200 GAU  4.00e-02 -1.00e+00  4.12e+01  2.00e-02    1.0000 >   18.0727    0.3500    1.4271  -97.7049   56.8786   -0.9450  101.0830 286.02 286.0 200.0  0     0.0000   -1.0000
AV_SPBL_--   ?    BHZ  ? P      -0ÿÿÿÿâ 20181130 1735   53.8200 GAU  1.00e-01 -1.00e+00  1.22e+01  3.20e-01    1.0000 >   18.1636    0.4591    1.3063 -101.2807   43.4033   -0.9270  101.7606 278.15 278.1 200.0  0     0.0000   -1.0000
AV_SPCG_--   ?    BHZ  ? P      -0ÿÿÿÿâ 20181130 1735   54.3799 GAU  4.00e-02 -1.00e+00  1.89e+01  2.00e-02    1.0000 >   19.0628    0.1198    1.5725 -108.4188   34.1306   -1.3290  107.9947 272.73 272.7 200.0  0     0.0000   -1.0000
AK_SAW_--    ?    BHZ  ? S      -0ÿÿÿÿâ 20181130 1736    7.7084 GAU  4.00e-02 -1.00e+00  1.02e+01  2.00e-02    1.0000 >   31.9291    0.5820    1.1412   87.9646   91.0412   -0.7810  108.0987  54.97  55.0 200.0  0     0.0000   -1.0000
AK_SKN_--    ?    BHZ  ? P      -0ÿÿÿÿâ 20181130 1735   54.7884 GAU  4.00e-02 -1.00e+00  1.22e+01  2.00e-02    1.0000 >   19.7484   -0.1573    1.5249  -80.3077  110.1399   -0.5810  113.7893 315.50 315.5 200.0  0     0.0000   -1.0000
AV_SPCP_--   ?    BHZ  ? P      -0ÿÿÿÿâ 20181130 1735   55.4080 GAU  6.00e-02 -1.00e+00  1.03e+01  2.00e-02    1.0000 >   20.0578    0.1529    1.5395 -115.5968   31.4831   -1.6160  115.0770 271.24 271.2 200.0  0     0.0000   -1.0000
AV_SPCR_--   ?    BHZ  ? P      -0ÿÿÿÿâ 20181130 1735   55.4600 GAU  8.00e-02 -1.00e+00  1.29e+01  3.20e-01    1.0000 >   20.4091   -0.1464    1.5131 -118.7430   24.3192   -0.9840  118.2881 267.74 267.7 200.0  0     0.0000   -1.0000
AK_CUT_--    ?    BHZ  ? S      -0ÿÿÿÿâ 20181130 1736   11.6600 GAU  1.20e-01 -1.00e+00  1.09e+01  2.56e+00    1.0000 >   36.4828   -0.0202    1.2440  -13.5739  156.6879   -0.5740  128.3663 354.18 354.2 200.0  0     0.0000   -1.0000
AV_RDT_--    ?    BHZ  ? P      -0ÿÿÿÿâ 20181130 1735   59.7200 GAU  8.00e-02 -1.00e+00  1.03e+01  2.00e-02    1.0000 >   24.7227   -0.2000    1.4063 -131.9721  -45.1925   -0.9300  150.9132 240.56 240.6 200.0  0     0.0000   -1.0000
AK_SCM_--    ?    BHZ  ? S      -0ÿÿÿÿâ 20181130 1736   18.2084 GAU  1.00e-01 -1.00e+00  1.01e+01  1.28e+00    1.0000 >   42.7035    0.3075    1.1396  140.6889   95.5759   -1.0500  156.1472  64.76  64.8 200.0  0     0.0000   -1.0000
AK_GLI_--    ?    HNZ  ? P      0 20181130 1736    0.3195 GAU  8.00e-02 -1.00e+00  1.02e+01  1.28e+00    1.0000 >   26.2158   -1.0936    0.5443  157.6640   -9.9635   -0.4300  162.9344 103.83 103.8 200.0  0     0.0000   -1.0000
AV_RDJH_--   ?    BHZ  ? P      0 20181130 1736    1.9600 GAU  8.00e-02 -1.00e+00  1.33e+01  3.20e-01    1.0000 >   27.1309   -0.3683    1.2590 -153.7080  -42.3314   -1.4140  168.9505 245.03 245.0 200.0  0     0.0000   -1.0000
AK_BRSE_--   ?    BHZ  ? S      -0ÿÿÿÿâ 20181130 1736   24.5084 GAU  1.20e-01 -1.00e+00  1.17e+01  2.56e+00    1.0000 >   46.4563    2.8548    0.3893  -41.6971 -139.9566   -0.5410  173.8803 193.69 193.7 200.0  0     0.0000   -1.0000
AK_BRLK_--   ?    BHZ  ? S      0 20181130 1736   23.8884 GAU  1.00e-01 -1.00e+00  1.00e+01  3.20e-01    1.0000 >   46.7109    1.9802    0.5400  -50.9563 -138.7927   -0.4090  175.1863 196.72 196.7 200.0  0     0.0000   -1.0000
AV_RDWB_--   ?    BHZ  ? P      -0ÿÿÿÿâ 20181130 1736    3.0800 GAU  6.00e-02 -1.00e+00  1.02e+01  2.00e-02    1.0000 >   28.0994   -0.2168    1.3411 -156.2149  -53.7095   -1.5460  176.2691 242.02 242.0 200.0  0     0.0000   -1.0000
AV_RED_--    ?    BHZ  ? P      0 20181130 1736    2.8800 GAU  1.40e-01 -1.00e+00  1.46e+01  3.20e-01    1.0000 >   28.1377   -0.4550    1.1730 -152.7839  -61.4282   -1.0710  177.0609 239.29 239.3 200.0  0     0.0000   -1.0000
AK_WAT7_--   ?    BHZ  ? S      -0ÿÿÿÿâ 20181130 1736   24.8484 GAU  6.00e-02 -1.00e+00  1.11e+01  2.00e-02    1.0000 >   49.1627    0.4884    1.0392   58.7508  204.8162   -1.2320  185.5615  18.64  18.6 200.0  0     0.0000   -1.0000
AK_WAT6_--   ?    BHZ  ? S      -0ÿÿÿÿâ 20181130 1736   25.1684 GAU  8.00e-02 -1.00e+00  1.07e+01  8.00e-02    1.0000 >   50.1074   -0.1363    1.0416  116.1703  178.1736   -1.6810  189.4210  38.04  38.0 200.0  0     0.0000   -1.0000
AK_WAT1_--   ?    HNZ  ? S      -0ÿÿÿÿâ 20181130 1736   26.6884 GAU  1.60e-01 -1.00e+00  1.07e+01  2.56e+00    1.0000 >   50.1987    1.2924    0.7771   73.8832  204.7152   -0.7220  190.8432  22.95  23.0 200.0  0     0.0000   -1.0000
AK_HIN_--    ?    HNZ  ? P      -0ÿÿÿÿâ 20181130 1736   10.2345 GAU  3.00e-02 -1.00e+00  1.08e+01  5.00e-03    1.0000 >   32.8261    2.2111    0.4175  192.6700  -62.1501   -0.6229  213.6311 115.25 115.3 200.0  0     0.0000   -1.0000
AV_ILS_--    ?    BHZ  ? S      -0ÿÿÿÿâ 20181130 1736   35.9800 GAU  8.00e-02 -1.00e+00  1.16e+01  1.60e-01    1.0000 >   57.0234    3.7593    0.2806 -171.4944 -112.1841   -1.1250  221.7016 230.45 230.5 200.0  0     0.0000   -1.0000
AK_DIV_--    ?    BHZ  ? S      0 20181130 1736   33.9884 GAU  6.00e-02 -1.00e+00  1.05e+01  2.00e-02    1.0000 >   58.3914    0.3997    0.9707  227.5020   21.7345   -0.9414  228.1640  91.82  91.8 200.0  0     0.0000   -1.0000
AK_EYAK_--   ?    BHZ  ? P      -0ÿÿÿÿâ 20181130 1736   14.4684 GAU  1.00e-01 -1.00e+00  1.08e+01  1.60e-01    1.0000 >   36.7422    2.5289    0.4045  233.0342  -42.7188   -0.1339  244.3388 107.07 107.1 200.0  0     0.0000   -1.0000
AK_DHY_--    ?    BHZ  ? S      -0ÿÿÿÿâ 20181130 1736   39.8484 GAU  1.00e-01 -1.00e+00  1.01e+01  3.20e-01    1.0000 >    0.0000    0.0000    0.0000  132.6689  233.9657   -1.6110    0.0000   0.00 359.0  -1.0  0     0.0000   -1.0000
AV_AUJA_--   ?    BHZ  ? P      -0ÿÿÿÿâ 20181130 1736   19.6800 GAU  6.00e-02 -1.00e+00  1.45e+01  2.00e-02    1.0000 >    0.0000    0.0000    0.0000 -194.7545 -179.9192   -0.3760    0.0000   0.00 359.0  -1.0  0     0.0000   -1.0000
AK_BMR_--    ?    BHZ  ? P      0 20181130 1736   20.6284 GAU  1.60e-01 -1.00e+00  1.08e+01  5.12e+00    1.0000 >    0.0000    0.0000    0.0000  291.8435    8.4259   -0.8420    0.0000   0.00 359.0  -1.0  0     0.0000   -1.0000
NP040_D0     ?    HNZ  ? P      0 20181130 1735   43.8345 GAU  3.50e-02 -1.00e+00  1.06e+01  5.00e-03    1.0000 >    0.0000    0.0000    0.0000 -100000000000000000000.0000 -100000000000000000000.0000 -100000000000000000000.0000    0.0000   0.00 359.0  -1.0  0     0.0000   -1.0000
END_PHASE
SCATTER Nsamples 5000
  -0.6384   30.2749   -4.3780  1.69e+02
  -7.5865   28.5039   17.4577  1.67e+02
  -7.7739   28.6997   17.7824  1.67e+02
  -7.9178   25.2236   24.1612  1.69e+02
  -7.7316   25.6315   21.9719  1.69e+02
  -2.5457   27.2803   -2.2190  1.65e+02
  -8.7820   26.3006   20.6156  1.69e+02
  -8.9783   26.3969   20.3192  1.69e+02
  -0.8194   27.5613   -4.1776  1.69e+02
  -9.2968   30.0213   23.2423  1.65e+02
  -9.3180   30.5949   24.1607  1.65e+02
  -0.6866   24.7768    4.4019  1.65e+02
  -0.0008   24.4028    3.3107  1.65e+02
  -8.1768   26.3144   22.9304  1.69e+02
  -1.3746   29.0803   -4.6239  1.69e+02
  -0.0712   28.7122   -4.0990  1.69e+02
  -5.7863   23.0924   29.3285  1.67e+02
  -6.1973   22.7855   29.4227  1.67e+02
  -7.1858   26.2354   28.3090  1.67e+02
  -1.4578   27.2517    0.7521  1.67e+02
  -1.6336   26.9372    0.3539  1.67e+02
  -0.2618   29.4301   -4.3167  1.69e+02
   0.2150   26.9649   -4.6737  1.69e+02
   0.2286   27.0339   -4.9785  1.69e+02
  -9.0544   27.6542   24.9994  1.67e+02
  -0.3708   22.6743   -4.2616  1.65e+02
  -8.4858   27.1412   21.0115  1.69e+02
  -5.8234   24.1487   26.0523  1.67e+02
  -5.8864   22.5327   28.1035  1.67e+02
  -6.2104   23.0410   27.4268  1.67e+02
  -0.6566   29.2634   -4.0816  1.69e+02
  -0.8385   29.1043   -4.1498  1.69e+02
  -6.4475   24.2846   29.8082  1.67e+02
 -10.9664   33.3370   33.4750  1.63e+02
  -0.3443   30.8957   -4.7562  1.69e+02
  -0.5640   30.6680   -4.6338  1.69e+02
  -8.6761   25.6929   22.6364  1.69e+02
  -8.5790   25.9074   22.4496  1.69e+02
  -7.5482   24.5122   23.8254  1.69e+02
  -7.5602   24.6535   23.5789  1.69e+02
  -2.0387   24.9767    1.7514  1.65e+02
  -9.8747   29.0241   21.3547  1.67e+02
  -8.5222   25.5481   21.1421  1.69e+02
  -8.7270   25.4342   21.2912  1.69e+02
  -0.4254   27.1399   -4.6540  1.69e+02
   0.0013   28.6923   -4.3046  1.69e+02
   0.0808   28.6478   -4.3985  1.69e+02
  -7.8994   26.6507   22.1522  1.69e+02
   0.2408   29.4314   -4.9557  1.69e+02
 -10.1239   32.1600   33.7873  1.63e+02
  -7.9352   29.3198   27.8517  1.65e+02
  -2.2801   33.0390   -2.7670  1.67e+02
  -9.5730   25.0248   22.5942  1.67e+02
  -1.9380   28.9724   -1.3086  1.67e+02
  -2.0129   28.9689   -1.2690  1.67e+02
  -0.0496   26.9728   -4.4609  1.69e+02
   0.1233   27.2891   -4.4075  1.69e+02
  -8.7169   25.5533   22.2914  1.69e+02
  -8.4792   25.3865   22.2084  1.69e+02
  -0.8603   27.8267   -3.8417  1.69e+02
  -9.4061   27.2128   23.7764  1.67e+02
  -0.6907   29.3824   -0.6744  1.67e+02
  -7.6795   26.0336   23.3296  1.69e+02
  -8.1610   27.8958   25.8943  1.67e+02
  -8.8974   26.0805   20.8952  1.69e+02
  -8.8660   26.0310   21.0143  1.69e+02
  -9.5540   27.7605   14.4080  1.67e+02
  -8.8061   26.8308   20.1034  1.69e+02
  -9.1276   29.8897   17.4368  1.67e+02
  -8.9816   29.6031   17.9786  1.67e+02
   0.0468   23.9216   -4.4015  1.67e+02
   0.2801   23.8433   -4.5477  1.67e+02
  -8.3828   26.1626   23.4763  1.69e+02
  -8.3385   25.9729   23.3273  1.69e+02
  -2.0813   27.2330   -3.3712  1.67e+02
  -2.1164   27.0076   -3.4163  1.67e+02
  -8.3951   26.8512   22.6267  1.69e+02
  -7.5940   25.1812   24.5816  1.69e+02
  -8.1595   25.7339   20.4030  1.69e+02
  -8.3965   27.1388   21.4810  1.69e+02
  -0.1678   27.4340   -4.1705  1.69e+02
  -0.1408   27.4819   -4.1111  1.69e+02
  -0.3731   28.7458    0.1805  1.67e+02
 -10.1979   27.1314   18.0578  1.67e+02
 -10.9256   31.8897   36.2839  1.63e+02
   0.7029   29.7879   -2.7078  1.67e+02
  -0.1730   26.3944    1.0124  1.67e+02
  -7.4652   24.9106   23.8504  1.69e+02
  -8.9823   27.0238   25.9929  1.67e+02
  -8.5219   27.0925   19.9875  1.69e+02
  -8.6763   27.0367   20.2550  1.69e+02
  -0.7292   31.0812   -4.8552  1.69e+02
  -8.3176   28.1382   15.4957  1.67e+02
  -8.9566   26.6749   20.6889  1.69e+02
  -8.8050   26.8058   20.7684  1.69e+02
  -8.5827   26.7807   22.0205  1.69e+02
  -0.7742   27.3326   -4.7996  1.69e+02
  -0.7194   27.3013   -4.9680  1.69e+02
  -3.5674   32.1111    1.5136  1.65e+02
  -8.1693   25.4164   20.9078  1.69e+02
  -8.3399   25.3258   20.8235  1.69e+02
  -8.3160   26.5760   27.6884  1.67e+02
  -9.7617   25.9306   23.6280  1.67e+02
  -5.6969   21.3759   33.7450  1.65e+02
  -5.8730   21.5799   33.4635  1.65e+02
  -7.3940   25.3011   24.1327  1.69e+02
  -8.7708   26.5432   21.4355  1.69e+02
  -7.8373   26.3556   20.7534  1.69e+02
  -7.9951   26.5525   21.0168  1.69e+02
  -8.7628   25.9744   20.0082  1.69e+02
  -8.7749   25.9790   19.9890  1.69e+02
  -8.5006   26.7759   19.4983  1.69e+02
  -8.6999   26.7082   19.7027  1.69e+02
  -7.8803   26.7232   21.3389  1.69e+02
  -8.0830   26.6232   21.4445  1.69e+02
   0.1055   24.2263   -3.2226  1.67e+02
  -7.8126   25.5804   21.1180  1.69e+02
  -1.9288   27.9995   -1.2765  1.67e+02
  -2.5478   29.9668   -2.9683  1.67e+02
  -8.6334   26.3764   22.6028  1.69e+02
  -7.2090   25.2129   23.2371  1.69e+02
  -7.3560   25.2771   23.4784  1.69e+02
  -0.0889   30.3526   -4.9723  1.69e+02
 -11.1457   34.6845   53.6083  1.63e+02
  -8.3093   26.8415   19.9497  1.69e+02
   1.2600   28.7922   -4.3346  1.67e+02
   1.7976   29.1135   -4.6560  1.67e+02
  -8.0147   28.0959   17.3131  1.67e+02
  -7.3558   22.8348   29.2699  1.67e+02
  -0.3625   27.9501   -3.6020  1.69e+02
  -8.3380   26.2018   19.9779  1.69e+02
   2.0316   27.5803   -0.3658  1.65e+02
   2.2483   28.2309   -0.5771  1.65e+02
  -7.8281   25.1439   21.6340  1.69e+02
  -8.0952   26.0525   23.7494  1.69e+02
  -8.0911   25.9407   23.7663  1.69e+02
  -7.2163   25.4955   23.9283  1.69e+02
  -6.3044   22.5032   29.9048  1.67e+02
  -8.5573   25.7281   19.9654  1.69e+02
  -8.6935   25.8182   20.2491  1.69e+02
  -8.5292   26.2763   15.7590  1.67e+02
   0.5980   31.9645   -3.4673  1.67e+02
  -0.2965   26.7259   -4.6628  1.69e+02
  -1.0079   27.0376    1.5391  1.67e+02
  -0.4602   29.6678   -3.9806  1.69e+02
  -7.9038   26.5130   23.5039  1.69e+02
   0.5562   28.0447   -4.7969  1.69e+02
  -7.4731   22.2345   26.8156  1.67e+02
  -9.4478   28.7678   14.1527  1.67e+02
  -8.2125   26.9119   20.6184  1.69e+02
   0.2676   27.0170   -4.3828  1.69e+02
  -7.6838   24.6261   24.4367  1.69e+02
  -1.1269   30.4893   -4.3362  1.69e+02
  -7.2078   23.6203   22.2964  1.67e+02
  -1.4939   31.0781   -4.6361  1.69e+02
  -1.3071   31.0679   -4.6607  1.69e+02
  -7.3152   24.4476   24.2412  1.69e+02
  -2.8868   28.8929   -4.0650  1.67e+02
  -8.9825   26.2847   19.6602  1.69e+02
  -0.4355   28.5733   -3.3708  1.69e+02
  -7.8616   25.7959   24.3232  1.69e+02
  -7.3019   24.7009   24.8015  1.69e+02
  -7.3375   24.8291   24.6570  1.69e+02
  -8.7463   27.1101   21.8510  1.69e+02
  -2.2289   27.4533   -1.7122  1.67e+02
  -1.9268   27.0960   -1.8659  1.67e+02
  -7.9400   25.7294   20.8186  1.69e+02
  -1.0534   28.7847   -3.8082  1.69e+02
  -0.3334   32.0596   -2.8826  1.67e+02
  -8.3378   25.2854   23.6430  1.69e+02
  -8.4911   26.0900   19.7506  1.69e+02
  -8.9639   26.7385   19.5869  1.69e+02
  -6.2392   20.3662   29.3026  1.65e+02
  -7.1552   25.6021   19.6463  1.67e+02
  -7.2508   25.2786   19.7712  1.67e+02
  -8.9187   26.9633   20.0797  1.69e+02
  -8.3844   25.8023   23.9456  1.69e+02
  -7.7055   24.8916   29.4840  1.67e+02
 -10.5870   28.0536   16.6830  1.67e+02
 -10.0090   28.0258   16.6793  1.67e+02
  -8.8650   29.8630   21.4717  1.67e+02
 -10.0926   27.2888   19.7091  1.67e+02
  -7.8587   24.4456   23.2639  1.69e+02
  -7.9944   31.9379    3.4087  1.63e+02
  -8.1977   26.9633   22.3186  1.69e+02
   0.1513   27.5316   -4.0008  1.69e+02
  -0.2043   27.1875   -4.0292  1.69e+02
  -8.9899   26.9069   20.5289  1.69e+02
  -7.5210   26.4039   22.7750  1.69e+02
  -7.7873   26.3920   22.8024  1.69e+02
   0.1924   26.8451   -4.7071  1.69e+02
   0.2815   24.7871   -0.3766  1.67e+02
  -8.1144   25.2790   24.7988  1.69e+02
  -0.2319   27.8073   -3.4459  1.69e+02
  -7.6565   26.5554   22.0528  1.69e+02
  -7.5306   26.0800   21.8616  1.69e+02
   0.5648   25.5223    0.4674  1.67e+02
  -8.1258   25.2383   21.3388  1.69e+02
  -7.4065   24.5927   23.8447  1.69e+02
  -1.2826   29.4280   -4.2202  1.69e+02
  -0.8588   28.2922   -3.6987  1.69e+02
  -0.6413   28.2727   -3.7083  1.69e+02
 -10.2161   26.5487   18.8423  1.67e+02
   1.4294   26.6228   -2.7185  1.67e+02
   0.4683   27.1978   -4.7624  1.69e+02
  -8.9406   25.7031   20.4251  1.69e+02
  -1.2227   28.0358   -4.4153  1.69e+02
  -0.1799   29.3724   -4.1192  1.69e+02
  -7.3194   25.2241   24.7979  1.69e+02
  -8.2341   24.9468   22.3331  1.69e+02
  -7.1030   28.1886   27.7209  1.65e+02
  -0.9422   33.5466   -3.8545  1.67e+02
  -0.9598   33.4988   -3.9298  1.67e+02
  -7.2770   25.4900   23.1381  1.69e+02
  -8.4824   26.0691   22.8042  1.69e+02
  -7.6573   25.1899   22.2093  1.69e+02
  -0.8245   29.6893   -3.8665  1.69e+02
  -7.6305   24.9344   25.1864  1.69e+02
  -8.2967   24.9367   23.4110  1.69e+02
  -0.1484   28.3860   -3.7450  1.69e+02
  -7.4370   24.5161   24.4929  1.69e+02
  -1.0946   29.4684   -3.8894  1.69e+02
  -8.7458   27.1843   19.7963  1.69e+02
   1.1571   23.8914   -3.7627  1.67e+02
   1.1040   24.0042   -3.9242  1.67e+02
  -8.9650   25.7106   21.1978  1.69e+02
  -5.4160   21.3750   23.4938  1.65e+02
  -9.1812   29.9363   19.4319  1.67e+02
  -8.8007   26.1197   21.7511  1.69e+02
  -7.8432   24.4762   24.0869  1.69e+02
   0.1531   27.3183   -3.9689  1.69e+02
  -0.4449   31.0370   -4.8475  1.69e+02
  -6.8316   21.8751   29.4339  1.67e+02
  -6.3658   22.1912   29.2203  1.67e+02
  -7.7668   24.8628   22.3376  1.69e+02
  -8.8424   27.1092   21.0648  1.69e+02
   0.1267   28.2120   -3.8102  1.69e+02
   0.3432   28.6271   -4.7750  1.69e+02
  -9.1340   28.7005   23.9976  1.67e+02
  -7.8684   26.5962   23.0219  1.69e+02
  -1.2642   28.6158   -4.8385  1.69e+02
  -0.9483   31.4444   -4.9367  1.69e+02
  -7.8648   24.8681   24.4679  1.69e+02
  -0.2933   26.7366   -4.5242  1.69e+02
  -0.1472   26.5927   -4.3585  1.69e+02
  -8.2150   26.5885   22.9185  1.69e+02
   0.0508   29.3640   -4.4131  1.69e+02
   0.0097   29.2524   -4.5817  1.69e+02
