NLLOC "./loc/alaska.20181130.181045.grid0" "LOCATED" "Location completed."
SIGNATURE "NonLinLoc - ALomax Scientific   obs:./obs/2018-11-30-mww70-southern-alaska.obs   NLLoc:v7.00.02(17Oct2018)   run:06Dec2018 13h26m13"
COMMENT "2018-11-30 Mww7.0 Southern Alaska (NonLinLoc Sample Location)"
GRID  201 201 106  -100 -100 -5  1 1 1 PROB_DENSITY
SEARCH OCTREE nInitial 400 nEvaluated 20016 smallestNodeSide 0.156250/0.156250/0.207031 oct_tree_integral 8.192446e+01 scatter_volume 8.192446e+01
HYPOCENTER  x 7.89062 y 63.5156 z -4.06836  OT 34.8556  ix -1 iy -1 iz -1 MAXIMUM_LIKELIHOOD
GEOGRAPHIC  OT 2018 11 30  18 10 34.855609  Lat 61.569963 Long -149.851493 Depth -4.068359
QUALITY  Pmax 7.7808e+58 MFmin 19.5059 MFmax 20.7208 RMS 0.849768 Nphs 26 Gap 49.1646 Dist 38.359 Mamp -9.90 0 Mdur -9.90 0
VPVSRATIO  VpVsRatio -1  Npair 0  Diff -2e+30
STATISTICS  ExpectX 7.06338 Y 63.4419 Z 1.57755  CovXX 3.58555 XY -0.00839767 XZ -4.53065 YY 4.16991 YZ 1.1993 ZZ 50.0095 EllAz1  96.1182 Dip1  5.64442 Len1  3.32723 Az2  186.205 Dip2  0.877733 Len2  3.8277 Len3  1.334873e+01
STAT_GEOG  ExpectLat 61.569317 Long -149.867065 Depth 1.577553
TRANSFORM  LAMBERT RefEllipsoid Clarke-1880  LatOrig 61.000000  LongOrig -150.000000  FirstStdParal 60.000000  SecondStdParal 62.000000  RotCW 0.000000
QML_OriginQuality  assocPhCt 28  usedPhCt 26  assocStaCt -1  usedStaCt 26  depthPhCt -1  stdErr 0.849768  azGap 49.1646  secAzGap 81.9337  gtLevel -  minDist 38.359 maxDist 248.949 medDist 130.068
QML_OriginUncertainty  horUnc -1  minHorUnc 2.87167  maxHorUnc 3.09694  azMaxHorUnc 179.177
QML_ConfidenceEllipsoid  semiMajorAxisLength 13.3487  semiMinorAxisLength 3.32723  semiIntermediateAxisLength 3.8277  majorAxisPlunge 0  majorAxisAzimuth 0  majorAxisRotation 5.67654
FOCALMECH  Hyp  61.569963 -149.851493 -4.068359 Mech  0 0 0 mf  0 nObs 0
DIFFERENTIAL  Nhyp 140735587367032
PHASE ID Ins Cmp On Pha  FM Date     HrMn   Sec     Err  ErrMag    Coda      Amp       Per       PriorWt  >   TTpred    Res       Weight    StaLoc(X  Y         Z)        SDist    SAzim  RAz  RDip RQual    Tcorr       TTerr
AT_PMR_--    ?    BHZ  ? P      0 20181130 1810   45.3400 GAU  1.20e-01 -1.00e+00  1.46e+01  5.12e+00    1.0000 >    7.2926    3.1917    0.2142   46.1491   66.2909   -0.1000   38.3590  85.85  85.9 200.0  0     0.0000   -1.0000
AK_GHO_--    ?    BHZ  ? S      -0ÿÿÿÿâ 20181130 1810   55.7284 GAU  1.00e-01 -1.00e+00  1.23e+01  1.28e+00    1.0000 >   17.1276    3.7452    0.1363   56.6953   86.3740   -1.0320   53.8925  64.90  64.9 200.0  0     0.0000   -1.0000
AK_RC01_--   ?    BHZ  ? P      -0ÿÿÿÿâ 20181130 1810   47.3600 GAU  1.20e-01 -1.00e+00  1.33e+01  2.56e+00    1.0000 >   10.2144    2.2900    0.2371   14.0814    9.9332   -0.3900   53.9388 173.41 173.4 200.0  0     0.0000   -1.0000
AK_KNK_--    ?    BHZ  ? P      0 20181130 1810   49.6684 GAU  4.00e-02 -1.00e+00  1.80e+01  8.00e-02    1.0000 >   14.3121    0.5007    1.2413   82.3084   46.9963   -0.5980   76.2292 102.52 102.5 200.0  0     0.0000   -1.0000
AK_SAW_--    ?    BHZ  ? P      -0ÿÿÿÿâ 20181130 1810   50.2684 GAU  4.00e-02 -1.00e+00  1.05e+01  2.00e-02    1.0000 >   15.5950   -0.1823    1.4960   87.9646   91.0412   -0.7810   84.6729  71.03  71.0 200.0  0     0.0000   -1.0000
AK_CUT_--    ?    BHZ  ? S      0 20181130 1811    3.7000 GAU  6.00e-02 -1.00e+00  1.26e+01  3.20e-01    1.0000 >   28.8169    0.0275    1.3604  -13.5739  156.6879   -0.5740   95.6128 347.03 347.0 200.0  0     0.0000   -1.0000
AK_SKN_--    ?    BHZ  ? S      -0ÿÿÿÿâ 20181130 1811    4.8084 GAU  1.20e-01 -1.00e+00  1.16e+01  5.12e+00    1.0000 >   29.7993    0.1535    1.3225  -80.3077  110.1399   -0.5810   99.7635 297.86 297.9 200.0  0     0.0000   -1.0000
AV_STLK_--   ?    BHZ  ? S      -0ÿÿÿÿâ 20181130 1811    6.7600 GAU  1.00e-01 -1.00e+00  1.40e+01  2.56e+00    1.0000 >   31.2605    0.6439    1.0644  -97.7049   56.8786   -0.9450  105.8039 266.40 266.4 200.0  0     0.0000   -1.0000
AV_SPBL_--   ?    BHZ  ? P      -0ÿÿÿÿâ 20181130 1810   54.3400 GAU  4.00e-02 -1.00e+00  1.03e+01  2.00e-02    1.0000 >   19.3088    0.1756    1.4805 -101.2807   43.4033   -0.9270  111.0085 259.56 259.6 200.0  0     0.0000   -1.0000
AK_PWL_--    ?    HNZ  ? S      -0ÿÿÿÿâ 20181130 1811    8.2945 GAU  4.50e-02 -1.00e+00  1.13e+01  1.28e+00    1.0000 >   32.9792    0.4597    1.1690   90.5585  -14.6245   -0.5500  113.7535 133.39 133.4 200.0  0     0.0000   -1.0000
AK_SLK_--    ?    BHZ  ? S      -0ÿÿÿÿâ 20181130 1811    8.8684 GAU  8.00e-02 -1.00e+00  1.29e+01  6.40e-01    1.0000 >   34.3312   -0.3185    1.1984  -12.2555  -54.3822   -0.6550  119.6067 189.70 189.7 200.0  0     0.0000   -1.0000
AV_SPCG_--   ?    BHZ  ? P      -0ÿÿÿÿâ 20181130 1810   55.4800 GAU  4.00e-02 -1.00e+00  1.27e+01  1.60e-01    1.0000 >   20.5715    0.0529    1.4927 -108.4188   34.1306   -1.3290  119.9640 255.82 255.8 200.0  0     0.0000   -1.0000
AV_SPCP_--   ?    BHZ  ? P      ? 20181130 1810   56.5480 GAU  8.00e-02 -1.00e+00  1.07e+01  2.00e-02    1.0000 >   21.6367    0.0556    1.4723 -115.5968   31.4831   -1.6160  127.5744 255.46 255.5 200.0  0     0.0000   -1.0000
AV_SPCR_--   ?    BHZ  ? P      -0ÿÿÿÿâ 20181130 1810   56.8400 GAU  8.00e-02 -1.00e+00  1.28e+01  6.40e-01    1.0000 >   22.2207   -0.2364    1.3951 -118.7430   24.3192   -0.9840  132.5610 252.80 252.8 200.0  0     0.0000   -1.0000
AK_SCM_--    ?    BHZ  ? P      -0ÿÿÿÿâ 20181130 1810   56.8484 GAU  4.00e-02 -1.00e+00  1.36e+01  2.00e-02    1.0000 >   22.7640   -0.7712    0.9226  140.6889   95.5759   -1.0500  136.6134  76.43  76.4 200.0  0     0.0000   -1.0000
AK_WAT7_--   ?    BHZ  ? S      -0ÿÿÿÿâ 20181130 1811   16.5684 GAU  1.20e-01 -1.00e+00  1.04e+01  5.12e+00    1.0000 >   41.2516    0.4612    1.0858   58.7508  204.8162   -1.2320  150.1753  19.80  19.8 200.0  0     0.0000   -1.0000
AK_WAT6_--   ?    BHZ  ? S      0 20181130 1811   17.6684 GAU  1.20e-01 -1.00e+00  1.01e+01  5.12e+00    1.0000 >   42.9972   -0.1844    1.1198  116.1703  178.1736   -1.6810  157.7052  43.36  43.4 200.0  0     0.0000   -1.0000
AV_RDT_--    ?    BHZ  ? S      0 20181130 1811   21.9800 GAU  6.00e-02 -1.00e+00  1.06e+01  1.28e+00    1.0000 >   47.0662    0.0582    1.0923 -131.9721  -45.1925   -0.9300  177.1413 232.14 232.1 200.0  0     0.0000   -1.0000
AV_RDJH_--   ?    BHZ  ? P      0 20181130 1811    4.6400 GAU  4.00e-02 -1.00e+00  1.46e+01  2.00e-02    1.0000 >   30.1640   -0.3796    1.2219 -153.7080  -42.3314   -1.4140  193.1779 236.78 236.8 200.0  0     0.0000   -1.0000
AK_FID_--    ?    BHZ  ? S      0 20181130 1811   26.7684 GAU  2.00e-02 -1.00e+00  1.31e+01  2.00e-02    1.0000 >   51.6687    0.2441    1.0302  185.5109  -25.5209   -0.5000  198.6869 116.62 116.6 200.0  0     0.0000   -1.0000
AV_RDWB_--   ?    BHZ  ? P      ? 20181130 1811    5.4600 GAU  2.00e-02 -1.00e+00  1.15e+01  2.00e-02    1.0000 >   31.2854   -0.6810    1.0041 -156.2149  -53.7095   -1.5460  201.6739 234.46 234.5 200.0  0     0.0000   -1.0000
AV_RED_--    ?    BHZ  ? S      0 20181130 1811   28.9400 GAU  6.00e-02 -1.00e+00  1.00e+01  6.40e-01    1.0000 >   52.8574    1.2270    0.7501 -152.7839  -61.4282   -1.0710  203.5369 232.13 232.1 200.0  0     0.0000   -1.0000
AK_KLU_--    ?    BHZ  ? S      -0ÿÿÿÿâ 20181130 1811   28.8484 GAU  2.20e-01 -1.00e+00  1.29e+01  5.12e+00    1.0000 >   54.0777   -0.0849    0.9940  217.0370   61.6207   -1.0471  209.1549  90.52  90.5 200.0  0     0.0000   -1.0000
AK_HIN_--    ?    HNZ  ? P      0 20181130 1811   11.3245 GAU  2.55e-01 -1.00e+00  1.04e+01  1.02e+01    1.0000 >   33.9895    2.4794    0.3385  192.6700  -62.1501   -0.6229  223.4621 124.22 124.2 200.0  0     0.0000   -1.0000
AK_DIV_--    ?    BHZ  ? S      0 20181130 1811   31.3684 GAU  6.00e-02 -1.00e+00  1.01e+01  2.00e-02    1.0000 >   57.1944   -0.6816    0.8442  227.5020   21.7345   -0.9414  223.5504 100.77 100.8 200.0  0     0.0000   -1.0000
AK_EYAK_--   ?    BHZ  ? P      0 20181130 1811   14.8684 GAU  6.00e-02 -1.00e+00  1.01e+01  3.20e-01    1.0000 >   37.2182    2.7946    0.3161  233.0342  -42.7188   -0.1339  248.9485 115.26 115.3 200.0  0     0.0000   -1.0000
AT_SVW2_--   ?    BHZ  ? P      0 20181130 1811   18.0600 GAU  4.00e-02 -1.00e+00  1.11e+01  2.00e-02    1.0000 >    0.0000    0.0000    0.0000 -302.7416   25.0539   -0.4988    0.0000   0.00 359.0  -1.0  0     0.0000   -1.0000
AK_RND_--    ?    BHZ  ? S      0 20181130 1811   22.3684 GAU  1.20e-01 -1.00e+00  1.18e+01  5.12e+00    1.0000 >    0.0000    0.0000    0.0000   56.9974  268.6460   -0.9936    0.0000   0.00 359.0  -1.0  0     0.0000   -1.0000
END_PHASE
SCATTER Nsamples 4998
   8.5104   62.2407   -4.6916  1.42e+02
   8.5983   62.3118   -4.9090  1.42e+02
   7.8839   64.4948   -1.9547  1.42e+02
   6.8822   60.7829    5.4549  1.40e+02
   7.1398   60.9223    5.5570  1.40e+02
   7.3562   64.1447   -1.5299  1.42e+02
   7.4295   64.3693   -1.5789  1.42e+02
   7.8663   62.2765   -1.4654  1.42e+02
   8.0781   62.4036   -1.3857  1.42e+02
   7.8480   62.0570   -3.4758  1.42e+02
   8.0454   62.0597   -3.3893  1.42e+02
   7.9747   64.5967    4.8226  1.40e+02
   7.2932   62.6450   -0.8612  1.42e+02
   8.4375   64.1657   -2.1144  1.42e+02
   8.5182   64.1235   -2.1521  1.42e+02
   7.3437   63.6792   -0.6051  1.42e+02
   8.5145   62.8302   -1.4768  1.42e+02
   6.5321   61.5491    7.3064  1.40e+02
   7.4830   64.7633   -4.7017  1.42e+02
   8.1410   66.3594   -0.5424  1.40e+02
   8.6265   66.8330   -0.8464  1.40e+02
   7.3898   64.7943   -3.8758  1.42e+02
   7.2984   63.0381   -0.7158  1.42e+02
  11.0143   62.5817    1.7470  1.38e+02
   6.3104   60.4523   -1.3451  1.40e+02
   5.1349   62.6814    7.1609  1.40e+02
   8.5818   63.4589   -1.3558  1.42e+02
   6.0676   66.1292    1.6422  1.40e+02
   3.4246   61.7391    0.8728  1.38e+02
   3.5012   62.4969    0.3852  1.38e+02
   8.9504   63.2420   -2.4170  1.42e+02
   8.9606   63.3961   -2.1073  1.42e+02
   8.0220   65.9318    2.9182  1.40e+02
   9.0701   63.4566    2.5638  1.40e+02
   7.5554   64.1489   -1.2426  1.42e+02
   7.5668   64.1616   -0.9488  1.42e+02
   4.9079   62.1934    0.4831  1.40e+02
   4.9477   63.4365    3.6950  1.40e+02
   7.7545   63.7546   -0.7431  1.42e+02
   7.5245   60.4813   -4.5890  1.40e+02
   5.1751   63.8997   -3.2441  1.40e+02
   7.9445   61.9458   -2.7014  1.42e+02
   5.6922   68.5914   -1.4671  1.38e+02
   8.9481   66.1754   -0.2917  1.40e+02
   8.9833   64.1245   -3.6967  1.42e+02
   6.4950   69.6706    2.8524  1.38e+02
   6.7821   69.0036    3.0030  1.38e+02
   7.7491   62.1005   -3.2680  1.42e+02
   6.6523   60.2161    3.3728  1.40e+02
   7.1428   64.3841   -3.9849  1.42e+02
   7.2986   62.2791   -4.7054  1.42e+02
   7.3382   62.4792   -4.7716  1.42e+02
   6.3604   60.9388    6.0644  1.40e+02
   7.7823   64.9144   -2.9157  1.42e+02
   2.1444   64.7596   12.1266  1.38e+02
   7.9873   63.1228    5.1203  1.40e+02
   7.6538   62.5477   -0.5728  1.42e+02
   6.9080   63.9726   -1.2742  1.42e+02
   6.9583   63.8748   -1.3162  1.42e+02
   6.3971   64.6854    6.1966  1.40e+02
   6.7911   63.2869   -3.5705  1.42e+02
   6.7863   63.2828   -3.4040  1.42e+02
   8.1950   62.1663   -4.0233  1.42e+02
   6.8910   62.6087   -4.7936  1.42e+02
   5.5775   60.9486    2.7091  1.40e+02
   6.6406   63.4725   -3.9007  1.42e+02
   6.2138   66.1084   -1.0740  1.40e+02
   8.3625   62.1348   -3.2328  1.42e+02
   8.7171   62.4315   -2.2655  1.42e+02
   8.5723   62.3501   -2.2000  1.42e+02
   5.8619   60.6486   -2.8295  1.40e+02
  10.5897   64.0941   -2.6414  1.40e+02
   7.0999   63.5474   -1.2335  1.42e+02
   4.6471   63.5595    0.1506  1.40e+02
   7.1865   64.6556   -4.9853  1.42e+02
   7.1604   64.4145   -4.8730  1.42e+02
   7.5344   62.0816   -3.7985  1.42e+02
   4.7819   62.6043   13.8652  1.38e+02
   6.5764   63.5865   -3.2861  1.42e+02
   6.7902   63.7396   -3.1445  1.42e+02
   7.1447   62.9775   -0.8675  1.42e+02
   8.6045   65.5465    3.1840  1.40e+02
   6.7000   64.0780    6.7286  1.40e+02
   6.6551   66.4124   -2.8102  1.40e+02
   7.8573   62.1119   -4.3076  1.42e+02
   8.3849   63.3589   -0.5269  1.42e+02
   7.4008   62.4508   -1.5236  1.42e+02
   4.9154   62.4898   -4.3535  1.37e+02
   6.6384   63.3168   -2.6996  1.42e+02
   4.6285   64.6306   -3.6009  1.37e+02
   7.2426   61.9817    6.8962  1.40e+02
   6.9631   62.7278   -1.4635  1.42e+02
   6.6480   70.5831   30.7410  1.33e+02
   2.6138   65.2534    2.5615  1.37e+02
   8.1988   60.5727    1.1733  1.40e+02
   7.4112   64.5600   -1.9867  1.42e+02
   7.7585   62.2918   -1.1261  1.42e+02
   7.5312   63.1084   -0.1450  1.42e+02
   7.5055   62.8155   -0.3451  1.42e+02
   7.7882   63.6454   -0.0491  1.42e+02
   7.6525   63.5250   -0.4432  1.42e+02
  10.2986   62.6293   -0.9367  1.40e+02
   7.7913   61.9636   -2.4452  1.42e+02
   7.5819   64.5665   -1.5998  1.42e+02
   7.5299   64.4078   -1.2802  1.42e+02
   8.5512   64.6807   -2.5715  1.42e+02
   6.8188   63.2927   -4.4938  1.42e+02
   5.4251   61.2181    1.4685  1.40e+02
   5.4910   60.9762    1.0836  1.40e+02
   6.9019   64.2159   -1.7552  1.42e+02
   7.3095   62.6180   -0.7525  1.42e+02
   7.3354   62.7469   -0.5846  1.42e+02
   7.2886   64.9383   -3.0030  1.42e+02
   6.9717   64.4881   -3.2665  1.42e+02
   7.9429   63.3688   -0.0957  1.42e+02
   8.1165   63.2807   -0.1489  1.42e+02
   7.2025   63.6912    6.6886  1.40e+02
   7.4381   63.2168   -0.0963  1.42e+02
   8.2727   69.2444    9.0891  1.35e+02
   6.6667   62.8974   -3.0842  1.42e+02
   8.5811   64.8689   -4.6289  1.42e+02
   9.3296   62.1079    2.5610  1.40e+02
   6.9157   62.2380   -2.8125  1.42e+02
   7.1595   62.4677   -3.4249  1.42e+02
   8.0792   64.2544    5.4025  1.40e+02
   2.4532   63.9067    2.5601  1.37e+02
   6.8179   64.0336   -3.4662  1.42e+02
   8.0482   65.0508   -4.5727  1.42e+02
   7.9137   65.0599   -4.2226  1.42e+02
   9.2553   63.1793   -4.4276  1.42e+02
   7.4873   66.2212    4.0156  1.40e+02
   7.0493   65.9724    3.6868  1.40e+02
   6.6536   65.2635    5.1167  1.40e+02
   4.4680   62.0447    5.1780  1.40e+02
   4.4941   62.4672    5.0280  1.40e+02
   8.5493   64.8817   -3.7840  1.42e+02
   6.0421   65.4331    4.5377  1.40e+02
   8.5400   63.3051   -0.9315  1.42e+02
   6.9245   63.1864   -0.5756  1.42e+02
   4.5736   63.5156    5.0471  1.40e+02
   1.2501   63.0031   13.5963  1.37e+02
   1.9945   63.6743   13.4941  1.37e+02
   6.8242   63.6326   -2.2050  1.42e+02
   7.1890   62.8555   -0.1413  1.42e+02
   6.6008   63.5364   -4.6590  1.42e+02
   8.9198   63.4309    7.0843  1.37e+02
   8.9831   62.4304   -3.7234  1.42e+02
   6.5901   63.1185   -3.9492  1.42e+02
   7.8580   64.8127   -2.3437  1.42e+02
   6.8436   63.9650   -4.3560  1.42e+02
   7.3882   63.6993   -0.1680  1.42e+02
   9.1670   60.2188   -2.7114  1.40e+02
   6.0803   63.1211    7.9722  1.40e+02
   8.1692   64.8047   -2.8923  1.42e+02
   9.1728   63.5750   -4.1414  1.42e+02
   8.7817   62.7196   -2.4324  1.42e+02
   8.0239   61.8976   -2.0157  1.42e+02
   2.5947   63.5050   -0.0875  1.37e+02
   8.3454   62.1750   -2.4977  1.42e+02
   7.5590   65.1809   -4.7513  1.42e+02
   6.8820   62.5041   -1.2355  1.42e+02
   6.6764   63.1087   -2.4345  1.42e+02
   6.6563   63.0692   -2.1901  1.42e+02
   4.7794   62.7636    6.3650  1.40e+02
   9.3041   62.9773   -4.1067  1.42e+02
   6.9903   62.8291   -0.8027  1.42e+02
   7.4913   62.3839   -1.2554  1.42e+02
   7.3533   62.2539   -1.0448  1.42e+02
   8.4390   68.4779   40.8455  1.37e+02
   8.8502   62.2518   -4.3225  1.42e+02
   8.9498   62.3121   -4.4247  1.42e+02
   7.0803   63.6322   -0.6853  1.42e+02
   4.8141   62.9672   -0.0492  1.40e+02
   9.0495   60.3501   -1.2376  1.40e+02
   6.7288   63.3416   -1.7623  1.42e+02
   9.2265   63.6754   -4.9747  1.42e+02
   5.4940   65.3686    1.8408  1.40e+02
  10.1305   61.8433   -4.6547  1.40e+02
   9.2159   63.3311   -3.6133  1.42e+02
   2.2176   61.3126   15.1624  1.37e+02
   1.9317   61.3647   14.8771  1.37e+02
   7.6363   64.2803   -0.6483  1.42e+02
   7.5284   64.1012   -0.8538  1.42e+02
   6.5442   66.7673    1.8827  1.40e+02
   6.4406   66.3520    1.9029  1.40e+02
   7.5563   65.2683   -3.7784  1.42e+02
   8.7565   63.0671   -1.8471  1.42e+02
   8.9057   62.8232   -1.7744  1.42e+02
   8.1710   64.9460    3.3297  1.40e+02
   7.3920   62.1468   -2.6964  1.42e+02
   8.7972   64.0552   -2.4709  1.42e+02
   8.6545   65.8462    1.7228  1.40e+02
   7.3470   62.1557   -3.4877  1.42e+02
   6.7450   63.8149   -2.9221  1.42e+02
  10.0559   61.2729   -2.8701  1.39e+02
  10.1290   61.6597   -3.1465  1.39e+02
   5.5737   64.7555    4.1499  1.39e+02
   4.8376   64.2336    2.7338  1.39e+02
   7.6931   63.9762   -0.2616  1.42e+02
   7.6448   64.0450   -0.1864  1.42e+02
   6.7099   62.2214    7.4702  1.39e+02
   8.4639   61.9021   -3.5017  1.42e+02
   7.6340   62.7328   -0.2491  1.42e+02
   8.9951   64.4290   -4.8047  1.42e+02
   5.8755   69.0794    3.8238  1.37e+02
   7.0383   62.3499   -1.8133  1.42e+02
   2.7477   67.9475   15.1300  1.35e+02
   4.5233   61.5576    3.0421  1.39e+02
   5.9608   67.9680   32.0407  1.35e+02
   5.0272   62.1862   -3.5010  1.39e+02
   8.1342   62.6663   -0.5431  1.42e+02
   7.4866   64.6743   -1.3458  1.42e+02
   8.2092   61.9018   -4.6957  1.42e+02
   7.1263   64.0978   -1.3704  1.42e+02
   8.1731   64.3333   -1.2508  1.42e+02
   8.7685   64.4055   -3.7709  1.42e+02
   4.5187   64.2410    0.8598  1.39e+02
   8.9692   63.5893   -2.0439  1.42e+02
   7.9832   65.2158   -3.5702  1.42e+02
   7.5393   62.2317   -0.7996  1.42e+02
   8.1376   62.2876   -1.0085  1.42e+02
   8.2371   62.1887   -1.1658  1.42e+02
   8.1553   63.8864   -0.6637  1.42e+02
   9.2448   62.9454   -4.6181  1.42e+02
   9.2864   71.3624   41.8964  1.35e+02
   5.3414   60.9417    4.8211  1.39e+02
   8.0838   64.0870   -0.7833  1.42e+02
   6.9483   62.2702   -4.2611  1.42e+02
   6.7075   62.7490   14.2312  1.37e+02
   7.6723   62.0038   -4.6109  1.42e+02
   8.1640   65.2216   -4.8909  1.42e+02
   8.8691   64.0858   -2.8312  1.42e+02
   7.3129   62.7499   -0.4080  1.42e+02
   6.1731   59.2274   20.2162  1.35e+02
   7.8953   62.6510   -0.0927  1.42e+02
   5.4782   62.5102   -4.6538  1.39e+02
   6.0620   60.2988   12.5908  1.37e+02
   5.5295   65.4866    0.6043  1.39e+02
   5.1909   65.0420    0.5028  1.39e+02
   7.5811   64.5012   -1.0348  1.42e+02
   7.6067   64.5169   -1.1624  1.42e+02
   7.2751   63.7506   -0.4031  1.42e+02
   7.4017   63.7514   -0.2149  1.42e+02
  10.4277   65.7038   -0.3700  1.37e+02
   6.9023   60.2716    4.5274  1.39e+02
   7.2902   60.5945    4.3624  1.39e+02
   7.2566   64.3155   -0.6295  1.42e+02
   6.9195   64.4173   -2.4456  1.42e+02
   7.0818   64.4837   -2.3195  1.42e+02
   8.1229   64.0138   -0.3402  1.42e+02
   7.7447   61.9489   -1.5787  1.42e+02
   9.3155   66.6975   -4.2091  1.39e+02
   7.5552   63.1339    0.1933  1.42e+02
   8.0408   62.4831   -0.5975  1.42e+02
   4.8322   65.8838   -2.6011  1.37e+02
   8.5673   62.0523   -4.2027  1.42e+02
   9.0468   62.4974   -2.7279  1.42e+02
   7.9515   62.0611   -1.6254  1.42e+02
   8.3966   65.2861   -3.9024  1.42e+02
   7.5637   64.7038   -1.7737  1.42e+02
   6.9284   62.2313   -1.3545  1.42e+02
   7.6580   61.2881    5.5970  1.39e+02
   9.1068   64.0241   -4.2308  1.42e+02
   8.5064   62.7112   -1.1573  1.42e+02
   6.6021   62.5690   -2.6069  1.42e+02
   6.9811   63.3228   -0.4242  1.42e+02
   7.1219   62.7168   -0.7750  1.42e+02
   8.5353   61.9334   -2.7863  1.42e+02
   6.3065   66.7722   -4.4306  1.39e+02
   7.1926   61.9650   -1.9119  1.42e+02
   8.2501   63.1327   -0.1716  1.42e+02
   6.9627   63.7915   -0.6074  1.42e+02
   6.5885   64.2087   -4.0030  1.42e+02
   6.7001   63.1216   -1.6862  1.42e+02
   6.7700   62.5480   -3.6919  1.42e+02
   7.9384   64.8679   -1.6995  1.42e+02
   6.6691   63.7177   -1.4972  1.42e+02
   8.4256   64.4843   -1.3771  1.42e+02
   7.3350   64.9768   -2.2676  1.42e+02
   7.6756   67.1375   -2.3697  1.39e+02
   7.5545   63.1177    0.0061  1.42e+02
   7.6369   63.1061    0.3818  1.42e+02
   7.4983   62.3275   -0.4596  1.42e+02
   6.3525   63.3120    7.7416  1.39e+02
   7.9119   64.5857   -1.1742  1.42e+02
