NLLOC "./loc/alaska.20181130.172935.grid0" "LOCATED" "Location completed."
SIGNATURE "NonLinLoc - ALomax Scientific   obs:./obs/2018-11-30-mww70-southern-alaska.obs   NLLoc:v7.00.02(17Oct2018)   run:06Dec2018 13h26m12"
COMMENT "2018-11-30 Mww7.0 Southern Alaska (NonLinLoc Sample Location)"
GRID  201 201 106  -100 -100 -5  1 1 1 PROB_DENSITY
SEARCH OCTREE nInitial 400 nEvaluated 20016 smallestNodeSide 0.156250/0.156250/0.207031 oct_tree_integral 4.808800e+01 scatter_volume 4.808800e+01
HYPOCENTER  x 2.73438 y 37.4219 z 44.998  OT 29.0691  ix -1 iy -1 iz -1 MAXIMUM_LIKELIHOOD
GEOGRAPHIC  OT 2018 11 30  17 29 29.069079  Lat 61.335856 Long -149.948920 Depth 44.998047
QUALITY  Pmax 1.80771e+100 MFmin 30.6335 MFmax 30.9161 RMS 0.246112 Nphs 35 Gap 36.9179 Dist 29.7385 Mamp -9.90 0 Mdur -9.90 0
VPVSRATIO  VpVsRatio -1  Npair 0  Diff -2e+30
STATISTICS  ExpectX 2.74425 Y 37.3071 Z 44.3237  CovXX 0.979772 XY -0.281712 XZ 0.103413 YY 1.36697 YZ 0.202394 ZZ 10.4409 EllAz1  242.037 Dip1  1.10991 Len1  1.70958 Az2  332.021 Dip2  -0.835686 Len2  2.31125 Len3  6.072541e+00
STAT_GEOG  ExpectLat 61.334826 Long -149.948737 Depth 44.323726
TRANSFORM  LAMBERT RefEllipsoid Clarke-1880  LatOrig 61.000000  LongOrig -150.000000  FirstStdParal 60.000000  SecondStdParal 62.000000  RotCW 0.000000
QML_OriginQuality  assocPhCt 57  usedPhCt 35  assocStaCt -1  usedStaCt 35  depthPhCt -1  stdErr 0.246112  azGap 36.9179  secAzGap 47.9189  gtLevel -  minDist 29.7385 maxDist 243.845 medDist 162.014
QML_OriginUncertainty  horUnc -1  minHorUnc 1.38295  maxHorUnc 1.8668  azMaxHorUnc 152.249
QML_ConfidenceEllipsoid  semiMajorAxisLength 6.07254  semiMinorAxisLength 1.70958  semiIntermediateAxisLength 2.31125  majorAxisPlunge 88.6106  majorAxisAzimuth 25.0512  majorAxisRotation 233.055
FOCALMECH  Hyp  61.335856 -149.948920 44.998047 Mech  0 0 0 mf  0 nObs 0
PHASE ID Ins Cmp On Pha  FM Date     HrMn   Sec     Err  ErrMag    Coda      Amp       Per       PriorWt  >   TTpred    Res       Weight    StaLoc(X  Y         Z)        SDist    SAzim  RAz  RDip RQual    Tcorr       TTerr
AK_RC01_--   ?    BHZ  ? P      -0 20181130 1729   37.0400 GAU  2.00e-02 -1.00e+00  3.24e+01  1.60e-01    1.0000 >    7.9040    0.0669    1.4202   14.0814    9.9332   -0.3900   29.7385 157.57 157.6 143.0 10     0.0000    0.1581
AK_SSN_--    ?    BHZ  ? P      -0 20181130 1729   38.3884 GAU  8.00e-02 -1.00e+00  1.40e+02  2.00e-02    1.0000 >    9.3885   -0.0691    1.3878  -39.8089   51.8817   -1.3060   44.9334 288.77 288.8 129.4 10     0.0000    0.1878
AT_PMR_--    ?    BHZ  ? P      0 20181130 1729   38.8800 GAU  6.00e-02 -1.00e+00  2.03e+01  3.20e-01    1.0000 >    9.9314   -0.1205    1.3539   46.1491   66.2909   -0.1000   52.1369  56.38  56.4 123.7 10     0.0000    0.1986
AK_GHO_--    ?    BHZ  ? P      ? 20181130 1729   41.3284 GAU  4.00e-02 -1.00e+00  1.22e+01  8.00e-02    1.0000 >   12.3851   -0.1258    1.3109   56.6953   86.3740   -1.0320   72.8566  47.79  47.8 113.5 10     0.0000    0.2477
AK_KNK_--    ?    BHZ  ? P      0 20181130 1729   42.3684 GAU  1.00e-01 -1.00e+00  1.74e+01  1.60e-01    1.0000 >   13.1781    0.1212    1.2786   82.3084   46.9963   -0.5980   80.1480  83.14  83.1 110.7  9     0.0000    0.2636
AK_CAPN_--   ?    BHZ  ? P      0 20181130 1729   45.3484 GAU  4.00e-02 -1.00e+00  2.75e+01  8.00e-02    1.0000 >   14.3685    1.9109    0.0167  -62.8803  -25.2610   -0.0470   90.7437 226.31 226.3 107.4  9     0.0000    0.2874
AK_SLK_--    ?    BHZ  ? P      -0 20181130 1729   43.9884 GAU  2.00e-02 -1.00e+00  1.39e+02  2.00e-02    1.0000 >   14.7315    0.1878    1.2186  -12.2555  -54.3822   -0.6550   93.0198 189.27 189.3 106.9  9     0.0000    0.2946
AK_SAW_--    ?    BHZ  ? P      0 20181130 1729   44.8084 GAU  4.00e-02 -1.00e+00  1.72e+01  1.60e-01    1.0000 >   15.6845    0.0549    1.2682   87.9646   91.0412   -0.7810  100.6937  57.83  57.8 105.2  9     0.0000    0.3137
AK_PWL_--    ?    HNZ  ? P      ? 20181130 1729   45.3895 GAU  9.00e-02 -1.00e+00  1.30e+01  6.40e-01    1.0000 >   15.8221    0.4983    0.8518   90.5585  -14.6245   -0.5500  102.0877 120.65 120.7 104.8  9     0.0000    0.3164
AK_SKN_--    ?    BHZ  ? P      0 20181130 1729   45.7084 GAU  4.00e-02 -1.00e+00  2.65e+01  4.00e-02    1.0000 >   16.8463   -0.2070    1.1706  -80.3077  110.1399   -0.5810  110.3807 311.21 311.2 103.2  9     0.0000    0.3369
AV_SPCG_--   ?    BHZ  ? P      0 20181130 1729   45.6600 GAU  2.20e-01 -1.00e+00  1.04e+01  6.40e-01    1.0000 >   17.0537   -0.4627    0.8962 -108.4188   34.1306   -1.3290  111.2019 268.30 268.3 103.2  9     0.0000    0.3411
AV_SPCP_--   ?    BHZ  ? P      0 20181130 1729   47.3080 GAU  1.40e-01 -1.00e+00  1.31e+01  3.20e-01    1.0000 >   17.9944    0.2445    1.0968 -115.5968   31.4831   -1.6160  118.4801 267.13 267.1 102.1  9     0.0000    0.3599
AK_CUT_--    ?    BHZ  ? P      -0 20181130 1729   47.4600 GAU  2.00e-02 -1.00e+00  4.17e+01  1.60e-01    1.0000 >   18.0822    0.3087    1.0598  -13.5739  156.6879   -0.5740  120.3759 352.21 352.2 101.6  9     0.0000    0.3616
AV_SPCR_--   ?    BHZ  ? P      0 20181130 1729   47.0800 GAU  2.20e-01 -1.00e+00  1.53e+01  6.40e-01    1.0000 >   18.3643   -0.3534    0.9886 -118.7430   24.3192   -0.9840  122.1820 263.84 263.8 101.5  9     0.0000    0.3673
AK_SWD_--    ?    BHZ  ? P      -0 20181130 1729   49.1284 GAU  2.00e-02 -1.00e+00  3.29e+01  8.00e-02    1.0000 >   20.4401   -0.3808    0.9748   30.4489  -99.6652   -0.0770  139.8605 168.57 168.6  99.3  9     0.0000    0.4088
AK_SCM_--    ?    BHZ  ? P      0 20181130 1729   51.2084 GAU  6.00e-02 -1.00e+00  1.43e+01  2.00e-02    1.0000 >   21.8094    0.3299    0.9915  140.6889   95.5759   -1.0500  149.7108  67.14  67.1  98.5  9     0.0000    0.4362
AV_RDT_--    ?    BHZ  ? P      0 20181130 1729   52.0400 GAU  6.00e-02 -1.00e+00  1.14e+01  1.60e-01    1.0000 >   22.8346    0.1363    1.0854 -131.9721  -45.1925   -0.9300  158.0221 238.48 238.5  97.8  9     0.0000    0.4567
AK_GLI_--    ?    HNZ  ? P      0 20181130 1729   52.2445 GAU  2.00e-02 -1.00e+00  1.32e+01  3.20e-01    1.0000 >   23.2654   -0.0900    1.0959  157.6640   -9.9635   -0.4300  162.0140 107.01 107.0  97.5  9     0.0000    0.4653
AK_WAT7_--   ?    BHZ  ? P      -0 20181130 1729   54.5284 GAU  6.00e-02 -1.00e+00  2.64e+01  1.60e-01    1.0000 >   25.2004    0.2589    0.9886   58.7508  204.8162   -1.2320  176.5183  18.50  18.5  96.7  9     0.0000    0.5040
AK_WAT6_--   ?    BHZ  ? P      -0 20181130 1729   54.9284 GAU  1.00e-01 -1.00e+00  1.50e+01  2.00e-02    1.0000 >   25.7983    0.0610    1.0382  116.1703  178.1736   -1.6810  180.7727  38.87  38.9  96.5  9     0.0000    0.5160
AK_BRSE_--   ?    BHZ  ? P      -0 20181130 1729   54.7684 GAU  2.00e-02 -1.00e+00  1.72e+02  2.00e-02    1.0000 >   25.9015   -0.2022    1.0107  -41.6971 -139.9566   -0.5410  182.8586 194.06 194.1  96.4  9     0.0000    0.5180
AV_RDWB_--   ?    BHZ  ? P      0 20181130 1729   54.9000 GAU  6.00e-02 -1.00e+00  1.08e+01  4.00e-02    1.0000 >   26.0875   -0.2566    0.9815 -156.2149  -53.7095   -1.5460  183.2206 240.17 240.2  96.4  9     0.0000    0.5217
AK_BRLK_--   ?    BHZ  ? P      -0 20181130 1729   54.9884 GAU  2.00e-02 -1.00e+00  1.24e+01  1.60e-01    1.0000 >   26.0533   -0.1340    1.0301  -50.9563 -138.7927   -0.4090  184.2125 196.95 196.9  96.3  9     0.0000    0.5211
AK_FID_--    ?    BHZ  ? P      0 20181130 1729   56.0884 GAU  4.00e-02 -1.00e+00  2.97e+01  2.00e-02    1.0000 >   27.2116   -0.1923    0.9905  185.5109  -25.5209   -0.5000  193.3108 109.00 109.0  95.9  9     0.0000    0.5442
AK_HOM_--    ?    BHZ  ? P      -0 20181130 1729   58.6684 GAU  8.00e-02 -1.00e+00  1.09e+01  1.28e+00    1.0000 >   29.1643    0.4350    0.8345  -93.1125 -148.4338   -0.2210  209.1146 207.28 207.3  95.0  9     0.0000    0.5833
AK_PPLA_--   ?    BHZ  ? P      0 20181130 1729   58.5484 GAU  4.00e-02 -1.00e+00  3.34e+01  4.00e-02    1.0000 >   29.4018    0.0775    0.9756 -111.3681  213.1967   -1.5190  209.5619 327.01 327.0  95.1  9     0.0000    0.5880
AK_CNP_--    ?    BHZ  ? P      0 20181130 1729   58.7284 GAU  6.00e-02 -1.00e+00  3.52e+01  2.00e-02    1.0000 >   29.8094   -0.1500    0.9559  -70.0410 -163.6652   -0.5640  213.8510 199.90 199.9  93.4  9     0.0000    0.5962
AK_HIN_--    ?    HNZ  ? P      ? 20181130 1729   58.3345 GAU  5.00e-02 -1.00e+00  1.30e+01  6.40e-01    1.0000 >   29.8935   -0.6281    0.7093  192.6700  -62.1501   -0.6229  214.4531 117.67 117.7  93.1  9     0.0000    0.5979
AK_KLU_--    ?    BHZ  ? P      0 20181130 1729   59.0084 GAU  4.00e-02 -1.00e+00  5.78e+01  2.00e-02    1.0000 >   30.1054   -0.1661    0.9485  217.0370   61.6207   -1.0471  215.6645  83.56  83.6  92.7  9     0.0000    0.6021
AV_ILNE_--   ?    SHZ  ? P      -0 20181130 1730    0.3000 GAU  6.00e-02 -1.00e+00  1.06e+01  2.56e+00    1.0000 >   30.9637    0.2672    0.8980 -170.5947 -101.0390   -1.6140  221.8432 231.38 231.4  89.5  9     0.0000    0.6193
AK_DIV_--    ?    BHZ  ? P      0 20181130 1730    0.1284 GAU  6.00e-02 -1.00e+00  2.28e+01  2.00e-02    1.0000 >   31.3053   -0.2460    0.9048  227.5020   21.7345   -0.9414  225.3144  93.99  94.0  87.0  9     0.0000    0.6261
AV_ILS_--    ?    BHZ  ? P      -0 20181130 1730    1.3200 GAU  6.00e-02 -1.00e+00  2.25e+01  1.60e-01    1.0000 >   31.8706    0.3803    0.8371 -171.4944 -112.1841   -1.1250  229.6467 229.35 229.3  84.4  9     0.0000    0.6374
AV_ILSW_--   ?    BHZ  ? P      0 20181130 1730    1.4880 GAU  2.00e-02 -1.00e+00  1.08e+01  4.00e-02    1.0000 >   32.0193    0.3996    0.8273 -175.3844 -109.0772   -1.3180  230.6259 230.56 230.6  83.8  9     0.0000    0.6404
AK_TRF_--    ?    BHZ  ? P      -0 20181130 1730    1.8284 GAU  4.00e-02 -1.00e+00  1.67e+01  4.00e-02    1.0000 >   32.7833   -0.0240    0.9216  -14.4406  273.1461   -1.7099  236.3491 355.83 355.8  80.5  9     0.0000    0.6557
AK_EYAK_--   ?    BHZ  ? P      0 20181130 1730    1.9084 GAU  6.00e-02 -1.00e+00  1.25e+01  8.00e-02    1.0000 >   33.4859   -0.6466    0.6816  233.0342  -42.7188   -0.1339  243.8453 109.19 109.2  77.7  9     0.0000    0.6697
AK_DHY_--    ?    BHZ  ? P      0 20181130 1730    1.7884 GAU  1.80e-01 -1.00e+00  1.69e+01  2.00e-02    1.0000 >    0.0000    0.0000    0.0000  132.6689  233.9657   -1.6110    0.0000   0.00 359.0  -1.0  0     0.0000    0.0000
NP040_D0     ?    HNZ  ? P      ? 20181130 1729   35.1095 GAU  1.00e-02 -1.00e+00  1.17e+01  1.60e-01    1.0000 >    0.0000    0.0000    0.0000 -100000000000000000000.0000 -100000000000000000000.0000 -100000000000000000000.0000    0.0000   0.00 359.0  -1.0  0     0.0000    0.0000
AK_GLB_--    ?    BHZ  ? P      0 20181130 1730   12.4884 GAU  4.00e-02 -1.00e+00  4.27e+01  4.00e-02    1.0000 >    0.0000    0.0000    0.0000  329.6303   64.7945   -0.8549    0.0000   0.00 359.0  -1.0  0     0.0000    0.0000
AK_RND_--    ?    BHZ  ? P      -0 20181130 1730    2.0884 GAU  4.00e-02 -1.00e+00  4.28e+01  4.00e-02    1.0000 >    0.0000    0.0000    0.0000   56.9974  268.6460   -0.9936    0.0000   0.00 359.0  -1.0  0     0.0000    0.0000
AK_KTH_--    ?    BHZ  ? P      -0 20181130 1730    3.7884 GAU  8.00e-02 -1.00e+00  1.29e+01  1.60e-01    1.0000 >    0.0000    0.0000    0.0000  -45.9401  284.8846   -1.1720    0.0000   0.00 359.0  -1.0  0     0.0000    0.0000
AK_CAST_--   ?    BHZ  ? P      -0 20181130 1730    3.9884 GAU  6.00e-02 -1.00e+00  1.54e+01  1.60e-01    1.0000 >    0.0000    0.0000    0.0000 -104.1740  271.2800   -0.6110    0.0000   0.00 359.0  -1.0  0     0.0000    0.0000
AK_MCK_--    ?    BHZ  ? P      -0 20181130 1730    6.3684 GAU  8.00e-02 -1.00e+00  1.66e+01  1.60e-01    1.0000 >    0.0000    0.0000    0.0000   52.5517  304.9713   -0.6180    0.0000   0.00 359.0  -1.0  0     0.0000    0.0000
AK_BMR_--    ?    BHZ  ? P      0 20181130 1730    7.5284 GAU  6.00e-02 -1.00e+00  1.00e+01  3.20e-01    1.0000 >    0.0000    0.0000    0.0000  291.8435    8.4259   -0.8420    0.0000   0.00 359.0  -1.0  0     0.0000    0.0000
AK_GOAT_--   ?    BHZ  ? P      0 20181130 1730    8.1684 GAU  4.00e-02 -1.00e+00  2.81e+01  4.00e-02    1.0000 >    0.0000    0.0000    0.0000  288.6122  -35.1201   -0.8955    0.0000   0.00 359.0  -1.0  0     0.0000    0.0000
AV_AU22_--   ?    BHZ  ? P      0 20181130 1730    8.6600 GAU  4.00e-02 -1.00e+00  1.26e+01  1.60e-01    1.0000 >    0.0000    0.0000    0.0000 -190.8613 -176.6951   -0.1050    0.0000   0.00 359.0  -1.0  0     0.0000    0.0000
AV_AUL_--    ?    BHZ  ? P      0 20181130 1730    9.0000 GAU  8.00e-02 -1.00e+00  1.25e+01  2.00e-02    1.0000 >    0.0000    0.0000    0.0000 -195.3724 -175.1891   -0.3600    0.0000   0.00 359.0  -1.0  0     0.0000    0.0000
AK_RAG_--    ?    BHZ  ? P      0 20181130 1730    9.2684 GAU  4.00e-02 -1.00e+00  1.31e+01  1.60e-01    1.0000 >    0.0000    0.0000    0.0000  293.2037  -56.4555   -0.7520    0.0000   0.00 359.0  -1.0  0     0.0000    0.0000
AV_AUJA_--   ?    BHZ  ? P      0 20181130 1730    9.3200 GAU  4.00e-02 -1.00e+00  1.66e+01  8.00e-02    1.0000 >    0.0000    0.0000    0.0000 -194.7545 -179.9192   -0.3760    0.0000   0.00 359.0  -1.0  0     0.0000    0.0000
AV_AUCH_--   ?    BHZ  ? P      0 20181130 1730    9.3200 GAU  2.00e-02 -1.00e+00  2.59e+01  2.00e-02    1.0000 >    0.0000    0.0000    0.0000 -195.8701 -177.2832   -0.9160    0.0000   0.00 359.0  -1.0  0     0.0000    0.0000
AV_AUSB_--   ?    BHZ  ? P      0 20181130 1730    9.3400 GAU  4.00e-02 -1.00e+00  1.60e+01  1.60e-01    1.0000 >    0.0000    0.0000    0.0000 -195.1169 -180.6255   -0.2300    0.0000   0.00 359.0  -1.0  0     0.0000    0.0000
AV_AUWS_--   ?    BHZ  ? P      0 20181130 1730    9.3600 GAU  2.00e-02 -1.00e+00  1.51e+01  2.00e-02    1.0000 >    0.0000    0.0000    0.0000 -196.8087 -177.6909   -0.4870    0.0000   0.00 359.0  -1.0  0     0.0000    0.0000
AK_PAX_--    ?    BHZ  ? P      0 20181130 1730    9.5284 GAU  1.00e-01 -1.00e+00  1.27e+01  3.20e-01    1.0000 >    0.0000    0.0000    0.0000  229.7234  227.5003   -1.1500    0.0000   0.00 359.0  -1.0  0     0.0000    0.0000
AT_SVW2_--   ?    BHZ  ? P      0 20181130 1730   10.0200 GAU  4.00e-02 -1.00e+00  1.40e+01  3.20e-01    1.0000 >    0.0000    0.0000    0.0000 -302.7416   25.0539   -0.4988    0.0000   0.00 359.0  -1.0  0     0.0000    0.0000
AK_CHUM_--   ?    BHZ  ? P      -0 20181130 1730   10.2884 GAU  1.20e-01 -1.00e+00  1.23e+01  3.20e-01    1.0000 >    0.0000    0.0000    0.0000 -113.8756  323.3981   -0.2170    0.0000   0.00 359.0  -1.0  0     0.0000    0.0000
AK_BPAW_--   ?    BHZ  ? P      -0 20181130 1730   10.5284 GAU  8.00e-02 -1.00e+00  1.19e+01  1.60e-01    1.0000 >    0.0000    0.0000    0.0000  -48.2048  345.9705   -0.6190    0.0000   0.00 359.0  -1.0  0     0.0000    0.0000
AK_HMT_--    ?    BHZ  ? P      0 20181130 1730   10.9684 GAU  6.00e-02 -1.00e+00  1.16e+01  2.00e-02    1.0000 >    0.0000    0.0000    0.0000  316.5073  -60.2082   -0.6290    0.0000   0.00 359.0  -1.0  0     0.0000    0.0000
AK_BWN_--    ?    BHZ  ? P      -0 20181130 1730   11.6884 GAU  6.00e-02 -1.00e+00  1.01e+01  3.20e-01    1.0000 >    0.0000    0.0000    0.0000   34.1339  353.9956   -0.3560    0.0000   0.00 359.0  -1.0  0     0.0000    0.0000
END_PHASE
END_NLLOC

