NLLOC "./loc/alaska.20181130.182148.grid0" "LOCATED" "Location completed."
SIGNATURE "NonLinLoc - ALomax Scientific   obs:./obs/2018-11-30-mww70-southern-alaska.obs   NLLoc:v7.00.02(17Oct2018)   run:06Dec2018 13h26m13"
COMMENT "2018-11-30 Mww7.0 Southern Alaska (NonLinLoc Sample Location)"
GRID  201 201 106  -100 -100 -5  1 1 1 PROB_DENSITY
SEARCH OCTREE nInitial 400 nEvaluated 20000 smallestNodeSide 0.156250/0.156250/0.207031 oct_tree_integral 9.498040e+01 scatter_volume 9.498040e+01
HYPOCENTER  x -7.10938 y 51.1719 z -4.48242  OT 40.8671  ix -1 iy -1 iz -1 MAXIMUM_LIKELIHOOD
GEOGRAPHIC  OT 2018 11 30  18 21 40.867065  Lat 61.459201 Long -150.133331 Depth -4.482422
QUALITY  Pmax 1.39069e+70 MFmin 21.4336 MFmax 22.7678 RMS 1.13949 Nphs 30 Gap 47.6394 Dist 46.3646 Mamp -9.90 0 Mdur -9.90 0
VPVSRATIO  VpVsRatio -1  Npair 0  Diff -2e+30
STATISTICS  ExpectX -5.96021 Y 49.4555 Z -2.12752  CovXX 2.98855 XY -2.32371 XZ 0.428186 YY 6.12334 YZ -0.584766 ZZ 5.34409 EllAz1  62.2169 Dip1  -1.69327 Len1  2.48543 Az2  337.492 Dip2  72.175 Len2  4.25034 Len3  5.175601e+00
STAT_GEOG  ExpectLat 61.443817 Long -150.111724 Depth -2.127525
TRANSFORM  LAMBERT RefEllipsoid Clarke-1880  LatOrig 61.000000  LongOrig -150.000000  FirstStdParal 60.000000  SecondStdParal 62.000000  RotCW 0.000000
QML_OriginQuality  assocPhCt 37  usedPhCt 30  assocStaCt -1  usedStaCt 30  depthPhCt -1  stdErr 1.13949  azGap 47.6394  secAzGap 82.8897  gtLevel -  minDist 46.3646 maxDist 257.846 medDist 154.884
QML_OriginUncertainty  horUnc -1  minHorUnc 2.00797  maxHorUnc 4.11405  azMaxHorUnc 152
QML_ConfidenceEllipsoid  semiMajorAxisLength 5.1756  semiMinorAxisLength 2.48543  semiIntermediateAxisLength 4.25034  majorAxisPlunge 0  majorAxisAzimuth 0  majorAxisRotation 358.086
FOCALMECH  Hyp  61.459201 -150.133331 -4.482422 Mech  0 0 0 mf  0 nObs 0
DIFFERENTIAL  Nhyp 140735587367032
PHASE ID Ins Cmp On Pha  FM Date     HrMn   Sec     Err  ErrMag    Coda      Amp       Per       PriorWt  >   TTpred    Res       Weight    StaLoc(X  Y         Z)        SDist    SAzim  RAz  RDip RQual    Tcorr       TTerr
AK_RC01_--   ?    BHZ  ? P      -0ÿÿÿÿâ 20181130 1821   49.6800 GAU  4.00e-02 -1.00e+00  1.77e+01  2.00e-02    1.0000 >    8.7980    0.0149    1.2880   14.0814    9.9332   -0.3900   46.3646 152.80 152.8 200.0  0     0.0000   -1.0000
AT_PMR_--    ?    BHZ  ? S      0 20181130 1821   58.7400 GAU  8.00e-02 -1.00e+00  1.24e+01  2.56e+00    1.0000 >   17.6302    0.2428    1.1322   46.1491   66.2909   -0.1000   55.3629  74.15  74.2 200.0  0     0.0000   -1.0000
AK_GHO_--    ?    BHZ  ? S      0 20181130 1822    3.5884 GAU  1.40e-01 -1.00e+00  1.18e+01  2.56e+00    1.0000 >   23.1348   -0.4135    1.2497   56.6953   86.3740   -1.0320   72.8713  61.11  61.1 200.0  0     0.0000   -1.0000
AK_KNK_--    ?    BHZ  ? S      ? 20181130 1822    6.3084 GAU  4.00e-02 -1.00e+00  1.30e+01  6.40e-01    1.0000 >   27.4265   -1.9852    0.8825   82.3084   46.9963   -0.5980   89.5153  92.67  92.7 200.0  0     0.0000   -1.0000
AV_STLK_--   ?    BHZ  ? S      -0ÿÿÿÿâ 20181130 1822    8.7200 GAU  6.00e-02 -1.00e+00  1.80e+01  1.28e+00    1.0000 >   27.8028    0.0501    1.1620  -97.7049   56.8786   -0.9450   90.7751 273.60 273.6 200.0  0     0.0000   -1.0000
AK_SKN_--    ?    BHZ  ? S      0 20181130 1822    9.2284 GAU  8.00e-02 -1.00e+00  1.57e+01  1.28e+00    1.0000 >   28.5127   -0.1513    1.2126  -80.3077  110.1399   -0.5810   93.9958 308.85 308.9 200.0  0     0.0000   -1.0000
AV_SPBL_--   ?    BHZ  ? S      ? 20181130 1822    9.4200 GAU  1.20e-01 -1.00e+00  1.93e+01  1.60e-01    1.0000 >   28.7026   -0.1496    1.2086 -101.2807   43.4033   -0.9270   94.4913 265.28 265.3 200.0  0     0.0000   -1.0000
AV_SPCG_--   ?    BHZ  ? P      -0ÿÿÿÿâ 20181130 1821   57.9600 GAU  1.00e-01 -1.00e+00  1.23e+01  1.28e+00    1.0000 >   18.2945   -1.2016    1.1196 -108.4188   34.1306   -1.3290  102.7327 260.45 260.5 200.0  0     0.0000   -1.0000
AK_SAW_--    ?    BHZ  ? P      ? 20181130 1821   57.2484 GAU  8.00e-02 -1.00e+00  1.40e+01  3.20e-01    1.0000 >   18.2731   -1.8918    0.9167   87.9646   91.0412   -0.7810  103.0952  67.25  67.2 200.0  0     0.0000   -1.0000
AK_SLK_--    ?    BHZ  ? S      0 20181130 1822    9.0684 GAU  1.20e-01 -1.00e+00  1.08e+01  5.12e+00    1.0000 >   31.2601   -3.0588    0.3370  -12.2555  -54.3822   -0.6550  105.6794 182.79 182.8 200.0  0     0.0000   -1.0000
AK_CUT_--    ?    BHZ  ? S      ? 20181130 1822   11.4200 GAU  6.00e-02 -1.00e+00  1.12e+01  6.40e-01    1.0000 >   31.2501   -0.6972    1.2174  -13.5739  156.6879   -0.5740  105.7139 356.49 356.5 200.0  0     0.0000   -1.0000
AV_SPCP_--   ?    BHZ  ? P      -0ÿÿÿÿâ 20181130 1821   59.0080 GAU  2.00e-01 -1.00e+00  1.05e+01  2.56e+00    1.0000 >   19.3522   -1.2113    1.1272 -115.5968   31.4831   -1.6160  110.2595 259.71 259.7 200.0  0     0.0000   -1.0000
AV_SPCR_--   ?    BHZ  ? P      0 20181130 1821   59.4000 GAU  6.00e-02 -1.00e+00  1.29e+01  6.40e-01    1.0000 >   19.8856   -1.3526    1.0976 -118.7430   24.3192   -0.9840  114.8178 256.47 256.5 200.0  0     0.0000   -1.0000
AK_PWL_--    ?    HNZ  ? P      -0ÿÿÿÿâ 20181130 1821   58.4795 GAU  1.25e-01 -1.00e+00  1.14e+01  5.12e+00    1.0000 >   20.2269   -2.6144    0.5236   90.5585  -14.6245   -0.5500  117.7633 123.97 124.0 200.0  0     0.0000   -1.0000
AK_SCM_--    ?    BHZ  ? P      -0ÿÿÿÿâ 20181130 1822    3.7284 GAU  4.00e-02 -1.00e+00  1.00e+01  8.00e-02    1.0000 >   25.1254   -2.2640    0.7407  140.6889   95.5759   -1.0500  154.3244  73.28  73.3 200.0  0     0.0000   -1.0000
AK_SWD_--    ?    BHZ  ? S      -0ÿÿÿÿâ 20181130 1822   23.7484 GAU  6.00e-02 -1.00e+00  1.14e+01  1.28e+00    1.0000 >   42.2324    0.6489    0.7915   30.4489  -99.6652   -0.0770  155.4427 166.02 166.0 200.0  0     0.0000   -1.0000
AV_RDT_--    ?    BHZ  ? S      ? 20181130 1822   22.7400 GAU  8.00e-02 -1.00e+00  1.12e+01  2.56e+00    1.0000 >   42.9249   -1.0520    1.1340 -131.9721  -45.1925   -0.9300  157.7238 232.34 232.3 200.0  0     0.0000   -1.0000
AK_WAT7_--   ?    BHZ  ? S      0 20181130 1822   26.2284 GAU  8.00e-02 -1.00e+00  1.11e+01  1.28e+00    1.0000 >   45.0538    0.3076    0.9449   58.7508  204.8162   -1.2320  167.1651  23.20  23.2 200.0  0     0.0000   -1.0000
AK_WAT1_--   ?    HNZ  ? S      -0ÿÿÿÿâ 20181130 1822   26.7784 GAU  6.00e-02 -1.00e+00  1.02e+01  6.40e-01    1.0000 >   46.3403   -0.4290    1.1328   73.8832  204.7152   -0.7220  173.5953  27.81  27.8 200.0  0     0.0000   -1.0000
AV_RDJH_--   ?    BHZ  ? P      0 20181130 1822    6.5000 GAU  4.00e-02 -1.00e+00  1.07e+01  8.00e-02    1.0000 >   27.7144   -2.0814    0.8368 -153.7080  -42.3314   -1.4140  173.8793 237.47 237.5 200.0  0     0.0000   -1.0000
AK_WAT6_--   ?    BHZ  ? S      0 20181130 1822   27.1684 GAU  3.40e-01 -1.00e+00  1.02e+01  2.56e+00    1.0000 >   47.3011   -0.9998    1.1015  116.1703  178.1736   -1.6810  176.9953  44.15  44.1 200.0  0     0.0000   -1.0000
AV_RDWB_--   ?    BHZ  ? P      ? 20181130 1822    7.9600 GAU  4.00e-02 -1.00e+00  1.10e+01  8.00e-02    1.0000 >   28.8257   -1.7328    0.9863 -156.2149  -53.7095   -1.5460  182.2980 234.88 234.9 200.0  0     0.0000   -1.0000
AV_RED_--    ?    BHZ  ? S      0 20181130 1822   29.3200 GAU  6.00e-02 -1.00e+00  1.18e+01  6.40e-01    1.0000 >   48.7161   -0.2631    1.0922 -152.7839  -61.4282   -1.0710  184.1192 232.30 232.3 200.0  0     0.0000   -1.0000
AK_BRSE_--   ?    BHZ  ? S      -0ÿÿÿÿâ 20181130 1822   31.9884 GAU  1.00e-01 -1.00e+00  1.00e+01  1.28e+00    1.0000 >   50.8016    0.3198    0.9126  -41.6971 -139.9566   -0.5410  194.2328 190.26 190.3 200.0  0     0.0000   -1.0000
AK_BRLK_--   ?    BHZ  ? S      0 20181130 1822   31.0284 GAU  2.40e-01 -1.00e+00  1.05e+01  1.02e+01    1.0000 >   50.9298   -0.7684    1.1039  -50.9563 -138.7927   -0.4090  194.9592 193.00 193.0 200.0  0     0.0000   -1.0000
AK_CNP_--    ?    BHZ  ? S      0 20181130 1822   38.5284 GAU  1.40e-01 -1.00e+00  1.22e+01  5.12e+00    1.0000 >   57.2719    0.3894    0.8587  -70.0410 -163.6652   -0.5640  223.8646 196.33 196.3 200.0  0     0.0000   -1.0000
AK_KLU_--    ?    BHZ  ? S      ? 20181130 1822   38.0884 GAU  8.00e-02 -1.00e+00  1.03e+01  1.28e+00    1.0000 >   57.4969   -0.2755    1.0308  217.0370   61.6207   -1.0471  224.3897  87.33  87.3 200.0  0     0.0000   -1.0000
AK_HIN_--    ?    HNZ  ? P      ? 20181130 1822   15.6045 GAU  1.00e-02 -1.00e+00  1.14e+01  4.00e-02    1.0000 >   34.8539   -0.1165    1.1611  192.6700  -62.1501   -0.6229  229.6817 119.56 119.6 200.0  0     0.0000   -1.0000
AK_DIV_--    ?    BHZ  ? S      0 20181130 1822   39.0284 GAU  4.00e-02 -1.00e+00  1.23e+01  2.00e-02    1.0000 >   60.1035   -1.9421    0.8358  227.5020   21.7345   -0.9414  236.4509  97.15  97.2 200.0  0     0.0000   -1.0000
AK_EYAK_--   ?    BHZ  ? P      ? 20181130 1822   19.8084 GAU  4.00e-02 -1.00e+00  3.02e+01  2.00e-02    1.0000 >   38.4073    0.5341    0.8615  233.0342  -42.7188   -0.1339  257.8456 111.35 111.4 200.0  0     0.0000   -1.0000
AK_DHY_--    ?    BHZ  ? S      0 20181130 1822   42.2284 GAU  1.20e-01 -1.00e+00  1.03e+01  5.12e+00    1.0000 >    0.0000    0.0000    0.0000  132.6689  233.9657   -1.6110    0.0000   0.00 359.0  -1.0  0     0.0000   -1.0000
NP_AHOU1     ?    HNZ  ? P      0 20181130 1821   49.5150 GAU  4.00e-02 -1.00e+00  1.14e+01  6.40e-01    1.0000 >    0.0000    0.0000    0.0000 -100000000000000000000.0000 -100000000000000000000.0000 -100000000000000000000.0000    0.0000   0.00 359.0  -1.0  0     0.0000   -1.0000
NP_ABBK1     ?    HNZ  ? P      -0ÿÿÿÿâ 20181130 1821   49.5250 GAU  1.00e-02 -1.00e+00  1.03e+01  5.00e-03    1.0000 >    0.0000    0.0000    0.0000 -100000000000000000000.0000 -100000000000000000000.0000 -100000000000000000000.0000    0.0000   0.00 359.0  -1.0  0     0.0000   -1.0000
AK_CAST_--   ?    BHZ  ? P      -0ÿÿÿÿâ 20181130 1822   16.0484 GAU  4.00e-02 -1.00e+00  1.01e+01  4.00e-02    1.0000 >    0.0000    0.0000    0.0000 -104.1740  271.2800   -0.6110    0.0000   0.00 359.0  -1.0  0     0.0000   -1.0000
AK_KTH_--    ?    BHZ  ? P      -0ÿÿÿÿâ 20181130 1822   16.1684 GAU  4.00e-02 -1.00e+00  1.25e+01  4.00e-02    1.0000 >    0.0000    0.0000    0.0000  -45.9401  284.8846   -1.1720    0.0000   0.00 359.0  -1.0  0     0.0000   -1.0000
AK_CHUM_--   ?    BHZ  ? P      ? 20181130 1822   22.6084 GAU  4.00e-02 -1.00e+00  2.00e+01  4.00e-02    1.0000 >    0.0000    0.0000    0.0000 -113.8756  323.3981   -0.2170    0.0000   0.00 359.0  -1.0  0     0.0000   -1.0000
NP040_D0     ?    HNZ  ? P      -0ÿÿÿÿâ 20181130 1821   48.5745 GAU  1.00e-02 -1.00e+00  1.11e+01  5.00e-03    1.0000 >    0.0000    0.0000    0.0000 -100000000000000000000.0000 -100000000000000000000.0000 -100000000000000000000.0000    0.0000   0.00 359.0  -1.0  0     0.0000   -1.0000
END_PHASE
SCATTER Nsamples 4970
  -6.1098   49.0031   -1.7635  1.68e+02
  -7.3545   52.1398   -2.6011  1.68e+02
  -6.4689   48.9010   -3.9936  1.68e+02
  -5.3894   48.7603   -2.8304  1.68e+02
  -5.4263   50.5531   -3.2733  1.68e+02
  -8.2239   50.7857   -4.2188  1.68e+02
  -5.9240   48.7451   -4.2236  1.68e+02
  -6.5646   50.1318   -0.9597  1.68e+02
  -7.0252   50.7672   -1.6801  1.68e+02
  -5.1210   48.2605   -3.8328  1.68e+02
  -5.4031   48.4038   -4.6767  1.68e+02
  -5.1983   49.0438   -3.8724  1.68e+02
  -6.7647   49.2801   -2.4959  1.68e+02
  -8.4763   51.5260   -4.8526  1.68e+02
  -5.6736   48.5413   -3.5542  1.68e+02
  -5.6966   49.5485   -0.5862  1.68e+02
  -5.8697   49.5302   -0.7432  1.68e+02
  -7.2669   49.6473   -4.4554  1.68e+02
  -4.7692   47.9314   -3.7624  1.68e+02
  -5.6331   51.5236   -2.1912  1.68e+02
  -5.9178   51.3168   -2.4398  1.68e+02
  -5.6131   48.2686   -4.5654  1.68e+02
  -4.0570   46.3993   -4.8156  1.68e+02
  -8.3423   51.8394   -3.9201  1.68e+02
  -5.8317   50.0577   -0.4677  1.68e+02
  -6.2196   52.1175   -3.4482  1.68e+02
  -3.5738   50.4002    2.4302  1.64e+02
  -5.0225   47.7760   -4.8820  1.68e+02
  -5.4663   50.2746   -4.1924  1.68e+02
  -5.4155   50.2100   -4.4951  1.68e+02
  -4.6606   47.7947   -4.0750  1.68e+02
  -5.6641   51.3102   -3.8571  1.68e+02
  -5.1602   49.1385   -4.4064  1.68e+02
  -5.1561   49.1497   -4.2712  1.68e+02
  -6.4110   52.3804   -3.3872  1.68e+02
  -9.0571   49.8756   -2.4918  1.66e+02
  -4.7276   48.9007   -4.9513  1.68e+02
  -8.5554   54.7682   -4.7266  1.66e+02
  -3.9543   47.4088   -4.4597  1.68e+02
  -5.4224   49.1873   -1.3603  1.68e+02
  -5.3995   49.3269   -1.5940  1.68e+02
  -7.8029   50.2336   -3.0425  1.68e+02
  -6.1123   50.5878   -0.5537  1.68e+02
  -4.4331   44.4477   -0.8194  1.66e+02
  -8.5945   51.9303   -4.9978  1.68e+02
  -8.9100   49.8793    2.8320  1.64e+02
  -5.7979   48.7932   -1.5407  1.68e+02
  -5.5386   49.4127   -1.1603  1.68e+02
  -5.3429   49.5760   -1.1957  1.68e+02
  -7.6101   50.4145   -2.5885  1.68e+02
  -4.7411   48.2230    3.9684  1.66e+02
  -9.1152   50.9366   -0.2526  1.66e+02
  -9.3248   51.1224   -0.4203  1.66e+02
  -5.4035   48.6664   -3.2351  1.68e+02
  -6.4148   51.0008   -1.2021  1.68e+02
  -6.4588   51.0745   -1.1793  1.68e+02
  -7.0072   49.4615   -2.4604  1.68e+02
  -7.0932   49.6512   -2.2438  1.68e+02
  -3.6223   46.6802   -4.6201  1.68e+02
  -7.1859   54.8110   -4.8300  1.66e+02
  -6.5805   50.8634   -1.2108  1.68e+02
  -3.9886   46.6532   -4.3617  1.68e+02
  -7.3444   51.8238   -2.3664  1.68e+02
  -4.3342   48.5863    2.5994  1.66e+02
  -7.9285   50.1152   -4.2769  1.68e+02
  -7.4236   50.6278   -1.7208  1.68e+02
  -5.0057   48.5908   -3.4697  1.68e+02
  -7.6769   53.2898    2.1766  1.64e+02
  -7.7974   53.1041    2.1685  1.64e+02
  -8.3349   51.0065   -3.9215  1.68e+02
  -5.1753   45.0259    0.4180  1.66e+02
  -3.4692   49.8348   -1.3772  1.66e+02
  -8.0988   51.1119   -3.1509  1.68e+02
  -8.0445   51.2473   -3.2189  1.68e+02
  -3.2915   46.7649    1.4105  1.66e+02
  -6.4820   48.7528   -2.2424  1.68e+02
  -6.2665   52.0907   -2.1271  1.68e+02
  -7.5551   51.8275   -2.8308  1.68e+02
  -4.2735   47.4619   -4.0375  1.68e+02
  -6.4638   45.9133   -0.1225  1.66e+02
  -6.4412   46.2423   -0.5974  1.66e+02
  -7.1603   50.3078   -1.4471  1.68e+02
  -5.8207   48.6560   -2.8033  1.68e+02
  -3.2905   47.5547    1.3268  1.66e+02
  -5.7905   45.2844   -0.8072  1.66e+02
  -6.3371   50.0257   -0.4630  1.68e+02
  -2.1625   44.8569   -3.6157  1.66e+02
  -5.4560   50.5222   -3.7652  1.68e+02
  -6.0202   50.2233    2.9395  1.66e+02
  -4.1689   47.3468    3.0254  1.66e+02
  -4.1098   47.4584    3.2607  1.66e+02
  -5.3674   48.8140   -1.7377  1.68e+02
  -2.5081   49.7284   -4.3004  1.66e+02
  -5.0198   48.3444   -3.5363  1.68e+02
  -5.6074   50.1993   -0.9990  1.68e+02
  -5.4505   50.4830   -1.5116  1.68e+02
  -4.4984   52.8842   -3.9607  1.66e+02
  -5.4198   50.9121   -2.8432  1.68e+02
  -4.8275   48.5545   -3.8509  1.68e+02
  -4.7941   48.4948   -4.0350  1.68e+02
  -7.3257   49.5176   -3.4413  1.68e+02
  -4.6542   46.8337   -4.2058  1.68e+02
  -3.7133   47.3930   -4.6175  1.68e+02
  -3.6513   47.1933   -4.8624  1.68e+02
  -8.2920   50.5350   -4.7945  1.68e+02
  -6.4806   48.9821   -4.7718  1.68e+02
  -5.9873   48.7203   -4.0208  1.68e+02
  -6.0947   48.7117   -3.9396  1.68e+02
  -6.9840   52.1482   -2.2940  1.68e+02
  -5.6189   48.4744   -2.7290  1.68e+02
  -5.6172   48.6798   -2.5217  1.68e+02
  -5.3986   48.2525   -3.5867  1.68e+02
  -4.6671   47.0656   -3.8281  1.68e+02
  -5.0610   49.1897   -3.6186  1.68e+02
  -7.1238   49.2252   -3.4572  1.68e+02
  -6.8842   49.1670   -4.4328  1.68e+02
  -4.9666   48.9777   -4.3891  1.68e+02
  -5.1604   49.6752   -4.8789  1.68e+02
  -4.8572   47.1987   -4.0690  1.68e+02
  -5.9456   48.5226   -3.0845  1.68e+02
  -6.1463   48.5182   -3.2788  1.68e+02
  -5.5400   48.0469   -4.7566  1.68e+02
  -5.3617   43.8481   -3.4532  1.66e+02
  -6.3093   52.4820   -4.6599  1.68e+02
  -6.5264   54.2333   -1.1766  1.66e+02
  -4.7398   47.0653   -4.2301  1.68e+02
  -6.2239   52.0111   -4.5338  1.68e+02
  -5.9675   52.0042   -4.4934  1.68e+02
  -5.1102   49.0324   -3.2932  1.68e+02
  -5.0329   48.9331   -3.2721  1.68e+02
  -5.0201   48.6051   -3.2982  1.68e+02
  -7.0598   51.7120   -1.8952  1.68e+02
  -3.6681   46.4455   -4.7876  1.68e+02
  -5.3425   53.2217   -2.1221  1.66e+02
  -6.1269   44.4410   -3.8654  1.66e+02
  -5.0328   47.7093   -3.7790  1.68e+02
  -4.8594   48.0563   -3.4193  1.68e+02
  -5.3415   49.0559   -1.3513  1.68e+02
  -5.4935   48.9740   -1.4799  1.68e+02
  -6.8606   52.7932   -4.0964  1.68e+02
  -5.2730   49.6662   -3.7712  1.68e+02
  -5.2237   49.6384   -3.7592  1.68e+02
  -6.0947   52.0437   -2.5820  1.68e+02
  -7.1287   52.5053   -3.7118  1.68e+02
  -5.4984   50.6628   -3.3652  1.68e+02
  -5.4696   50.7475   -3.6152  1.68e+02
  -4.5716   48.3294   -4.0094  1.68e+02
  -4.6838   48.3870   -3.8915  1.68e+02
  -4.2736   46.4373   -4.4977  1.68e+02
  -6.6081   52.6201   -4.7023  1.68e+02
  -4.8898   48.1543   -3.4453  1.68e+02
  -5.0758   47.8638   -3.5749  1.68e+02
  -5.3338   50.9325   -1.7008  1.68e+02
  -4.4904   48.4593   -4.2212  1.68e+02
  -4.4084   48.5394   -4.3378  1.68e+02
  -7.8353   54.8555   -3.9467  1.66e+02
  -5.7411   48.1298   -4.4397  1.68e+02
  -5.7916   48.2803   -3.9640  1.68e+02
  -4.1249   46.6004   -4.1642  1.68e+02
  -3.8900   46.3925   -4.5100  1.68e+02
  -5.4423   48.2562   -3.1235  1.68e+02
  -5.4805   48.5379   -2.4273  1.68e+02
  -4.6116   46.3126   -4.9037  1.68e+02
  -7.9101   46.9716   -3.5958  1.66e+02
  -6.2398   48.6968   -4.6723  1.68e+02
  -5.3281   48.0928   -4.1187  1.68e+02
  -5.6531   48.2956   -4.9006  1.68e+02
  -6.4088   49.3359   -0.9724  1.68e+02
  -7.3109   46.9652    0.6806  1.66e+02
  -6.0078   49.1236   -0.6026  1.68e+02
  -7.5492   49.8471   -3.3593  1.68e+02
  -7.1697   52.2610   -2.6827  1.68e+02
  -5.1721   48.3301   -2.9451  1.68e+02
  -4.8626   47.6579   -3.6543  1.68e+02
  -4.9035   47.6940   -3.3750  1.68e+02
  -7.8576   49.8952    1.2625  1.66e+02
  -6.6136   48.8663   -3.3598  1.68e+02
  -4.8911   49.0764   -4.6928  1.68e+02
  -4.8442   49.1040   -4.9038  1.68e+02
  -3.8125   46.9493   -3.9580  1.68e+02
  -5.6950   48.5544   -2.0335  1.68e+02
 -10.3585   53.0713   -2.6377  1.66e+02
  -5.3487   49.5627   -0.6146  1.68e+02
  -5.8694   48.2086   -3.4935  1.68e+02
  -4.8637   48.8614   -3.8572  1.68e+02
  -4.4294   47.7501   -3.4921  1.68e+02
  -5.0714   49.0106   -2.8607  1.68e+02
  -5.0093   48.0662    3.2976  1.66e+02
  -5.9989   48.5056   -2.3810  1.68e+02
  -6.0293   48.5901   -2.1764  1.68e+02
  -5.5417   49.3284    3.4407  1.66e+02
  -4.0063   45.9719   -4.6708  1.68e+02
  -5.1441   49.1284   -2.5616  1.68e+02
  -5.2959   47.4961   -4.3968  1.68e+02
  -4.8535   48.6980   -3.7179  1.68e+02
  -4.7387   46.7051   -4.9793  1.68e+02
  -4.9930   46.7074   -4.7140  1.68e+02
  -4.2026   48.4170   -4.2365  1.68e+02
  -5.8054   51.6424   -3.5660  1.68e+02
  -5.0573   49.4843   -3.1958  1.68e+02
  -5.4808   49.7508   -0.5428  1.68e+02
  -5.4371   50.5812   -4.8036  1.68e+02
  -2.2685   47.0606   -1.9655  1.66e+02
  -2.0589   47.3555   -2.0087  1.66e+02
  -6.2450   48.8488   -1.2464  1.68e+02
  -4.1220   48.0116   -4.1626  1.68e+02
  -7.2173   49.9104   -2.2405  1.68e+02
  -4.5101   47.2912   -3.4124  1.68e+02
  -4.4796   46.5681    2.5039  1.66e+02
  -4.5411   46.8119   -3.8124  1.68e+02
  -7.5083   50.7150   -2.1820  1.68e+02
  -3.5769   47.0923   -4.2463  1.68e+02
  -3.8610   47.3806   -3.8043  1.68e+02
  -3.5348   46.8629   -4.2973  1.68e+02
  -4.7170   47.1754   -3.7826  1.68e+02
  -4.4458   49.0086   -4.6909  1.68e+02
  -3.8241   46.8719   -3.8036  1.68e+02
  -6.6676   48.8353   -4.5307  1.68e+02
  -5.0689   48.4878   -2.7110  1.68e+02
  -6.5523   49.3890   -0.6992  1.68e+02
  -5.4345   48.9790   -1.1899  1.68e+02
  -4.5713   47.8607   -3.6754  1.68e+02
  -8.1741   50.6410   -3.8014  1.68e+02
  -7.4843   51.5315   -1.9991  1.68e+02
  -8.7289   51.5785   -4.3562  1.68e+02
  -5.8304   51.7501   -2.8318  1.68e+02
  -5.5171   48.4649   -1.7112  1.68e+02
  -5.9197   48.1597   -3.2530  1.68e+02
  -4.1713   46.0417   -4.5999  1.68e+02
  -7.7710   52.8718   -4.7140  1.68e+02
