NLLOC "./loc/alaska.20181130.180013.grid0" "LOCATED" "Location completed."
SIGNATURE "NonLinLoc - ALomax Scientific   obs:./obs/2018-11-30-mww70-southern-alaska.obs   NLLoc:v7.00.02(17Oct2018)   run:06Dec2018 13h26m13"
COMMENT "2018-11-30 Mww7.0 Southern Alaska (NonLinLoc Sample Location)"
GRID  201 201 106  -100 -100 -5  1 1 1 PROB_DENSITY
SEARCH OCTREE nInitial 400 nEvaluated 20008 smallestNodeSide 0.156250/0.156250/0.207031 oct_tree_integral 8.180770e+01 scatter_volume 8.180770e+01
HYPOCENTER  x 2.57812 y 51.9531 z 36.7168  OT 6.5489  ix -1 iy -1 iz -1 MAXIMUM_LIKELIHOOD
GEOGRAPHIC  OT 2018 11 30  18 00 6.548904  Lat 61.466269 Long -149.951638 Depth 36.716797
QUALITY  Pmax 1.9647e+113 MFmin 33.2444 MFmax 33.4316 RMS 0.286938 Nphs 39 Gap 37.574 Dist 43.566 Mamp -9.90 0 Mdur -9.90 0
VPVSRATIO  VpVsRatio -1  Npair 0  Diff -2e+30
STATISTICS  ExpectX 2.55393 Y 51.891 Z 37.2948  CovXX 1.21598 XY -0.410769 XZ 1.6919 YY 1.44179 YZ -0.33901 ZZ 20.0806 EllAz1  237.905 Dip1  3.72439 Len1  1.71 Az2  328.145 Dip2  3.67034 Len2  2.42902 Len3  8.452341e+00
STAT_GEOG  ExpectLat 61.465711 Long -149.952093 Depth 37.294847
TRANSFORM  LAMBERT RefEllipsoid Clarke-1880  LatOrig 61.000000  LongOrig -150.000000  FirstStdParal 60.000000  SecondStdParal 62.000000  RotCW 0.000000
QML_OriginQuality  assocPhCt 63  usedPhCt 39  assocStaCt -1  usedStaCt 39  depthPhCt -1  stdErr 0.286938  azGap 37.574  secAzGap 51.9404  gtLevel -  minDist 43.566 maxDist 249.144 medDist 166.989
QML_OriginUncertainty  horUnc -1  minHorUnc 1.44105  maxHorUnc 2.00904  azMaxHorUnc 142.684
QML_ConfidenceEllipsoid  semiMajorAxisLength 8.45234  semiMinorAxisLength 1.71  semiIntermediateAxisLength 2.42902  majorAxisPlunge 0  majorAxisAzimuth 0  majorAxisRotation 175.606
FOCALMECH  Hyp  61.466269 -149.951638 36.716797 Mech  0 0 0 mf  0 nObs 0
DIFFERENTIAL  Nhyp 140735587367032
PHASE ID Ins Cmp On Pha  FM Date     HrMn   Sec     Err  ErrMag    Coda      Amp       Per       PriorWt  >   TTpred    Res       Weight    StaLoc(X  Y         Z)        SDist    SAzim  RAz  RDip RQual    Tcorr       TTerr
AK_RC01_--   ?    BHZ  ? P      -0ÿÿÿÿâ 20181130 1800   15.1200 GAU  8.00e-02 -1.00e+00  1.42e+01  1.28e+00    1.0000 >    8.4968    0.0743    1.4304   14.0814    9.9332   -0.3900   43.5660 164.69 164.7 120.7 10     0.0000   -1.0000
AT_PMR_--    ?    BHZ  ? P      ? 20181130 1800   15.2000 GAU  4.00e-02 -1.00e+00  1.25e+01  6.40e-01    1.0000 >    8.7065   -0.0554    1.4330   46.1491   66.2909   -0.1000   45.8694  71.79  71.8 118.6  9     0.0000   -1.0000
AK_GHO_--    ?    BHZ  ? P      0 20181130 1800   17.4284 GAU  6.00e-02 -1.00e+00  1.02e+01  2.56e+00    1.0000 >   10.9766   -0.0971    1.3796   56.6953   86.3740   -1.0320   64.1363  57.54  57.5 107.9  9     0.0000   -1.0000
AK_KNK_--    ?    BHZ  ? P      0 20181130 1800   19.7884 GAU  4.00e-02 -1.00e+00  1.66e+01  2.00e-02    1.0000 >   12.8471    0.3924    1.1062   82.3084   46.9963   -0.5980   79.8842  93.56  93.6 101.7  9     0.0000   -1.0000
AK_SAW_--    ?    BHZ  ? P      0 20181130 1800   20.9484 GAU  4.00e-02 -1.00e+00  1.47e+01  1.60e-01    1.0000 >   14.6246   -0.2251    1.2339   87.9646   91.0412   -0.7810   93.9081  65.40  65.4  98.2  9     0.0000   -1.0000
AV_STLK_--   ?    BHZ  ? P      ? 20181130 1800   22.4600 GAU  4.00e-02 -1.00e+00  1.09e+01  1.60e-01    1.0000 >   15.4633    0.4477    1.0279  -97.7049   56.8786   -0.9450  100.4040 272.81 272.8  97.2  9     0.0000   -1.0000
AK_CAPN_--   ?    BHZ  ? P      0 20181130 1800   23.5884 GAU  1.00e-01 -1.00e+00  1.56e+01  6.40e-01    1.0000 >   15.4413    1.5982    0.0928  -62.8803  -25.2610   -0.0470  101.2266 220.29 220.3  96.9  9     0.0000   -1.0000
AK_SKN_--    ?    BHZ  ? P      ? 20181130 1800   21.5884 GAU  4.00e-02 -1.00e+00  1.09e+01  4.00e-02    1.0000 >   15.5214   -0.4819    0.9355  -80.3077  110.1399   -0.5810  101.2707 305.07 305.1  97.0  9     0.0000   -1.0000
AV_SPBL_--   ?    BHZ  ? P      -0ÿÿÿÿâ 20181130 1800   22.6200 GAU  8.00e-02 -1.00e+00  1.13e+01  3.20e-01    1.0000 >   15.9396    0.1315    1.2911 -101.2807   43.4033   -0.9270  104.2102 265.29 265.3  96.6  9     0.0000   -1.0000
AK_CUT_--    ?    BHZ  ? P      0 20181130 1800   22.2600 GAU  4.00e-02 -1.00e+00  1.10e+01  1.60e-01    1.0000 >   16.1122   -0.4011    1.0338  -13.5739  156.6879   -0.5740  105.9729 351.23 351.2  96.4  9     0.0000   -1.0000
AK_SLK_--    ?    BHZ  ? P      0 20181130 1800   22.7884 GAU  8.00e-02 -1.00e+00  1.37e+01  1.28e+00    1.0000 >   16.2988   -0.0593    1.2960  -12.2555  -54.3822   -0.6550  107.3649 187.94 187.9  96.3  9     0.0000   -1.0000
AK_PWL_--    ?    HNZ  ? P      0 20181130 1800   23.5845 GAU  2.55e-01 -1.00e+00  1.06e+01  1.02e+01    1.0000 >   16.6579    0.3777    1.0563   90.5585  -14.6245   -0.5500  110.3319 127.12 127.1  95.9  9     0.0000   -1.0000
AV_SPCG_--   ?    BHZ  ? P      0 20181130 1800   23.8800 GAU  1.80e-01 -1.00e+00  1.17e+01  3.20e-01    1.0000 >   17.0295    0.3016    1.1396 -108.4188   34.1306   -1.3290  112.4187 260.88 260.9  95.8  9     0.0000   -1.0000
AV_SPCP_--   ?    BHZ  ? P      0 20181130 1800   25.1080 GAU  4.00e-02 -1.00e+00  1.28e+01  2.00e-02    1.0000 >   18.0173    0.5417    0.9094 -115.5968   31.4831   -1.6160  119.9347 260.17 260.2  95.1  9     0.0000   -1.0000
AV_SPCR_--   ?    BHZ  ? P      -0ÿÿÿÿâ 20181130 1800   25.0400 GAU  2.20e-01 -1.00e+00  1.46e+01  1.28e+00    1.0000 >   18.4963   -0.0052    1.2060 -118.7430   24.3192   -0.9840  124.4285 257.17 257.2  94.8  9     0.0000   -1.0000
AK_SCM_--    ?    BHZ  ? P      ? 20181130 1800   28.0284 GAU  8.00e-02 -1.00e+00  2.03e+01  4.00e-02    1.0000 >   21.0829    0.3966    1.0351  140.6889   95.5759   -1.0500  144.8362  72.47  72.5  93.7  9     0.0000   -1.0000
AK_SWD_--    ?    BHZ  ? P      -0ÿÿÿÿâ 20181130 1800   28.3684 GAU  2.40e-01 -1.00e+00  1.01e+01  1.02e+01    1.0000 >   22.1258   -0.3063    1.0250   30.4489  -99.6652   -0.0770  154.1586 169.58 169.6  93.3  9     0.0000   -1.0000
AK_WAT7_--   ?    BHZ  ? P      0 20181130 1800   30.2684 GAU  2.00e-02 -1.00e+00  1.05e+01  2.00e-02    1.0000 >   23.3861    0.3334    1.0583   58.7508  204.8162   -1.2320  162.8573  20.18  20.2  93.0  9     0.0000   -1.0000
AV_RDT_--    ?    BHZ  ? P      0 20181130 1800   30.2000 GAU  8.00e-02 -1.00e+00  1.98e+01  6.40e-01    1.0000 >   23.7358   -0.0847    1.1419 -131.9721  -45.1925   -0.9300  165.9550 234.17 234.2  93.0  9     0.0000   -1.0000
AK_GLI_--    ?    HNZ  ? P      0 20181130 1800   30.0045 GAU  1.02e+00 -1.00e+00  1.01e+01  4.10e+01    1.0000 >   23.7968   -0.3412    0.6617  157.6640   -9.9635   -0.4300  166.9889 111.76 111.8  92.9  9     0.0000   -1.0000
AK_WAT1_--   ?    HNZ  ? P      -0ÿÿÿÿâ 20181130 1800   30.6184 GAU  1.00e-01 -1.00e+00  1.12e+01  2.56e+00    1.0000 >   24.0393    0.0302    1.1443   73.8832  204.7152   -0.7220  168.5842  25.02  25.0  92.9  9     0.0000   -1.0000
AK_WAT6_--   ?    BHZ  ? P      0 20181130 1800   31.0484 GAU  8.00e-02 -1.00e+00  1.33e+01  6.40e-01    1.0000 >   24.3275    0.1720    1.1176  116.1703  178.1736   -1.6810  169.8081  41.99  42.0  92.9  9     0.0000   -1.0000
AV_RDJH_--   ?    BHZ  ? P      0 20181130 1800   32.5400 GAU  6.00e-02 -1.00e+00  1.07e+01  1.60e-01    1.0000 >   25.8982    0.0929    1.1091 -153.7080  -42.3314   -1.4140  182.5237 238.90 238.9  92.6  9     0.0000   -1.0000
AV_RDWB_--   ?    BHZ  ? P      0 20181130 1800   33.4600 GAU  1.00e-01 -1.00e+00  1.18e+01  6.40e-01    1.0000 >   26.9553   -0.0442    1.0844 -156.2149  -53.7095   -1.5460  190.7349 236.36 236.4  92.5  9     0.0000   -1.0000
AV_RED_--    ?    BHZ  ? P      0 20181130 1800   33.6000 GAU  8.00e-02 -1.00e+00  1.11e+01  6.40e-01    1.0000 >   27.0916   -0.0405    1.0854 -152.7839  -61.4282   -1.0710  192.3349 233.88 233.9  92.4  9     0.0000   -1.0000
AK_BRSE_--   ?    BHZ  ? P      -0ÿÿÿÿâ 20181130 1800   33.8684 GAU  2.00e-01 -1.00e+00  1.50e+01  5.12e+00    1.0000 >   27.6017   -0.2822    0.9785  -41.6971 -139.9566   -0.5410  196.9508 192.99 193.0  92.3  9     0.0000   -1.0000
AK_PPLA_--   ?    BHZ  ? P      -0ÿÿÿÿâ 20181130 1800   34.2084 GAU  1.40e-01 -1.00e+00  1.03e+01  1.28e+00    1.0000 >   27.7999   -0.1404    1.0424 -111.3681  213.1967   -1.5190  197.4417 324.75 324.8  92.3  9     0.0000   -1.0000
AK_BRLK_--   ?    BHZ  ? P      0 20181130 1800   33.7884 GAU  8.00e-02 -1.00e+00  1.03e+01  1.28e+00    1.0000 >   27.7306   -0.4911    0.8670  -50.9563 -138.7927   -0.4090  198.1159 195.68 195.7  92.3  9     0.0000   -1.0000
AK_FID_--    ?    BHZ  ? P      -0ÿÿÿÿâ 20181130 1800   34.3684 GAU  1.20e-01 -1.00e+00  1.01e+01  5.12e+00    1.0000 >   27.8123    0.0072    1.0685  185.5109  -25.5209   -0.5000  198.6621 112.95 113.0  92.3  9     0.0000   -1.0000
AK_KLU_--    ?    BHZ  ? P      0 20181130 1800   37.7684 GAU  1.20e-01 -1.00e+00  1.23e+01  1.28e+00    1.0000 >   29.9145    1.3050    0.3280  217.0370   61.6207   -1.0471  214.6766  87.42  87.4  92.1  9     0.0000   -1.0000
AK_HIN_--    ?    HNZ  ? P      0 20181130 1800   37.2195 GAU  2.95e-01 -1.00e+00  1.00e+01  1.02e+01    1.0000 >   30.7451   -0.0745    0.9635  192.6700  -62.1501   -0.6229  221.7081 120.97 121.0  92.0  9     0.0000   -1.0000
AK_TRF_--    ?    BHZ  ? P      -0ÿÿÿÿâ 20181130 1800   37.3884 GAU  8.00e-02 -1.00e+00  1.30e+01  3.20e-01    1.0000 >   30.9139   -0.0744    1.0124  -14.4406  273.1461   -1.7099  221.8467 355.60 355.6  92.0  9     0.0000   -1.0000
AK_HOM_--    ?    BHZ  ? P      0 20181130 1800   37.3284 GAU  1.00e-01 -1.00e+00  1.13e+01  1.28e+00    1.0000 >   30.7340    0.0455    1.0195  -93.1125 -148.4338   -0.2210  222.0621 205.53 205.5  92.0  9     0.0000   -1.0000
AK_DIV_--    ?    BHZ  ? P      0 20181130 1800   41.1484 GAU  4.00e-02 -1.00e+00  2.27e+01  2.00e-02    1.0000 >   31.4520    3.1475    0.0075  227.5020   21.7345   -0.9414  226.9447  97.65  97.7  91.9  9     0.0000   -1.0000
AK_CNP_--    ?    BHZ  ? P      0 20181130 1800   37.5084 GAU  1.20e-01 -1.00e+00  1.50e+01  6.40e-01    1.0000 >   31.4721   -0.5126    0.8208  -70.0410 -163.6652   -0.5640  227.5188 198.61 198.6  91.9  9     0.0000   -1.0000
AV_IVE_--    ?    BHZ  ? P      0 20181130 1800   38.6000 GAU  1.00e-01 -1.00e+00  1.17e+01  8.00e-01    1.0000 >   32.1879   -0.1368    0.9777 -168.2986 -105.7187   -1.1730  232.5065 227.30 227.3  91.9  9     0.0000   -1.0000
AV_ILS_--    ?    BHZ  ? P      0 20181130 1800   39.6200 GAU  8.00e-02 -1.00e+00  1.29e+01  6.40e-01    1.0000 >   33.0349    0.0362    0.9831 -171.4944 -112.1841   -1.1250  239.2536 226.68 226.7  91.8  9     0.0000   -1.0000
AV_ILSW_--   ?    BHZ  ? P      0 20181130 1800   39.7080 GAU  1.40e-01 -1.00e+00  1.23e+01  6.40e-01    1.0000 >   33.1565    0.0026    0.9728 -175.3844 -109.0772   -1.3180  240.0030 227.86 227.9  91.8  9     0.0000   -1.0000
AK_EYAK_--   ?    BHZ  ? P      0 20181130 1800   40.4684 GAU  1.00e-01 -1.00e+00  1.10e+01  2.56e+00    1.0000 >   34.1486   -0.2291    0.9242  233.0342  -42.7188   -0.1339  249.1440 112.33 112.3  91.7  9     0.0000   -1.0000
AV_WACK_--   ?    BHZ  ? P      0 20181130 1800   50.1600 GAU  1.00e-01 -1.00e+00  1.16e+01  6.40e-01    1.0000 >    0.0000    0.0000    0.0000  296.8555  122.7019   -2.2800    0.0000   0.00 359.0  -1.0  0     0.0000   -1.0000
AK_KTH_--    ?    BHZ  ? P      -0ÿÿÿÿâ 20181130 1800   39.4284 GAU  1.20e-01 -1.00e+00  1.11e+01  1.28e+00    1.0000 >    0.0000    0.0000    0.0000  -45.9401  284.8846   -1.1720    0.0000   0.00 359.0  -1.0  0     0.0000   -1.0000
AV_WASW_--   ?    SHZ  ? P      -0ÿÿÿÿâ 20181130 1800   52.1000 GAU  1.20e-01 -1.00e+00  1.00e+01  5.12e+00    1.0000 >    0.0000    0.0000    0.0000  305.5778  116.9688   -2.1960    0.0000   0.00 359.0  -1.0  0     0.0000   -1.0000
AK_RAG_--    ?    BHZ  ? P      ? 20181130 1800   52.7084 GAU  1.00e-01 -1.00e+00  1.44e+01  2.00e-02    1.0000 >    0.0000    0.0000    0.0000  293.2037  -56.4555   -0.7520    0.0000   0.00 359.0  -1.0  0     0.0000   -1.0000
AK_CAST_--   ?    BHZ  ? P      0 20181130 1800   39.9684 GAU  1.20e-01 -1.00e+00  1.04e+01  1.28e+00    1.0000 >    0.0000    0.0000    0.0000 -104.1740  271.2800   -0.6110    0.0000   0.00 359.0  -1.0  0     0.0000   -1.0000
AK_GLB_--    ?    BHZ  ? P      0 20181130 1800   53.8684 GAU  1.20e-01 -1.00e+00  1.08e+01  5.12e+00    1.0000 >    0.0000    0.0000    0.0000  329.6303   64.7945   -0.8549    0.0000   0.00 359.0  -1.0  0     0.0000   -1.0000
AK_HMT_--    ?    BHZ  ? P      0 20181130 1800   55.8084 GAU  8.00e-02 -1.00e+00  1.01e+01  6.40e-01    1.0000 >    0.0000    0.0000    0.0000  316.5073  -60.2082   -0.6290    0.0000   0.00 359.0  -1.0  0     0.0000   -1.0000
AK_MCK_--    ?    BHZ  ? P      -0ÿÿÿÿâ 20181130 1800   42.0484 GAU  3.40e-01 -1.00e+00  1.13e+01  1.28e+00    1.0000 >    0.0000    0.0000    0.0000   52.5517  304.9713   -0.6180    0.0000   0.00 359.0  -1.0  0     0.0000   -1.0000
AK_CHUM_--   ?    BHZ  ? P      -0ÿÿÿÿâ 20181130 1800   45.9084 GAU  1.00e-01 -1.00e+00  1.08e+01  6.40e-01    1.0000 >    0.0000    0.0000    0.0000 -113.8756  323.3981   -0.2170    0.0000   0.00 359.0  -1.0  0     0.0000   -1.0000
AK_BPAW_--   ?    BHZ  ? P      -0ÿÿÿÿâ 20181130 1800   46.0684 GAU  1.60e-01 -1.00e+00  1.38e+01  6.40e-01    1.0000 >    0.0000    0.0000    0.0000  -48.2048  345.9705   -0.6190    0.0000   0.00 359.0  -1.0  0     0.0000   -1.0000
AK_PAX_--    ?    BHZ  ? P      -0ÿÿÿÿâ 20181130 1800   47.3884 GAU  1.60e-01 -1.00e+00  1.35e+01  1.28e+00    1.0000 >    0.0000    0.0000    0.0000  229.7234  227.5003   -1.1500    0.0000   0.00 359.0  -1.0  0     0.0000   -1.0000
AV_AU22_--   ?    BHZ  ? P      ? 20181130 1800   47.6600 GAU  2.00e-02 -1.00e+00  1.56e+01  2.00e-02    1.0000 >    0.0000    0.0000    0.0000 -190.8613 -176.6951   -0.1050    0.0000   0.00 359.0  -1.0  0     0.0000   -1.0000
AV_AUSB_--   ?    BHZ  ? P      -0ÿÿÿÿâ 20181130 1800   47.8400 GAU  8.00e-02 -1.00e+00  1.06e+01  1.28e+00    1.0000 >    0.0000    0.0000    0.0000 -195.1169 -180.6255   -0.2300    0.0000   0.00 359.0  -1.0  0     0.0000   -1.0000
AV_AUCH_--   ?    BHZ  ? P      -0ÿÿÿÿâ 20181130 1800   47.9600 GAU  2.40e-01 -1.00e+00  1.15e+01  1.02e+01    1.0000 >    0.0000    0.0000    0.0000 -195.8701 -177.2832   -0.9160    0.0000   0.00 359.0  -1.0  0     0.0000   -1.0000
AV_AUJA_--   ?    BHZ  ? P      0 20181130 1800   48.1200 GAU  1.40e-01 -1.00e+00  1.08e+01  1.28e+00    1.0000 >    0.0000    0.0000    0.0000 -194.7545 -179.9192   -0.3760    0.0000   0.00 359.0  -1.0  0     0.0000   -1.0000
AT_SVW2_--   ?    BHZ  ? P      -0ÿÿÿÿâ 20181130 1800   48.1600 GAU  6.00e-02 -1.00e+00  1.33e+01  2.00e-02    1.0000 >    0.0000    0.0000    0.0000 -302.7416   25.0539   -0.4988    0.0000   0.00 359.0  -1.0  0     0.0000   -1.0000
AV_AUL_--    ?    BHZ  ? P      -0ÿÿÿÿâ 20181130 1800   48.1800 GAU  1.20e-01 -1.00e+00  1.03e+01  3.20e-01    1.0000 >    0.0000    0.0000    0.0000 -195.3724 -175.1891   -0.3600    0.0000   0.00 359.0  -1.0  0     0.0000   -1.0000
AV_AUWS_--   ?    BHZ  ? P      0 20181130 1800   48.2600 GAU  1.60e-01 -1.00e+00  1.02e+01  1.28e+00    1.0000 >    0.0000    0.0000    0.0000 -196.8087 -177.6909   -0.4870    0.0000   0.00 359.0  -1.0  0     0.0000   -1.0000
AK_BWN_--    ?    BHZ  ? P      0 20181130 1800   48.3284 GAU  6.00e-02 -1.00e+00  1.20e+01  2.00e-02    1.0000 >    0.0000    0.0000    0.0000   34.1339  353.9956   -0.3560    0.0000   0.00 359.0  -1.0  0     0.0000   -1.0000
AK_BMR_--    ?    BHZ  ? P      ? 20181130 1800   49.8684 GAU  2.00e-02 -1.00e+00  1.50e+01  2.00e-02    1.0000 >    0.0000    0.0000    0.0000  291.8435    8.4259   -0.8420    0.0000   0.00 359.0  -1.0  0     0.0000   -1.0000
AK_RND_--    ?    BHZ  ? P      -0ÿÿÿÿâ 20181130 1800   37.5684 GAU  8.00e-02 -1.00e+00  1.28e+01  3.20e-01    1.0000 >    0.0000    0.0000    0.0000   56.9974  268.6460   -0.9936    0.0000   0.00 359.0  -1.0  0     0.0000   -1.0000
AK_GOAT_--   ?    BHZ  ? P      ? 20181130 1800   49.9084 GAU  4.00e-02 -1.00e+00  1.37e+01  2.00e-02    1.0000 >    0.0000    0.0000    0.0000  288.6122  -35.1201   -0.8955    0.0000   0.00 359.0  -1.0  0     0.0000   -1.0000
AK_DHY_--    ?    BHZ  ? P      0 20181130 1800   37.9684 GAU  2.40e-01 -1.00e+00  1.02e+01  1.28e+00    1.0000 >    0.0000    0.0000    0.0000  132.6689  233.9657   -1.6110    0.0000   0.00 359.0  -1.0  0     0.0000   -1.0000
NP040_D0     ?    HNZ  ? P      -0ÿÿÿÿâ 20181130 1800   13.9145 GAU  2.55e-01 -1.00e+00  1.16e+01  1.02e+01    1.0000 >    0.0000    0.0000    0.0000 -100000000000000000000.0000 -100000000000000000000.0000 -100000000000000000000.0000    0.0000   0.00 359.0  -1.0  0     0.0000   -1.0000
END_PHASE
SCATTER Nsamples 4909
   1.3407   52.1741   33.1397  2.67e+02
   2.6975   51.1627   32.7405  2.67e+02
   1.8392   51.3567   36.1914  2.67e+02
   2.8253   51.3849   41.5478  2.67e+02
   3.0379   51.3501   41.6597  2.67e+02
   3.4503   54.6998   51.9629  2.61e+02
   1.2878   51.9480   35.7780  2.67e+02
   3.3008   50.6965   37.9040  2.67e+02
   3.2914   50.6858   37.9602  2.67e+02
   2.3960   51.7302   41.1389  2.67e+02
   1.8697   51.4727   33.8715  2.67e+02
   2.9728   50.8186   39.0809  2.67e+02
   2.9422   50.8283   39.2691  2.67e+02
   2.5039   52.3062   41.5990  2.67e+02
   3.5243   51.6390   40.1480  2.67e+02
   3.7290   51.7986   40.4981  2.67e+02
   2.0813   51.9072   31.4822  2.67e+02
   1.5868   52.6744   32.1369  2.67e+02
   2.9409   51.5381   33.0135  2.67e+02
   3.7049   51.0654   38.5062  2.67e+02
   3.6974   51.2455   38.8888  2.67e+02
   1.6515   52.9342   37.5967  2.67e+02
   1.5816   53.0913   37.6389  2.67e+02
   2.5972   53.0011   38.8967  2.67e+02
   2.6029   52.9596   39.1509  2.67e+02
   2.9947   51.8677   41.8656  2.67e+02
   1.6469   52.1602   39.0530  2.67e+02
   1.5948   51.9180   38.9468  2.67e+02
   2.5881   53.5859   45.5949  2.65e+02
   2.8859   53.5885   45.8758  2.65e+02
   2.4166   52.3696   46.9147  2.65e+02
   2.2452   51.9033   46.4846  2.65e+02
   3.3931   51.0494   40.5752  2.67e+02
   3.3185   50.9829   40.7405  2.67e+02
   3.2601   50.7258   38.5132  2.67e+02
   1.9893   51.1238   33.6420  2.67e+02
   2.1076   51.0437   33.6072  2.67e+02
   3.5712   51.5764   37.1182  2.67e+02
   2.8321   48.7176   38.1175  2.63e+02
   2.8558   47.5995   39.2819  2.63e+02
   1.2440   52.6714   42.7085  2.65e+02
   0.6756   53.0182   42.7367  2.65e+02
   3.3655   50.8298   37.1153  2.67e+02
   2.9870   52.2280   33.2282  2.67e+02
   2.4704   51.0193   39.3726  2.67e+02
   2.4110   51.0813   39.6353  2.67e+02
   1.9795   51.1649   37.3051  2.67e+02
   3.5304   50.9997   37.8995  2.67e+02
   3.3316   52.4400   40.5873  2.67e+02
   2.4997   51.3138   31.9588  2.67e+02
   2.3099   51.3578   32.1324  2.67e+02
   3.2470   51.2336   34.9347  2.67e+02
   2.7845   52.5109   29.6127  2.65e+02
   1.4718   52.9278   45.4483  2.65e+02
   1.7032   53.0302   44.9901  2.65e+02
   2.4333   52.7291   40.6235  2.67e+02
   2.3372   52.7999   40.7900  2.67e+02
   3.6376   52.0372   38.8985  2.67e+02
   3.6274   52.0460   39.0763  2.67e+02
   3.2518   47.6208   36.3935  2.63e+02
   2.7212   50.8036   38.6503  2.67e+02
   2.3590   52.8938   39.3742  2.67e+02
   3.4675   51.1864   39.5590  2.67e+02
   3.6900   52.1118   38.2165  2.67e+02
   3.5821   51.9299   38.3294  2.67e+02
   2.7639   51.9000   42.0806  2.67e+02
   2.3735   51.5111   40.8021  2.67e+02
   2.3384   51.4956   40.9213  2.67e+02
   1.5595   52.3240   36.9449  2.67e+02
   3.4779   51.3464   36.6768  2.67e+02
   2.0665   51.4118   39.5828  2.67e+02
   3.5694   50.0593   46.0375  2.65e+02
   2.9960   50.8976   35.1512  2.67e+02
   1.3956   52.7688   36.7666  2.67e+02
   2.9285   50.9555   33.3339  2.67e+02
   4.8000   51.6106   36.2360  2.65e+02
   4.5987   51.2882   36.2265  2.65e+02
   1.8539   51.7454   38.6548  2.67e+02
   2.6484   51.7547   31.9287  2.67e+02
   2.7964   51.7963   31.9149  2.67e+02
   0.5841   52.4867   38.8035  2.65e+02
   3.1219   52.7505   34.5233  2.67e+02
   1.8918   52.8522   38.9383  2.67e+02
   1.4815   52.0893   36.6132  2.67e+02
