NLLOC "./loc/alaska.20181130.182148.grid0" "LOCATED" "Location completed."
PUBLIC_ID None
SIGNATURE "NonLinLoc - ALomax Scientific   obs:./obs/2018-11-30-mww70-southern-alaska.obs   NLLoc:v7.00.16(17Apr2023)   run:18Jul2023 15h41m38"
COMMENT "2018-11-30 Mww7.0 Southern Alaska (NonLinLoc Sample Location)"
GRID  201 201 106  -100 -100 -5  1 1 1 PROB_DENSITY
SEARCH OCTREE nInitial 400 nEvaluated 20008 smallestNodeSide 0.156250/0.156250/0.205078 oct_tree_integral 9.498760e+01 scatter_volume 9.498760e+01
HYPOCENTER  x -7.10938 y 51.1719 z -4.4873  OT 40.867  ix -1 iy -1 iz -1 MAXIMUM_LIKELIHOOD
GEOGRAPHIC  OT 2018 11 30  18 21 40.866968  Lat 61.459201 Long -150.133331 Depth -4.487305
QUALITY  Pmax 1.38827e+70 MFmin 21.4333 MFmax 22.7676 RMS 1.13994 Nphs 30 Gap 47.6394 Dist 46.3646 Mamp -9.90 0 Mdur -9.90 0
VPVSRATIO  VpVsRatio -1  Npair 0  Diff -2e+30
STATISTICS  ExpectX -5.944739 Y 49.422940 Z -2.099616  CovXX 3.1035 XY -2.45219 XZ 0.373308 YY 6.16227 YZ -0.485521 ZZ 5.22458 EllAz1  61.1349 Dip1  -1.52148 Len1  2.47866 Az2  337.255 Dip2  76.0108 Len2  4.23344 Len3  5.204333e+00
STAT_GEOG  ExpectLat 61.443525 Long -150.111433 Depth -2.099616
TRANSFORM  LAMBERT RefEllipsoid Clarke-1880  LatOrig 61.000000  LongOrig -150.000000  FirstStdParal 60.000000  SecondStdParal 62.000000  RotCW 0.000000
QML_OriginQuality  assocPhCt 37  usedPhCt 30  assocStaCt -1  usedStaCt 30  depthPhCt -1  stdErr 1.13994  azGap 47.6394  secAzGap 82.8897  gtLevel -  minDist 46.3646 maxDist 257.846 medDist 154.884
QML_OriginUncertainty  horUnc -1  minHorUnc 2.00214  maxHorUnc 4.15965  azMaxHorUnc 150.975
QML_ConfidenceEllipsoid  semiMajorAxisLength 5.20433  semiMinorAxisLength 2.47866  semiIntermediateAxisLength 4.23344  majorAxisPlunge 13.9028  majorAxisAzimuth 150.758  majorAxisRotation 181.772
FOCALMECH  Hyp  61.459201 -150.133331 -4.487305 Mech  0 0 0 mf  0 nObs -1
PHASE ID Ins Cmp On Pha  FM Date     HrMn   Sec     Err  ErrMag    Coda      Amp       Per       PriorWt  >   TTpred    Res       Weight    StaLoc(X  Y         Z)        SDist    SAzim  RAz  RDip RQual    Tcorr       TTerr
AK_RC01_--   ?    BHZ  ? P      -0 20181130 1821   49.6800 GAU  4.00e-02 -1.00e+00  1.77e+01  2.00e-02    1.0000 >    8.7981    0.0149    1.2878   14.0814    9.9332   -0.3900   46.3646 152.80 332.8 200.0  0     0.0000    0.1760
AT_PMR_--    ?    BHZ  ? S      0 20181130 1821   58.7400 GAU  8.00e-02 -1.00e+00  1.24e+01  2.56e+00    1.0000 >   17.6303    0.2427    1.1318   46.1491   66.2909   -0.1000   55.3629  74.15 254.2 200.0  0     0.0000    0.3526
AK_GHO_--    ?    BHZ  ? S      0 20181130 1822    3.5884 GAU  1.40e-01 -1.00e+00  1.18e+01  2.56e+00    1.0000 >   23.1350   -0.4135    1.2496   56.6953   86.3740   -1.0320   72.8713  61.11 241.1 200.0  0     0.0000    0.4627
AK_KNK_--    ?    BHZ  ? S      ? 20181130 1822    6.3084 GAU  4.00e-02 -1.00e+00  1.30e+01  6.40e-01    1.0000 >   27.4275   -1.9861    0.8825   82.3084   46.9963   -0.5980   89.5153  92.67 272.7 200.0  0     0.0000    0.5486
AV_STLK_--   ?    BHZ  ? S      -0 20181130 1822    8.7200 GAU  6.00e-02 -1.00e+00  1.80e+01  1.28e+00    1.0000 >   27.8038    0.0492    1.1620  -97.7049   56.8786   -0.9450   90.7751 273.60  93.6 200.0  0     0.0000    0.5561
AK_SKN_--    ?    BHZ  ? S      0 20181130 1822    9.2284 GAU  8.00e-02 -1.00e+00  1.57e+01  1.28e+00    1.0000 >   28.5137   -0.1522    1.2126  -80.3077  110.1399   -0.5810   93.9958 308.85 128.9 200.0  0     0.0000    0.5703
AV_SPBL_--   ?    BHZ  ? S      ? 20181130 1822    9.4200 GAU  1.20e-01 -1.00e+00  1.93e+01  1.60e-01    1.0000 >   28.7036   -0.1505    1.2085 -101.2807   43.4033   -0.9270   94.4913 265.28  85.3 200.0  0     0.0000    0.5741
AV_SPCG_--   ?    BHZ  ? P      -0 20181130 1821   57.9600 GAU  1.00e-01 -1.00e+00  1.23e+01  1.28e+00    1.0000 >   18.2951   -1.2021    1.1197 -108.4188   34.1306   -1.3290  102.7327 260.45  80.5 200.0  0     0.0000    0.3659
AK_SAW_--    ?    BHZ  ? P      ? 20181130 1821   57.2484 GAU  8.00e-02 -1.00e+00  1.40e+01  3.20e-01    1.0000 >   18.2737   -1.8923    0.9168   87.9646   91.0412   -0.7810  103.0952  67.25 247.2 200.0  0     0.0000    0.3655
AK_SLK_--    ?    BHZ  ? S      0 20181130 1822    9.0684 GAU  1.20e-01 -1.00e+00  1.08e+01  5.12e+00    1.0000 >   31.2612   -3.0598    0.3369  -12.2555  -54.3822   -0.6550  105.6794 182.79   2.8 200.0  0     0.0000    0.6252
AK_CUT_--    ?    BHZ  ? S      ? 20181130 1822   11.4200 GAU  6.00e-02 -1.00e+00  1.12e+01  6.40e-01    1.0000 >   31.2512   -0.6981    1.2174  -13.5739  156.6879   -0.5740  105.7139 356.49 176.5 200.0  0     0.0000    0.6250
AV_SPCP_--   ?    BHZ  ? P      -0 20181130 1821   59.0080 GAU  2.00e-01 -1.00e+00  1.05e+01  2.56e+00    1.0000 >   19.3528   -1.2118    1.1273 -115.5968   31.4831   -1.6160  110.2595 259.71  79.7 200.0  0     0.0000    0.3871
AV_SPCR_--   ?    BHZ  ? P      0 20181130 1821   59.4000 GAU  6.00e-02 -1.00e+00  1.29e+01  6.40e-01    1.0000 >   19.8862   -1.3532    1.0977 -118.7430   24.3192   -0.9840  114.8178 256.47  76.5 200.0  0     0.0000    0.3977
AK_PWL_--    ?    HNZ  ? P      -0 20181130 1821   58.4795 GAU  1.25e-01 -1.00e+00  1.14e+01  5.12e+00    1.0000 >   20.2275   -2.6150    0.5237   90.5585  -14.6245   -0.5500  117.7633 123.97 304.0 200.0  0     0.0000    0.4045
AK_SCM_--    ?    BHZ  ? P      -0 20181130 1822    3.7284 GAU  4.00e-02 -1.00e+00  1.00e+01  8.00e-02    1.0000 >   25.1260   -2.2646    0.7408  140.6889   95.5759   -1.0500  154.3244  73.28 253.3 200.0  0     0.0000    0.5025
AK_SWD_--    ?    BHZ  ? S      -0 20181130 1822   23.7484 GAU  6.00e-02 -1.00e+00  1.14e+01  1.28e+00    1.0000 >   42.2336    0.6479    0.7917   30.4489  -99.6652   -0.0770  155.4427 166.02 346.0 200.0  0     0.0000    0.8447
AV_RDT_--    ?    BHZ  ? S      ? 20181130 1822   22.7400 GAU  8.00e-02 -1.00e+00  1.12e+01  2.56e+00    1.0000 >   42.9260   -1.0530    1.1339 -131.9721  -45.1925   -0.9300  157.7238 232.34  52.3 200.0  0     0.0000    0.8585
AK_WAT7_--   ?    BHZ  ? S      0 20181130 1822   26.2284 GAU  8.00e-02 -1.00e+00  1.11e+01  1.28e+00    1.0000 >   45.0549    0.3065    0.9451   58.7508  204.8162   -1.2320  167.1651  23.20 203.2 200.0  0     0.0000    0.9011
AK_WAT1_--   ?    HNZ  ? S      -0 20181130 1822   26.7784 GAU  6.00e-02 -1.00e+00  1.02e+01  6.40e-01    1.0000 >   46.3414   -0.4300    1.1328   73.8832  204.7152   -0.7220  173.5953  27.81 207.8 200.0  0     0.0000    0.9268
AV_RDJH_--   ?    BHZ  ? P      0 20181130 1822    6.5000 GAU  4.00e-02 -1.00e+00  1.07e+01  8.00e-02    1.0000 >   27.7150   -2.0820    0.8369 -153.7080  -42.3314   -1.4140  173.8793 237.47  57.5 200.0  0     0.0000    0.5543
AK_WAT6_--   ?    BHZ  ? S      0 20181130 1822   27.1684 GAU  3.40e-01 -1.00e+00  1.02e+01  2.56e+00    1.0000 >   47.3022   -1.0008    1.1015  116.1703  178.1736   -1.6810  176.9953  44.15 224.1 200.0  0     0.0000    0.9460
AV_RDWB_--   ?    BHZ  ? P      ? 20181130 1822    7.9600 GAU  4.00e-02 -1.00e+00  1.10e+01  8.00e-02    1.0000 >   28.8264   -1.7334    0.9864 -156.2149  -53.7095   -1.5460  182.2980 234.88  54.9 200.0  0     0.0000    0.5765
AV_RED_--    ?    BHZ  ? S      0 20181130 1822   29.3200 GAU  6.00e-02 -1.00e+00  1.18e+01  6.40e-01    1.0000 >   48.7172   -0.2642    1.0923 -152.7839  -61.4282   -1.0710  184.1192 232.30  52.3 200.0  0     0.0000    0.9743
AK_BRSE_--   ?    BHZ  ? S      -0 20181130 1822   31.9884 GAU  1.00e-01 -1.00e+00  1.00e+01  1.28e+00    1.0000 >   50.8027    0.3187    0.9127  -41.6971 -139.9566   -0.5410  194.2328 190.26  10.3 200.0  0     0.0000    1.0161
AK_BRLK_--   ?    BHZ  ? S      0 20181130 1822   31.0284 GAU  2.40e-01 -1.00e+00  1.05e+01  1.02e+01    1.0000 >   50.9309   -0.7694    1.1039  -50.9563 -138.7927   -0.4090  194.9592 193.00  13.0 200.0  0     0.0000    1.0186
AK_CNP_--    ?    BHZ  ? S      0 20181130 1822   38.5284 GAU  1.40e-01 -1.00e+00  1.22e+01  5.12e+00    1.0000 >   57.2730    0.3884    0.8588  -70.0410 -163.6652   -0.5640  223.8646 196.33  16.3 200.0  0     0.0000    1.1455
AK_KLU_--    ?    BHZ  ? S      ? 20181130 1822   38.0884 GAU  8.00e-02 -1.00e+00  1.03e+01  1.28e+00    1.0000 >   57.4980   -0.2765    1.0308  217.0370   61.6207   -1.0471  224.3897  87.33 267.3 200.0  0     0.0000    1.1500
AK_HIN_--    ?    HNZ  ? P      ? 20181130 1822   15.6045 GAU  1.00e-02 -1.00e+00  1.14e+01  4.00e-02    1.0000 >   34.8546   -0.1170    1.1610  192.6700  -62.1501   -0.6229  229.6817 119.56 299.6 200.0  0     0.0000    0.6971
AK_DIV_--    ?    BHZ  ? S      0 20181130 1822   39.0284 GAU  4.00e-02 -1.00e+00  1.23e+01  2.00e-02    1.0000 >   60.1046   -1.9432    0.8357  227.5020   21.7345   -0.9414  236.4509  97.15 277.2 200.0  0     0.0000    1.2021
AK_EYAK_--   ?    BHZ  ? P      ? 20181130 1822   19.8084 GAU  4.00e-02 -1.00e+00  3.02e+01  2.00e-02    1.0000 >   38.4080    0.5335    0.8614  233.0342  -42.7188   -0.1339  257.8456 111.35 291.4 200.0  0     0.0000    0.7682
AK_DHY_--    ?    BHZ  ? S      0 20181130 1822   42.2284 GAU  1.20e-01 -1.00e+00  1.03e+01  5.12e+00    1.0000 >    0.0000    0.0000    0.0000  132.6689  233.9657   -1.6110    0.0000   0.00 359.0  -1.0  0     0.0000    0.0000
NP_AHOU1     ?    HNZ  ? P      0 20181130 1821   49.5150 GAU  4.00e-02 -1.00e+00  1.14e+01  6.40e-01    1.0000 >    0.0000    0.0000    0.0000 -100000000000000000000.0000 -100000000000000000000.0000 -100000000000000000000.0000    0.0000   0.00 359.0  -1.0  0     0.0000    0.0000
NP_ABBK1     ?    HNZ  ? P      -0 20181130 1821   49.5250 GAU  1.00e-02 -1.00e+00  1.03e+01  5.00e-03    1.0000 >    0.0000    0.0000    0.0000 -100000000000000000000.0000 -100000000000000000000.0000 -100000000000000000000.0000    0.0000   0.00 359.0  -1.0  0     0.0000    0.0000
AK_CAST_--   ?    BHZ  ? P      -0 20181130 1822   16.0484 GAU  4.00e-02 -1.00e+00  1.01e+01  4.00e-02    1.0000 >    0.0000    0.0000    0.0000 -104.1740  271.2800   -0.6110    0.0000   0.00 359.0  -1.0  0     0.0000    0.0000
AK_KTH_--    ?    BHZ  ? P      -0 20181130 1822   16.1684 GAU  4.00e-02 -1.00e+00  1.25e+01  4.00e-02    1.0000 >    0.0000    0.0000    0.0000  -45.9401  284.8846   -1.1720    0.0000   0.00 359.0  -1.0  0     0.0000    0.0000
AK_CHUM_--   ?    BHZ  ? P      ? 20181130 1822   22.6084 GAU  4.00e-02 -1.00e+00  2.00e+01  4.00e-02    1.0000 >    0.0000    0.0000    0.0000 -113.8756  323.3981   -0.2170    0.0000   0.00 359.0  -1.0  0     0.0000    0.0000
NP040_D0     ?    HNZ  ? P      -0 20181130 1821   48.5745 GAU  1.00e-02 -1.00e+00  1.11e+01  5.00e-03    1.0000 >    0.0000    0.0000    0.0000 -100000000000000000000.0000 -100000000000000000000.0000 -100000000000000000000.0000    0.0000   0.00 359.0  -1.0  0     0.0000    0.0000
END_PHASE
END_NLLOC

