NLLOC "./loc/alaska.20181130.182011.grid0" "LOCATED" "Location completed."
PUBLIC_ID None
SIGNATURE "NonLinLoc - ALomax Scientific   obs:./obs/2018-11-30-mww70-southern-alaska.obs   NLLoc:v7.00.13(17Jan2022)   run:13May2022 09h14m11"
COMMENT "2018-11-30 Mww7.0 Southern Alaska (NonLinLoc Sample Location)"
GRID  201 201 106  -100 -100 -5  1 1 1 PROB_DENSITY
SEARCH OCTREE nInitial 400 nEvaluated 20008 smallestNodeSide 0.312500/0.312500/0.410156 oct_tree_integral 1.323182e+02 scatter_volume 1.323182e+02
HYPOCENTER  x -42.0312 y 62.3438 z -3.97461  OT 1.36616  ix -1 iy -1 iz -1 MAXIMUM_LIKELIHOOD
GEOGRAPHIC  OT 2018 11 30  18 20 1.366163  Lat 61.557250 Long -150.790755 Depth -3.974609
QUALITY  Pmax 1.09059e+23 MFmin 13.464 MFmax 14.4929 RMS 0.940463 Nphs 16 Gap 56.9178 Dist 55.9413 Mamp -9.90 0 Mdur -9.90 0
VPVSRATIO  VpVsRatio -1  Npair 0  Diff -2e+30
STATISTICS  ExpectX -34.976844 Y 62.773154 Z 11.335852  CovXX 74.0384 XY -16.8617 XZ 20.2964 YY 46.1458 YZ 46.8431 ZZ 403.399 EllAz1  204.958 Dip1  7.80754 Len1  10.4969 Az2  294.925 Dip2  -0.238043 Len2  17.0101 Len3  3.806204e+01
STAT_GEOG  ExpectLat 61.561803 Long -150.658128 Depth 11.335852
TRANSFORM  LAMBERT RefEllipsoid Clarke-1880  LatOrig 61.000000  LongOrig -150.000000  FirstStdParal 60.000000  SecondStdParal 62.000000  RotCW 0.000000
QML_OriginQuality  assocPhCt 23  usedPhCt 16  assocStaCt -1  usedStaCt 16  depthPhCt -1  stdErr 0.940463  azGap 56.9178  secAzGap 103.063  gtLevel -  minDist 55.9413 maxDist 265.675 medDist 163.789
QML_OriginUncertainty  horUnc -1  minHorUnc 9.37463  maxHorUnc 13.731  azMaxHorUnc 115.203
QML_ConfidenceEllipsoid  semiMajorAxisLength 38.062  semiMinorAxisLength 10.4969  semiIntermediateAxisLength 17.0101  majorAxisPlunge 0  majorAxisAzimuth 0  majorAxisRotation 161.998
FOCALMECH  Hyp  61.557250 -150.790755 -3.974609 Mech  0 0 0 mf  0 nObs -1
DIFFERENTIAL  Nhyp 0
PHASE ID Ins Cmp On Pha  FM Date     HrMn   Sec     Err  ErrMag    Coda      Amp       Per       PriorWt  >   TTpred    Res       Weight    StaLoc(X  Y         Z)        SDist    SAzim  RAz  RDip RQual    Tcorr       TTerr
AV_STLK_--   ?    BHZ  ? P      ? 20181130 1820   11.9800 GAU  6.00e-02 -1.00e+00  1.41e+01  2.00e-02    1.0000 >   10.5804    0.0334    2.6654  -97.7049   56.8786   -0.9450   55.9413 264.39 264.4  85.9  9     0.0000   -1.0000
AK_SKN_--    ?    BHZ  ? P      0 20181130 1820   12.9284 GAU  4.00e-02 -1.00e+00  1.62e+01  2.00e-02    1.0000 >   11.5825   -0.0203    2.6737  -80.3077  110.1399   -0.5810   61.2336 321.31 321.3  85.9  9     0.0000   -1.0000
AV_SPBL_--   ?    BHZ  ? P      0 20181130 1820   12.7800 GAU  4.00e-02 -1.00e+00  1.40e+01  2.00e-02    1.0000 >   11.7599   -0.3461    1.8119 -101.2807   43.4033   -0.9270   62.2033 252.27 252.3  86.2  9     0.0000   -1.0000
AV_SPCG_--   ?    BHZ  ? P      ? 20181130 1820   15.2000 GAU  6.00e-02 -1.00e+00  1.12e+01  2.00e-02    1.0000 >   13.6263    0.2075    2.1887 -108.4188   34.1306   -1.3290   72.1339 246.98 247.0  83.6  9     0.0000   -1.0000
AV_SPCR_--   ?    BHZ  ? P      0 20181130 1820   17.0600 GAU  6.00e-02 -1.00e+00  1.21e+01  2.00e-02    1.0000 >   15.7452   -0.0514    2.4753 -118.7430   24.3192   -0.9840   85.6187 243.63 243.6  50.2 10     0.0000   -1.0000
AK_CUT_--    ?    BHZ  ? P      -0 20181130 1820   16.1400 GAU  6.00e-02 -1.00e+00  1.23e+01  2.00e-02    1.0000 >   17.5554   -2.7816    0.3955  -13.5739  156.6879   -0.5740   98.5426  16.79  16.8  47.7 10     0.0000   -1.0000
AK_SLK_--    ?    BHZ  ? P      0 20181130 1820   14.5884 GAU  4.00e-02 -1.00e+00  1.52e+01  2.00e-02    1.0000 >   20.5388   -7.3165    0.0215  -12.2555  -54.3822   -0.6550  120.4638 165.69 165.7  45.7 10     0.0000   -1.0000
AV_RDJH_--   ?    BHZ  ? P      0 20181130 1820   30.6600 GAU  1.20e-01 -1.00e+00  1.10e+01  5.12e+00    1.0000 >   24.9416    4.3523    0.2179 -153.7080  -42.3314   -1.4140  153.0640 226.85 226.9  43.5 10     0.0000   -1.0000
AK_WAT7_--   ?    BHZ  ? P      -0 20181130 1820   30.6484 GAU  8.00e-02 -1.00e+00  1.29e+01  2.56e+00    1.0000 >   27.7027    1.5795    0.1579   58.7508  204.8162   -1.2320  174.5149  35.27  35.3  43.5 10     0.0000   -1.0000
AK_SWD_--    ?    BHZ  ? P      0 20181130 1820   26.9484 GAU  8.00e-02 -1.00e+00  1.15e+01  3.20e-01    1.0000 >   27.9312   -2.3490    0.4711   30.4489  -99.6652   -0.0770  177.4831 155.90 155.9  43.5 10     0.0000   -1.0000
AK_SCM_--    ?    BHZ  ? P      0 20181130 1820   25.8884 GAU  8.00e-02 -1.00e+00  1.18e+01  6.40e-01    1.0000 >   29.1329   -4.6106    0.1711  140.6889   95.5759   -1.0500  185.7176  79.69  79.7  43.5 10     0.0000   -1.0000
AK_WAT6_--   ?    BHZ  ? P      -0 20181130 1820   32.1084 GAU  4.00e-02 -1.00e+00  1.07e+01  2.00e-02    1.0000 >   30.5634    0.1788    1.7428  116.1703  178.1736   -1.6810  196.0722  53.79  53.8  43.5 10     0.0000   -1.0000
AK_BRSE_--   ?    BHZ  ? P      0 20181130 1820   36.3084 GAU  4.00e-02 -1.00e+00  1.12e+01  2.00e-02    1.0000 >   31.2173    3.7250    0.2259  -41.6971 -139.9566   -0.5410  202.3006 179.91 179.9  43.5 10     0.0000   -1.0000
AK_GLI_--    ?    HNZ  ? P      -0 20181130 1820   28.3395 GAU  1.50e-02 -1.00e+00  1.07e+01  8.00e-02    1.0000 >   32.5115   -5.5382    0.1747  157.6640   -9.9635   -0.4300  212.3829 109.90 109.9  43.5 10     0.0000   -1.0000
AK_TRF_--    ?    BHZ  ? P      0 20181130 1820   40.9484 GAU  6.00e-02 -1.00e+00  1.02e+01  4.00e-02    1.0000 >   32.7139    6.8684    0.0036  -14.4406  273.1461   -1.7099  212.6003   7.46   7.5  43.5 10     0.0000   -1.0000
AK_HIN_--    ?    HNZ  ? P      0 20181130 1820   39.1995 GAU  2.00e-02 -1.00e+00  1.19e+01  5.00e-03    1.0000 >   39.3962   -1.5629    0.6032  192.6700  -62.1501   -0.6229  265.6754 117.94 117.9  42.2 10     0.0000   -1.0000
NP_AMJG1     ?    HNZ  ? P      0 20181130 1820   12.6850 GAU  2.00e-02 -1.00e+00  1.32e+01  8.00e-02    1.0000 >    0.0000    0.0000    0.0000 -100000000000000000000.0000 -100000000000000000000.0000 -100000000000000000000.0000    0.0000   0.00 359.0  -1.0  0     0.0000   -1.0000
AK_CHUM_--   ?    BHZ  ? P      -0 20181130 1820   44.8884 GAU  4.00e-02 -1.00e+00  1.29e+01  2.00e-02    1.0000 >    0.0000    0.0000    0.0000 -113.8756  323.3981   -0.2170    0.0000   0.00 359.0  -1.0  0     0.0000   -1.0000
AK_KTH_--    ?    BHZ  ? P      0 20181130 1820   38.6484 GAU  1.20e-01 -1.00e+00  1.02e+01  5.12e+00    1.0000 >    0.0000    0.0000    0.0000  -45.9401  284.8846   -1.1720    0.0000   0.00 359.0  -1.0  0     0.0000   -1.0000
AK_CAST_--   ?    BHZ  ? P      ? 20181130 1820   39.1484 GAU  1.80e-01 -1.00e+00  1.01e+01  1.60e-01    1.0000 >    0.0000    0.0000    0.0000 -104.1740  271.2800   -0.6110    0.0000   0.00 359.0  -1.0  0     0.0000   -1.0000
NP0521       ?    HNZ  ? S      -0 20181130 1820   49.6350 GAU  4.00e-02 -1.00e+00  1.03e+01  5.00e-03    1.0000 >    0.0000    0.0000    0.0000 -100000000000000000000.0000 -100000000000000000000.0000 -100000000000000000000.0000    0.0000   0.00 359.0  -1.0  0     0.0000   -1.0000
AK_RAG_--    ?    BHZ  ? P      0 20181130 1820   51.8284 GAU  4.00e-02 -1.00e+00  1.39e+01  2.00e-02    1.0000 >    0.0000    0.0000    0.0000  293.2037  -56.4555   -0.7520    0.0000   0.00 359.0  -1.0  0     0.0000   -1.0000
AK_MCK_--    ?    BHZ  ? P      -0 20181130 1820   42.7684 GAU  1.20e-01 -1.00e+00  1.16e+01  2.56e+00    1.0000 >    0.0000    0.0000    0.0000   52.5517  304.9713   -0.6180    0.0000   0.00 359.0  -1.0  0     0.0000   -1.0000
END_PHASE
SCATTER Nsamples 4998
 -38.1279   62.5113   -4.5205  5.42e+01
 -38.3768   62.9428   -4.5491  5.42e+01
 -29.1973   64.4708   25.0287  5.21e+01
 -29.0445   64.8292   25.5106  5.21e+01
 -29.4119   64.3501   28.6323  5.21e+01
 -29.3279   64.5921   28.8676  5.21e+01
 -25.5416   57.3415   -4.6809  5.42e+01
 -25.2247   57.1807   -4.7094  5.42e+01
 -30.1468   60.7877   -4.2025  5.42e+01
 -30.4612   60.8683   -4.7651  5.42e+01
 -29.1111   61.4484   -3.8674  5.42e+01
 -29.4083   60.1502    0.5329  5.21e+01
 -63.2223   91.5035   18.9655  5.00e+01
 -63.0165   90.8545   18.1741  5.00e+01
 -39.7490   73.1696   74.8850  5.00e+01
 -35.9680   73.6473    1.0699  4.79e+01
 -36.5694   74.7449   -4.7232  4.79e+01
 -26.1418   64.1367   24.4785  5.21e+01
 -25.2229   63.7901   23.0537  5.21e+01
 -27.1406   62.1304   21.4220  5.00e+01
 -27.4666   60.7892   21.6747  5.00e+01
 -39.4189   63.0279   -2.6543  5.42e+01
 -42.4264   64.3189   -4.0485  5.42e+01
 -47.0939   64.8803    4.3127  5.21e+01
 -46.8670   64.0836    4.3820  5.21e+01
 -63.6139   90.8065   23.9740  5.00e+01
 -63.3382   92.4928   21.6062  5.00e+01
 -41.3067   46.5688   19.4114  5.00e+01
 -38.4337   45.1404   -3.0158  5.21e+01
 -27.2651   65.0855   33.8821  5.21e+01
 -48.1646   65.8040    3.2276  5.21e+01
 -47.6699   65.0082    4.6956  5.21e+01
 -36.2600   48.5479   -4.9790  5.21e+01
 -37.0615   47.6709   -4.5036  5.21e+01
 -29.0355   64.1559   12.5288  5.21e+01
 -28.7884   64.3712   12.6002  5.21e+01
 -45.0359   63.8409    0.6811  5.41e+01
 -45.0106   63.8619   -0.0520  5.41e+01
 -30.8322   69.6621   20.3968  5.00e+01
 -28.9719   65.4260   10.6064  5.21e+01
 -29.9559   65.6609   11.2099  5.21e+01
 -25.4990   65.0661   18.2324  5.21e+01
 -25.8683   65.1225   18.0714  5.21e+01
 -22.9503   62.6749   21.4674  5.00e+01
 -24.5834   64.2900   21.8065  5.00e+01
 -44.5476   63.8599   -3.7726  5.41e+01
 -44.8151   64.3628   -3.9158  5.41e+01
 -45.7468   63.7053   -1.7182  5.41e+01
 -45.6945   63.2136   -1.6877  5.41e+01
 -36.4859   58.2421   -4.9554  5.41e+01
 -32.9458   62.2511   -4.6899  5.41e+01
 -32.6447   61.9280   -4.8359  5.41e+01
 -26.8404   64.9934   -3.8377  5.20e+01
 -27.1024   63.9343   -4.7281  5.20e+01
 -26.1571   56.4733   22.5814  5.00e+01
 -36.1934   62.0794   -4.0191  5.41e+01
 -25.9224   65.5944   15.4926  5.20e+01
 -33.3954   69.5774   51.7554  5.20e+01
 -44.2464   64.9610   -1.9819  5.41e+01
 -26.0234   53.6127   25.9801  5.00e+01
 -26.9229   54.3443   25.6317  5.00e+01
 -42.5764   64.3623   -1.3382  5.41e+01
 -26.5973   66.7386   28.9453  5.20e+01
 -26.6033   67.3224   27.8167  5.20e+01
 -24.4773   62.3232    3.8058  5.20e+01
 -24.1805   62.4513    3.9125  5.20e+01
 -30.7394   62.5417   -4.7745  5.41e+01
 -30.6826   63.1149   -4.6564  5.41e+01
 -22.9836   54.8990   26.6701  4.79e+01
 -22.1426   50.3320   26.3236  4.79e+01
 -38.1989   59.8700   -3.9440  5.41e+01
 -38.6747   59.9224   -4.0012  5.41e+01
 -25.2173   64.9948   27.4069  5.20e+01
 -26.0704   64.4069   26.2125  5.20e+01
 -34.3153   61.5335   -4.0374  5.41e+01
 -28.7070   62.5228   -4.3211  5.41e+01
 -42.0589   63.3780   -1.3909  5.41e+01
 -60.0400   92.0060   20.8048  4.99e+01
 -61.3430   91.8792   21.1458  4.99e+01
 -33.7131   69.0842   54.3023  5.20e+01
 -33.6586   68.9317   54.5745  5.20e+01
 -26.2798   60.8301    0.9830  5.20e+01
   2.7347   59.3067   12.9974  4.58e+01
 -24.7911   62.5574   25.8818  4.99e+01
 -23.9285   62.8272   25.6763  4.99e+01
 -36.3204   69.9266   55.2304  4.99e+01
 -36.1850   67.9008   55.4344  4.99e+01
 -28.5077   61.9780   -3.4170  5.41e+01
 -27.2391   56.1393    7.4565  5.20e+01
 -38.9967   72.7121   80.2515  4.99e+01
 -39.7443   74.3011   77.9966  4.99e+01
 -26.9611   58.8563   -4.7079  5.41e+01
 -26.8878   59.3548   -4.6555  5.41e+01
 -42.0221   62.4291   -3.8576  5.62e+01
 -41.9351   62.2501   -4.0749  5.62e+01
 -44.5482   48.5514   19.9459  4.99e+01
 -44.5799   48.8847   19.1295  4.99e+01
 -45.6636   64.6205   -1.6551  5.41e+01
 -39.1127   46.1943   -4.4476  5.20e+01
 -39.9160   45.0116   -3.6159  5.20e+01
 -42.2302   48.7383   17.0321  4.99e+01
 -41.1408   47.5228   17.0335  4.99e+01
 -30.3916   66.0311   40.6915  5.20e+01
 -30.1228   66.1792   39.8601  5.20e+01
 -43.1298   62.0886   -1.2101  5.41e+01
 -43.5218   61.9554   -1.3778  5.41e+01
 -27.3334   57.8035    6.6867  5.20e+01
 -26.7489   57.7177    7.3893  5.20e+01
 -41.4717   62.0954   -4.5311  5.61e+01
 -36.3088   59.2219   -3.9628  5.41e+01
 -36.8488   58.8978   -3.6744  5.41e+01
 -33.7963   64.8347   -0.2616  5.20e+01
 -27.9912   62.5247    9.4698  5.20e+01
 -32.6835   63.2430    4.8930  5.20e+01
 -41.5799   62.3131   -4.0349  5.61e+01
 -41.6756   62.1546   -4.3922  5.61e+01
 -41.6547   62.0876   -4.3397  5.61e+01
 -41.7000   61.9364   -4.0098  5.61e+01
 -26.9963   55.6699    0.1373  5.20e+01
 -26.8198   55.0915    0.4004  5.20e+01
 -45.5706   64.7093   -1.7556  5.41e+01
 -28.5163   63.6233    5.0345  5.20e+01
 -28.9504   66.8052   16.5624  5.20e+01
 -26.7396   55.8722    3.8151  5.20e+01
 -27.0736   55.2071    3.5487  5.20e+01
 -28.1478   67.1149   18.3296  5.20e+01
 -29.5975   64.7811   32.0693  5.20e+01
 -29.6166   64.2107   31.3023  5.20e+01
 -28.1004   59.9615   -4.7422  5.40e+01
 -27.8012   59.4353   -4.3450  5.40e+01
 -28.4768   57.0153   13.3753  5.20e+01
 -28.3071   56.5804   14.3356  5.20e+01
 -42.2307   62.2616   -3.8871  5.61e+01
 -42.2296   62.4365   -4.1789  5.61e+01
 -27.6310   61.6966   -3.8718  5.40e+01
 -31.7977   66.6432   29.6453  5.20e+01
 -31.4443   66.6134   30.8965  5.20e+01
 -45.0539   66.0598    3.7115  5.20e+01
 -45.2124   66.0478    3.4144  5.20e+01
 -41.3491   62.1509   -3.8454  5.61e+01
 -41.4349   61.9868   -4.1473  5.61e+01
 -45.3302   63.6269   -4.0817  5.40e+01
 -45.4999   63.5957   -3.4131  5.40e+01
 -25.6196   60.9880   30.6235  4.99e+01
 -34.5887   63.9782    9.6998  5.20e+01
 -32.5978   68.0523   50.1495  5.20e+01
 -41.0500   61.6950   -4.9125  5.61e+01
 -41.1020   61.7868   -4.8690  5.61e+01
 -27.5836   58.0088    2.8050  5.20e+01
 -26.7772   55.9796   10.0704  5.20e+01
 -27.1725   55.0963   10.7430  5.20e+01
 -40.9760   62.0640   -4.2106  5.61e+01
 -26.4279   66.7255   25.4157  5.20e+01
 -31.2149   63.0960    5.0490  5.20e+01
 -31.0782   62.7239    5.5504  5.20e+01
 -41.6007   62.4769   -4.4755  5.61e+01
 -42.1790   62.1692   -4.0911  5.61e+01
 -42.4439   50.0915   14.6707  4.99e+01
 -42.3597   50.4659   11.9182  4.99e+01
 -40.6643   61.6178   -4.7519  5.61e+01
 -41.3610   62.0531   -4.9833  5.61e+01
 -41.4269   62.0474   -4.8452  5.61e+01
 -34.3368   63.4174    0.0424  5.20e+01
 -40.6195   59.6878   -4.5111  5.40e+01
 -40.2650   59.4368   -4.6779  5.40e+01
 -28.5958   54.1446   27.9418  4.99e+01
 -28.2821   52.7822   29.6511  4.99e+01
 -29.4393   64.4068    8.4250  5.19e+01
 -27.8087   66.1975    2.4474  5.19e+01
 -28.2365   65.7313    1.6152  5.19e+01
 -41.2062   61.8824   -4.9116  5.61e+01
 -43.4405   63.8383   -0.2602  5.40e+01
 -25.5967   58.6987   -4.9488  5.40e+01
 -29.2653   68.7226   48.1309  5.19e+01
 -29.6909   68.4949   48.2385  5.19e+01
 -26.0566   65.3279   12.1880  5.19e+01
 -41.9725   62.4066   -4.5204  5.61e+01
 -41.9033   62.3476   -4.2792  5.61e+01
 -25.7608   60.0551   -4.4914  5.40e+01
 -26.1981   60.2831   -4.2208  5.40e+01
 -42.4429   62.1898   -3.4313  5.61e+01
 -41.0115   61.8106   -4.5267  5.61e+01
 -41.2298   61.7838   -4.3142  5.61e+01
 -30.9288   62.0204   -3.5969  5.40e+01
 -33.4543   69.8430   57.1608  5.19e+01
 -28.2764   54.6272   21.7143  4.99e+01
 -41.9224   62.3860   -3.4531  5.61e+01
 -31.3533   63.9267    1.9048  5.19e+01
 -27.7830   64.9205   -2.5404  5.19e+01
 -27.8686   64.8705   -2.9227  5.19e+01
 -42.4491   62.7400   -3.4771  5.61e+01
 -33.3948   60.7229   -4.0545  5.40e+01
 -33.4273   60.9888   -3.5432  5.40e+01
 -31.8969   66.2519   46.6777  5.19e+01
 -41.3639   61.5644   -4.4392  5.61e+01
 -41.4582   61.8213   -4.2494  5.61e+01
 -43.0314   63.9160   -4.3058  5.40e+01
 -42.8292   64.0081   -4.2263  5.40e+01
 -23.4480   54.7921    5.0229  4.98e+01
 -23.4512   53.0535    5.2475  4.98e+01
 -25.5549   56.5472   -4.7398  5.40e+01
 -25.2832   56.3961   -4.3997  5.40e+01
 -29.7395   68.6602   31.2687  5.19e+01
 -28.8392   68.1632   31.3376  5.19e+01
 -42.2355   62.6847   -4.1539  5.61e+01
 -42.4011   62.7999   -4.0746  5.61e+01
 -42.6557   62.7863   -3.5575  5.61e+01
 -30.4981   61.4210    3.9889  5.19e+01
 -42.0583   62.0531   -4.4666  5.61e+01
 -41.2719   61.8327   -4.9189  5.61e+01
 -41.5079   61.7668   -4.8975  5.61e+01
 -39.6955   49.4955   -3.2629  5.19e+01
 -41.3746   62.2287   -4.1794  5.61e+01
 -34.0156   73.1989   66.2458  4.98e+01
 -41.4727   62.4289   -4.4986  5.61e+01
 -40.0967   63.4253   -4.2787  5.40e+01
 -28.4529   60.9246   -3.3960  5.40e+01
 -28.2505   60.6493   -3.6446  5.40e+01
 -28.5377   62.7283   11.7142  5.19e+01
 -37.6070   60.8722   -3.0500  5.40e+01
 -24.9422   63.6487   11.1583  5.19e+01
 -24.1502   63.2506   10.9195  5.19e+01
 -27.1554   65.7728   35.1892  5.19e+01
 -27.2965   59.0716    2.2982  5.19e+01
 -26.8556   59.8361    2.1379  5.19e+01
 -41.1151   45.8505   24.2767  4.98e+01
 -40.2959   46.1542   21.7297  4.98e+01
 -31.1327   65.9473   17.7982  5.19e+01
 -31.0725   65.9391   16.9915  5.19e+01
 -41.8025   62.0218   -4.7313  5.61e+01
 -16.6665   46.6172   -2.8285  4.78e+01
 -41.9865   64.1116   -2.1671  5.40e+01
 -41.6504   60.2012   -3.4184  5.40e+01
 -28.6848   60.6214    2.9089  5.19e+01
 -40.4733   61.5906   -4.7411  5.61e+01
 -33.1456   68.2357   42.6146  5.19e+01
 -41.9802   62.5725   -3.8025  5.61e+01
 -42.0672   62.7060   -3.8620  5.61e+01
 -40.7575   61.7989   -4.2244  5.61e+01
 -27.6589   56.4273   10.4580  5.19e+01
 -28.6649   56.7865   10.9625  5.19e+01
 -42.6121   62.5395   -3.2157  5.61e+01
 -40.9622   61.8930   -4.1175  5.61e+01
 -41.1010   62.0724   -3.9091  5.61e+01
 -45.7358   63.2417   -3.1835  5.40e+01
 -46.1708   63.4883   -3.0876  5.40e+01
 -30.5073   61.5297   -3.7676  5.40e+01
 -40.7142   62.0420   -4.6814  5.61e+01
 -23.0864   49.5629   27.5935  4.77e+01
 -45.6878   64.4307    0.2797  5.40e+01
 -26.2265   62.0057   10.5319  5.19e+01
 -26.5785   65.8521    0.5401  5.19e+01
 -27.3629   65.2779    0.6818  5.19e+01
 -39.7257   48.4828   -0.6626  5.19e+01
 -39.1958   47.5032   -1.0142  5.19e+01
 -26.4198   63.0637   27.4532  5.19e+01
 -26.9302   63.3465   27.5538  5.19e+01
 -38.4534   58.8486   -4.6432  5.40e+01
 -44.1994   46.3739   15.5562  4.98e+01
 -43.2029   45.0855   17.8097  4.98e+01
 -34.7958   55.6465   55.2929  4.98e+01
 -30.8454   69.6365   47.7588  5.19e+01
 -42.7029   62.1992   -3.6856  5.60e+01
 -59.9872   68.4190   10.3270  4.98e+01
 -29.4013   64.7322   -0.0868  5.19e+01
 -40.8205   62.1670   -4.5739  5.60e+01
 -24.2039   61.8576    7.0184  5.19e+01
 -30.1935   62.7474   -3.8120  5.40e+01
 -30.1501   62.6124   -3.9061  5.40e+01
 -40.5862   61.3853   -4.8889  5.60e+01
 -40.6637   61.4722   -4.7105  5.60e+01
 -40.9222   61.4061   -4.6851  5.60e+01
 -43.0872   62.6026   -2.9827  5.60e+01
 -32.9818   67.6302   46.9454  5.19e+01
 -32.9140   67.5935   46.2067  5.19e+01
 -42.7118   62.5371   -4.1458  5.60e+01
 -34.4683   56.3735   53.4577  4.98e+01
 -26.6416   63.3343   23.9818  5.19e+01
 -27.2361   63.6775   23.5556  5.19e+01
   2.4610   54.3438    4.8861  4.56e+01
 -41.7743   62.4022   -3.6457  5.60e+01
 -41.9764   62.7724   -3.3665  5.60e+01
 -42.5154   62.1920   -3.9656  5.60e+01
 -42.6366   62.4532   -4.1332  5.60e+01
 -39.9945   45.5241   21.9394  4.98e+01
 -41.5997   61.8714   -4.3478  5.60e+01
 -42.2098   62.4030   -4.4769  5.60e+01
 -42.4181   62.4700   -4.5639  5.60e+01
 -36.2276   57.9031   -2.8858  5.19e+01
 -42.2124   61.8954   -4.1303  5.60e+01
 -42.1941   62.6666   -3.3514  5.60e+01
 -26.4877   67.3284   22.8217  5.19e+01
 -41.4530   61.6822   -4.1432  5.60e+01
 -39.0935   62.4972   -0.6440  5.19e+01
 -40.0574   64.7716   -2.5843  5.19e+01
 -43.6345   61.2889   -1.9516  5.39e+01
 -30.4288   67.1973   20.6809  5.19e+01
 -43.0810   62.6550   -3.7634  5.60e+01
 -42.8446   62.7363   -3.7089  5.60e+01
 -31.6557   69.8434   57.0226  5.19e+01
 -41.8401   62.2824   -4.7791  5.60e+01
 -39.7326   49.4689   12.7824  4.98e+01
 -30.4339   69.9638   51.0004  5.19e+01
 -40.2993   61.4137   -4.9991  5.60e+01
 -40.0977   61.4634   -4.9318  5.60e+01
 -45.2911   62.0647   -4.1275  5.19e+01
 -45.3810   61.8347   -4.7875  5.19e+01
 -41.9359   61.9321   -3.5910  5.60e+01
 -32.2599   63.0404    7.1510  5.19e+01
 -41.5065   62.2780   -4.7680  5.60e+01
 -40.9833   61.5977   -4.0869  5.60e+01
 -45.3841   62.6694   -0.9825  5.39e+01
 -31.9890   68.2006   55.0739  5.19e+01
