NLLOC "./loc/alaska.20181130.173543.grid0" "LOCATED" "Location completed."
PUBLIC_ID None
SIGNATURE "NonLinLoc - ALomax Scientific   obs:./obs/2018-11-30-mww70-southern-alaska.obs   NLLoc:v7.00.13(17Jan2022)   run:13May2022 09h14m10"
COMMENT "2018-11-30 Mww7.0 Southern Alaska (NonLinLoc Sample Location)"
GRID  201 201 106  -100 -100 -5  1 1 1 PROB_DENSITY
SEARCH OCTREE nInitial 400 nEvaluated 20000 smallestNodeSide 0.156250/0.156250/0.205078 oct_tree_integral 1.017775e+02 scatter_volume 1.010403e+02
HYPOCENTER  x -0.546875 y 28.9844 z -4.89746  OT 35.1971  ix -1 iy -1 iz -1 MAXIMUM_LIKELIHOOD
GEOGRAPHIC  OT 2018 11 30  17 35 35.197108  Lat 61.260139 Long -150.010191 Depth -4.897461
QUALITY  Pmax 5.39339e+70 MFmin 22.9885 MFmax 24.5224 RMS 0.946995 Nphs 30 Gap 45.5132 Dist 24.0194 Mamp -9.90 0 Mdur -9.90 0
VPVSRATIO  VpVsRatio -1  Npair 0  Diff -2e+30
STATISTICS  ExpectX -5.322946 Y 27.328538 Z 12.649258  CovXX 14.8889 XY 2.44739 XZ -43.6368 YY 7.64555 YZ -16.773 ZZ 177.465 EllAz1  60.2423 Dip1  14.8325 Len1  3.24176 Az2  330.832 Dip2  -2.22477 Len2  4.98006 Len3  2.589764e+01
STAT_GEOG  ExpectLat 61.245243 Long -150.099151 Depth 12.649258
TRANSFORM  LAMBERT RefEllipsoid Clarke-1880  LatOrig 61.000000  LongOrig -150.000000  FirstStdParal 60.000000  SecondStdParal 62.000000  RotCW 0.000000
QML_OriginQuality  assocPhCt 34  usedPhCt 30  assocStaCt -1  usedStaCt 30  depthPhCt -1  stdErr 0.946995  azGap 45.5132  secAzGap 72.416  gtLevel -  minDist 24.0194 maxDist 244.339 medDist 139.64
QML_OriginUncertainty  horUnc -1  minHorUnc 3.98261  maxHorUnc 5.99734  azMaxHorUnc 72.9754
QML_ConfidenceEllipsoid  semiMajorAxisLength 25.8976  semiMinorAxisLength 3.24176  semiIntermediateAxisLength 4.98006  majorAxisPlunge 0  majorAxisAzimuth 0  majorAxisRotation 16.964
FOCALMECH  Hyp  61.260139 -150.010191 -4.897461 Mech  0 0 0 mf  0 nObs -1
DIFFERENTIAL  Nhyp 0
PHASE ID Ins Cmp On Pha  FM Date     HrMn   Sec     Err  ErrMag    Coda      Amp       Per       PriorWt  >   TTpred    Res       Weight    StaLoc(X  Y         Z)        SDist    SAzim  RAz  RDip RQual    Tcorr       TTerr
AK_RC01_--   ?    BHZ  ? P      0 20181130 1735   44.6200 GAU  8.00e-02 -1.00e+00  1.17e+01  2.00e-02    1.0000 >    4.6305    4.7924    0.0476   14.0814    9.9332   -0.3900   24.0194 142.48 322.5 200.0  0     0.0000   -1.0000
AT_PMR_--    ?    BHZ  ? P      0 20181130 1735   49.9200 GAU  8.00e-02 -1.00e+00  1.03e+01  3.20e-01    1.0000 >   11.3294    3.3935    0.3058   46.1491   66.2909   -0.1000   59.7686  51.38 231.4 200.0  0     0.0000   -1.0000
AK_GHO_--    ?    BHZ  ? P      0 20181130 1735   50.2284 GAU  2.20e-01 -1.00e+00  1.01e+01  5.12e+00    1.0000 >   15.1937   -0.1624    1.5414   56.6953   86.3740   -1.0320   81.0570  44.93 224.9 200.0  0     0.0000   -1.0000
AK_CAPN_--   ?    BHZ  ? S      0 20181130 1736    4.1684 GAU  1.00e-01 -1.00e+00  1.11e+01  1.28e+00    1.0000 >   25.7220    3.2493    0.3414  -62.8803  -25.2610   -0.0470   82.6318 228.97  49.0 200.0  0     0.0000   -1.0000
AK_SLK_--    ?    BHZ  ? S      -0 20181130 1736    2.8284 GAU  4.00e-02 -1.00e+00  1.08e+01  2.00e-02    1.0000 >   26.2236    1.4077    0.5557  -12.2555  -54.3822   -0.6550   84.1847 187.99   8.0 200.0  0     0.0000   -1.0000
AK_KNK_--    ?    BHZ  ? P      -0 20181130 1735   50.7884 GAU  1.20e-01 -1.00e+00  1.20e+01  2.56e+00    1.0000 >   15.6904   -0.0991    1.6104   82.3084   46.9963   -0.5980   84.7905  77.74 257.7 200.0  0     0.0000   -1.0000
AK_PWL_--    ?    HNZ  ? P      0 20181130 1735   53.2345 GAU  7.50e-02 -1.00e+00  1.01e+01  6.40e-01    1.0000 >   18.0116    0.0258    1.6051   90.5585  -14.6245   -0.5500  101.0046 115.58 295.6 200.0  0     0.0000   -1.0000
AV_STLK_--   ?    BHZ  ? P      -0 20181130 1735   53.6200 GAU  4.00e-02 -1.00e+00  4.12e+01  2.00e-02    1.0000 >   18.0728    0.3501    1.4271  -97.7049   56.8786   -0.9450  101.0830 286.02 106.0 200.0  0     0.0000   -1.0000
AV_SPBL_--   ?    BHZ  ? P      -0 20181130 1735   53.8200 GAU  1.00e-01 -1.00e+00  1.22e+01  3.20e-01    1.0000 >   18.1637    0.4592    1.3063 -101.2807   43.4033   -0.9270  101.7606 278.15  98.1 200.0  0     0.0000   -1.0000
AV_SPCG_--   ?    BHZ  ? P      -0 20181130 1735   54.3799 GAU  4.00e-02 -1.00e+00  1.89e+01  2.00e-02    1.0000 >   19.0629    0.1199    1.5725 -108.4188   34.1306   -1.3290  107.9947 272.73  92.7 200.0  0     0.0000   -1.0000
AK_SAW_--    ?    BHZ  ? S      -0 20181130 1736    7.7084 GAU  4.00e-02 -1.00e+00  1.02e+01  2.00e-02    1.0000 >   31.9293    0.5820    1.1412   87.9646   91.0412   -0.7810  108.0987  54.97 235.0 200.0  0     0.0000   -1.0000
AK_SKN_--    ?    BHZ  ? P      -0 20181130 1735   54.7884 GAU  4.00e-02 -1.00e+00  1.22e+01  2.00e-02    1.0000 >   19.7486   -0.1573    1.5249  -80.3077  110.1399   -0.5810  113.7893 315.50 135.5 200.0  0     0.0000   -1.0000
AV_SPCP_--   ?    BHZ  ? P      -0 20181130 1735   55.4080 GAU  6.00e-02 -1.00e+00  1.03e+01  2.00e-02    1.0000 >   20.0579    0.1529    1.5395 -115.5968   31.4831   -1.6160  115.0770 271.24  91.2 200.0  0     0.0000   -1.0000
AV_SPCR_--   ?    BHZ  ? P      -0 20181130 1735   55.4600 GAU  8.00e-02 -1.00e+00  1.29e+01  3.20e-01    1.0000 >   20.4092   -0.1463    1.5131 -118.7430   24.3192   -0.9840  118.2881 267.74  87.7 200.0  0     0.0000   -1.0000
AK_CUT_--    ?    BHZ  ? S      -0 20181130 1736   11.6600 GAU  1.20e-01 -1.00e+00  1.09e+01  2.56e+00    1.0000 >   36.4831   -0.0202    1.2440  -13.5739  156.6879   -0.5740  128.3663 354.18 174.2 200.0  0     0.0000   -1.0000
AV_RDT_--    ?    BHZ  ? P      -0 20181130 1735   59.7200 GAU  8.00e-02 -1.00e+00  1.03e+01  2.00e-02    1.0000 >   24.7228   -0.1999    1.4063 -131.9721  -45.1925   -0.9300  150.9132 240.56  60.6 200.0  0     0.0000   -1.0000
AK_SCM_--    ?    BHZ  ? S      -0 20181130 1736   18.2084 GAU  1.00e-01 -1.00e+00  1.01e+01  1.28e+00    1.0000 >   42.7038    0.3075    1.1396  140.6889   95.5759   -1.0500  156.1472  64.76 244.8 200.0  0     0.0000   -1.0000
AK_GLI_--    ?    HNZ  ? P      0 20181130 1736    0.3195 GAU  8.00e-02 -1.00e+00  1.02e+01  1.28e+00    1.0000 >   26.2159   -1.0936    0.5443  157.6640   -9.9635   -0.4300  162.9344 103.83 283.8 200.0  0     0.0000   -1.0000
AV_RDJH_--   ?    BHZ  ? P      0 20181130 1736    1.9600 GAU  8.00e-02 -1.00e+00  1.33e+01  3.20e-01    1.0000 >   27.1311   -0.3682    1.2590 -153.7080  -42.3314   -1.4140  168.9505 245.03  65.0 200.0  0     0.0000   -1.0000
AK_BRSE_--   ?    BHZ  ? S      -0 20181130 1736   24.5084 GAU  1.20e-01 -1.00e+00  1.17e+01  2.56e+00    1.0000 >   46.4565    2.8548    0.3893  -41.6971 -139.9566   -0.5410  173.8803 193.69  13.7 200.0  0     0.0000   -1.0000
AK_BRLK_--   ?    BHZ  ? S      0 20181130 1736   23.8884 GAU  1.00e-01 -1.00e+00  1.00e+01  3.20e-01    1.0000 >   46.7111    1.9802    0.5400  -50.9563 -138.7927   -0.4090  175.1863 196.72  16.7 200.0  0     0.0000   -1.0000
AV_RDWB_--   ?    BHZ  ? P      -0 20181130 1736    3.0800 GAU  6.00e-02 -1.00e+00  1.02e+01  2.00e-02    1.0000 >   28.0996   -0.2167    1.3411 -156.2149  -53.7095   -1.5460  176.2691 242.02  62.0 200.0  0     0.0000   -1.0000
AV_RED_--    ?    BHZ  ? P      0 20181130 1736    2.8800 GAU  1.40e-01 -1.00e+00  1.46e+01  3.20e-01    1.0000 >   28.1378   -0.4549    1.1730 -152.7839  -61.4282   -1.0710  177.0609 239.29  59.3 200.0  0     0.0000   -1.0000
AK_WAT7_--   ?    BHZ  ? S      -0 20181130 1736   24.8484 GAU  6.00e-02 -1.00e+00  1.11e+01  2.00e-02    1.0000 >   49.1629    0.4884    1.0392   58.7508  204.8162   -1.2320  185.5615  18.64 198.6 200.0  0     0.0000   -1.0000
AK_WAT6_--   ?    BHZ  ? S      -0 20181130 1736   25.1684 GAU  8.00e-02 -1.00e+00  1.07e+01  8.00e-02    1.0000 >   50.1076   -0.1363    1.0416  116.1703  178.1736   -1.6810  189.4210  38.04 218.0 200.0  0     0.0000   -1.0000
AK_WAT1_--   ?    HNZ  ? S      -0 20181130 1736   26.6884 GAU  1.60e-01 -1.00e+00  1.07e+01  2.56e+00    1.0000 >   50.1989    1.2924    0.7771   73.8832  204.7152   -0.7220  190.8432  22.95 203.0 200.0  0     0.0000   -1.0000
AK_HIN_--    ?    HNZ  ? P      -0 20181130 1736   10.2345 GAU  3.00e-02 -1.00e+00  1.08e+01  5.00e-03    1.0000 >   32.8262    2.2111    0.4174  192.6700  -62.1501   -0.6229  213.6311 115.25 295.3 200.0  0     0.0000   -1.0000
AV_ILS_--    ?    BHZ  ? S      -0 20181130 1736   35.9800 GAU  8.00e-02 -1.00e+00  1.16e+01  1.60e-01    1.0000 >   57.0236    3.7593    0.2806 -171.4944 -112.1841   -1.1250  221.7016 230.45  50.5 200.0  0     0.0000   -1.0000
AK_DIV_--    ?    BHZ  ? S      0 20181130 1736   33.9884 GAU  6.00e-02 -1.00e+00  1.05e+01  2.00e-02    1.0000 >   58.3916    0.3997    0.9707  227.5020   21.7345   -0.9414  228.1640  91.82 271.8 200.0  0     0.0000   -1.0000
AK_EYAK_--   ?    BHZ  ? P      -0 20181130 1736   14.4684 GAU  1.00e-01 -1.00e+00  1.08e+01  1.60e-01    1.0000 >   36.7423    2.5290    0.4045  233.0342  -42.7188   -0.1339  244.3388 107.07 287.1 200.0  0     0.0000   -1.0000
AK_DHY_--    ?    BHZ  ? S      -0 20181130 1736   39.8484 GAU  1.00e-01 -1.00e+00  1.01e+01  3.20e-01    1.0000 >    0.0000    0.0000    0.0000  132.6689  233.9657   -1.6110    0.0000   0.00 359.0  -1.0  0     0.0000   -1.0000
AV_AUJA_--   ?    BHZ  ? P      -0 20181130 1736   19.6800 GAU  6.00e-02 -1.00e+00  1.45e+01  2.00e-02    1.0000 >    0.0000    0.0000    0.0000 -194.7545 -179.9192   -0.3760    0.0000   0.00 359.0  -1.0  0     0.0000   -1.0000
AK_BMR_--    ?    BHZ  ? P      0 20181130 1736   20.6284 GAU  1.60e-01 -1.00e+00  1.08e+01  5.12e+00    1.0000 >    0.0000    0.0000    0.0000  291.8435    8.4259   -0.8420    0.0000   0.00 359.0  -1.0  0     0.0000   -1.0000
NP040_D0     ?    HNZ  ? P      0 20181130 1735   43.8345 GAU  3.50e-02 -1.00e+00  1.06e+01  5.00e-03    1.0000 >    0.0000    0.0000    0.0000 -100000000000000000000.0000 -100000000000000000000.0000 -100000000000000000000.0000    0.0000   0.00 359.0  -1.0  0     0.0000   -1.0000
END_PHASE
SCATTER Nsamples 5000
   0.0926   32.7363   -4.8390  1.67e+02
  -1.3566   27.2266   -0.0642  1.67e+02
  -1.8339   27.2160    0.3123  1.67e+02
  -8.2480   25.7659   20.7666  1.69e+02
  -7.7916   24.9998   23.1048  1.69e+02
  -7.5518   24.7519   23.0771  1.69e+02
  -7.2284   26.6259   18.8358  1.67e+02
  -0.6816   30.2413   -4.2293  1.69e+02
  -0.7963   30.2319   -4.2011  1.69e+02
  -7.2167   27.6604   20.4988  1.67e+02
  -9.6456   27.1892   15.4887  1.67e+02
  -9.7927   27.2922   15.1819  1.67e+02
  -6.2838   21.9198   27.3090  1.67e+02
  -6.5843   21.9765   27.1367  1.67e+02
  -8.2343   25.5157   23.5830  1.69e+02
  -8.1913   25.3685   23.6009  1.69e+02
  -0.7786   27.5162   -4.3795  1.69e+02
  -0.8670   27.6882   -4.3014  1.69e+02
  -0.2689   28.5768   -3.7820  1.69e+02
  -0.7176   29.8876   -0.4353  1.67e+02
  -2.9527   26.8714   -2.3086  1.65e+02
  -8.6845   31.2176   11.8461  1.65e+02
  -7.6681   30.1961   12.8808  1.65e+02
  -1.3616   29.1307   -4.8745  1.69e+02
  -9.0207   26.2667   20.7102  1.69e+02
  -0.3023   29.6030   -4.3382  1.69e+02
  -1.7311   24.5603    3.0363  1.65e+02
  -0.7535   29.0664   -4.0996  1.69e+02
  -0.6611   29.1364   -4.0905  1.69e+02
   0.2327   26.9338   -4.7755  1.69e+02
  -8.3459   25.5768   21.0199  1.69e+02
  -9.2021   29.8796   16.2390  1.67e+02
  -9.1443   29.9883   15.5704  1.67e+02
  -7.2099   24.5003   29.8129  1.67e+02
  -0.0746   28.5806    0.5403  1.67e+02
  -0.5849   28.1711    0.2414  1.67e+02
  -2.1901   29.1492   -1.0234  1.67e+02
  -8.5030   25.3138   21.5845  1.69e+02
  -1.2055   22.8230   -3.8961  1.65e+02
  -7.8994   25.4007   21.4859  1.69e+02
  -2.0185   32.6129   -3.2717  1.67e+02
  -0.0310   26.7900    1.3241  1.67e+02
  -8.9676   29.6599   17.8334  1.67e+02
  -9.7801   29.2890   19.3604  1.67e+02
  -0.4115   30.6374   -4.8682  1.69e+02
  -8.4690   26.6737   19.7970  1.69e+02
  -8.5065   26.6719   19.8166  1.69e+02
  -8.4871   26.9728   20.9637  1.69e+02
   0.1233   28.5391   -4.4131  1.69e+02
  -3.6178   32.2131    1.4168  1.65e+02
  -2.6667   31.5459    1.0882  1.65e+02
  -0.5478   26.8892   -4.6729  1.69e+02
  -7.8280   26.4189   21.1470  1.69e+02
   0.2796   29.3787   -4.9084  1.69e+02
  -6.9679   27.8843   26.8588  1.65e+02
  -8.1430   26.1354   20.1451  1.69e+02
  -0.1474   27.0180   -4.3686  1.69e+02
  -0.1160   26.9685   -4.2506  1.69e+02
   0.2230   27.3178   -4.4110  1.69e+02
  -0.6811   28.0808   -3.9225  1.69e+02
  -7.3763   25.2574   23.7493  1.69e+02
  -7.3033   25.1141   24.0176  1.69e+02
  -9.0391   26.6483   20.3160  1.69e+02
  -8.9224   26.6091   20.2436  1.69e+02
  -8.6953   27.1001   20.3366  1.69e+02
  -8.6510   26.9104   20.1890  1.69e+02
   1.0437   29.7330   -2.5663  1.67e+02
   1.0086   29.5076   -2.6109  1.67e+02
  -8.0826   25.2887   21.9559  1.69e+02
  -8.2190   26.7437   20.2010  1.69e+02
   0.5561   23.9677   -4.7123  1.67e+02
  -8.0840   26.8263   22.4617  1.69e+02
  -2.2107   27.3681   -4.1769  1.67e+02
  -2.1567   27.4637   -4.0593  1.67e+02
  -0.1865   27.4979   -4.0748  1.69e+02
  -8.8489   26.0657   21.1858  1.69e+02
  -5.8564   24.2224   25.7314  1.67e+02
  -8.7111   25.8315   20.3345  1.69e+02
  -8.5240   25.3847   22.1771  1.69e+02
  -8.4027   27.0981   21.5275  1.69e+02
  -7.9287   26.6369   21.4245  1.69e+02
  -0.7094   31.1550   -4.8576  1.69e+02
  -0.8638   31.0992   -4.5926  1.69e+02
  -7.9167   25.7687   20.9833  1.69e+02
  -7.0676   23.1382   30.0680  1.67e+02
  -8.6441   26.0499   19.6262  1.69e+02
  -8.4925   26.1808   19.7050  1.69e+02
  -8.8952   26.1557   20.1249  1.69e+02
  -7.6492   24.5201   24.3196  1.69e+02
  -7.5944   24.4888   24.1528  1.69e+02
 -10.5337   27.3055   17.9136  1.67e+02
  -8.1693   26.3539   23.1243  1.69e+02
  -8.3399   26.2633   23.0408  1.69e+02
  -8.5330   25.7880   22.6744  1.69e+02
  -0.8184   27.3403   -4.7664  1.69e+02
  -7.8484   28.1880   17.4710  1.67e+02
  -7.9365   28.2900   17.3316  1.67e+02
  -6.0379   23.1023   27.2860  1.67e+02
 -10.1662   32.3455   37.1453  1.63e+02
  -1.9246   27.7111   -1.5573  1.67e+02
  -2.2402   28.1051   -1.0354  1.67e+02
  -7.5128   24.4119   23.4637  1.69e+02
  -7.5249   24.4165   23.4446  1.69e+02
  -8.8131   26.4634   19.6773  1.69e+02
  -9.0124   26.3957   19.8798  1.69e+02
  -6.3856   22.1965   29.1340  1.67e+02
  -6.7911   21.9964   29.3431  1.67e+02
   1.4609   28.4526   -1.4788  1.65e+02
  -0.6253   27.4109    0.8057  1.67e+02
  -2.5538   29.8745   -2.9523  1.67e+02
  -7.2114   24.9834   24.3070  1.69e+02
  -8.0084   25.4389   24.3932  1.69e+02
   0.5820   24.1758   -3.1992  1.67e+02
   0.2880   24.3042   -2.7211  1.67e+02
  -8.9279   28.2052   13.9221  1.67e+02
  -7.6432   26.2106   23.5851  1.69e+02
  -7.6843   24.9665   24.6362  1.69e+02
  -8.7400   25.6672   16.9873  1.67e+02
  -8.2024   25.9885   16.6688  1.67e+02
 -12.0588   32.3834   34.1917  1.63e+02
  -0.2404   30.4799   -4.8431  1.69e+02
  -8.8501   28.4002   24.0196  1.67e+02
  -8.9630   26.8268   20.9727  1.69e+02
  -9.2184   25.0803   14.3561  1.65e+02
  -9.0017   25.7309   14.1468  1.65e+02
  -8.7656   26.7064   19.7421  1.69e+02
   1.3095   28.9800   -4.6452  1.67e+02
   1.3179   28.7563   -4.6118  1.67e+02
  -7.8413   24.8705   24.4757  1.69e+02
  -0.3397   27.8141   -3.7083  1.69e+02
  -8.2448   26.9781   20.5502  1.69e+02
  -8.3810   27.0682   20.8312  1.69e+02
  -7.0585   21.3027   31.2044  1.65e+02
  -8.1385   26.6073   22.8294  1.69e+02
  -7.4680   26.5769   27.6602  1.67e+02
  -9.7579   25.1626   17.8837  1.67e+02
  -7.3352   25.6053   23.4902  1.69e+02
   0.4423   32.4010   -3.4909  1.67e+02
  -7.5688   25.2322   22.2715  1.69e+02
  -9.9463   25.7190   30.1403  1.65e+02
  -7.5364   25.9464   21.7126  1.69e+02
  -8.9250   29.4489   21.1440  1.67e+02
  -0.3574   29.5170   -3.9785  1.69e+02
  -8.3088   26.1886   23.3387  1.69e+02
  -8.5038   24.1036   19.2838  1.67e+02
  -0.1664   26.8102   -4.6056  1.69e+02
  -8.3689   25.1406   21.6105  1.69e+02
  -8.1821   25.1304   21.5861  1.69e+02
  -7.3152   24.7601   23.5551  1.69e+02
  -0.3868   32.0179   -3.2535  1.67e+02
  -6.7149   25.0693   21.7068  1.67e+02
  -8.8730   26.3858   21.6334  1.69e+02
   0.5759   27.9834   -4.6643  1.69e+02
  -1.0519   30.3259   -4.1906  1.69e+02
  -1.0875   30.4541   -4.3337  1.69e+02
  -8.7463   26.7976   22.4180  1.69e+02
  -8.6145   27.1642   20.0073  1.69e+02
  -8.4634   26.9855   19.9312  1.69e+02
  -0.4400   28.5419   -3.6242  1.69e+02
   0.1966   26.9097   -4.2296  1.69e+02
  -7.6667   24.7798   22.7089  1.69e+02
  -8.0253   24.6604   23.7830  1.69e+02
  -2.6072   29.0550   -3.5439  1.67e+02
  -1.4639   31.1135   -4.8443  1.69e+02
  -2.4946   27.0581   -1.9558  1.67e+02
  -1.0776   29.0511   -3.8673  1.69e+02
  -1.1254   28.8893   -3.8055  1.69e+02
  -7.2124   22.0517   26.6394  1.67e+02
  -7.4469   24.5523   24.0827  1.69e+02
 -10.8219   34.5663   33.1972  1.63e+02
  -2.3482   34.7143    2.1639  1.63e+02
  -0.0359   34.6031    2.1491  1.63e+02
  -5.7400   23.6130   30.2454  1.67e+02
   0.5324   24.7888   -0.2115  1.67e+02
   0.5326   25.1413    0.1351  1.67e+02
  -5.7486   24.2345   29.0745  1.67e+02
  -7.2602   25.4008   23.2914  1.69e+02
  -8.4473   23.8133   27.3310  1.67e+02
  -8.0168   25.0000   22.2116  1.69e+02
  -7.4274   24.4069   24.3897  1.69e+02
  -8.7710   27.0289   20.0520  1.69e+02
  -9.0373   27.0170   20.0792  1.69e+02
  -8.8701   26.2201   19.8995  1.69e+02
  -7.6718   26.4561   22.3094  1.69e+02
  -8.7394   26.5290   22.8770  1.69e+02
  -8.6694   25.6198   20.7387  1.69e+02
   0.1560   27.8054   -4.0423  1.69e+02
  -0.0306   27.0175   -3.8215  1.69e+02
  -9.4352   28.0223   14.3612  1.67e+02
 -10.0016   26.7266   20.1104  1.67e+02
  -7.7190   25.5302   21.9320  1.69e+02
  -8.1576   25.6780   20.3818  1.69e+02
  -0.2338   27.6672   -3.7110  1.69e+02
  -0.0163   27.6477   -3.7205  1.69e+02
   0.2045   26.7119   -4.6757  1.69e+02
  -7.4103   25.1864   23.2003  1.69e+02
  -7.6567   24.3853   24.7666  1.69e+02
  -8.9406   25.7031   20.5954  1.69e+02
  -7.4727   24.9108   24.7003  1.69e+02
  -8.3049   26.5599   19.6615  1.69e+02
   1.6112   26.6981   -2.5681  1.67e+02
  -8.2341   24.9468   22.4854  1.69e+02
  -1.0515   33.4693   -3.5595  1.67e+02
 -10.3172   26.6716   18.2832  1.67e+02
 -10.3348   26.6238   18.2086  1.67e+02
  -0.7145   28.3025   -3.3773  1.69e+02
  -7.5899   25.8881   17.2713  1.67e+02
  -8.9073   27.0649   20.7222  1.69e+02
  -8.6370   26.2518   19.5017  1.69e+02
  -8.2555   25.5594   24.0813  1.69e+02
  -0.1717   29.3117   -3.9273  1.69e+02
  -1.3984   29.6360   -4.5772  1.69e+02
 -10.4990   27.7822   16.5152  1.67e+02
  -7.8142   26.4367   28.3720  1.67e+02
  -9.3666   26.8685   26.8981  1.67e+02
 -10.0929   27.0164   19.1944  1.67e+02
 -10.1460   27.1292   19.0344  1.67e+02
  -9.2204   30.6845    2.4493  1.63e+02
  -0.7290   29.7187   -4.0961  1.69e+02
  -8.0281   26.2182   20.6359  1.69e+02
  -0.9882   27.9947   -4.3411  1.69e+02
  -8.1557   25.4137   20.5312  1.69e+02
   0.4656   27.3183   -4.7989  1.69e+02
  -0.1324   28.2245   -3.6185  1.69e+02
  -8.7283   26.5625   19.4373  1.69e+02
  -8.4954   26.7206   19.3316  1.69e+02
  -1.7836   30.9755   -1.7000  1.67e+02
  -8.5299   27.1092   22.0494  1.69e+02
  -8.3108   26.9620   20.3778  1.69e+02
  -1.2193   29.5646   -3.9568  1.69e+02
  -7.0180   29.9010   21.2763  1.65e+02
  -7.8684   25.9712   23.9880  1.69e+02
  -6.9033   24.1066   20.7496  1.67e+02
  -8.1466   26.0138   27.9378  1.67e+02
   1.1454   24.1112   -4.0420  1.67e+02
  -7.7933   25.7991   24.1822  1.69e+02
  -7.6472   25.6552   24.3464  1.69e+02
  -0.3602   31.3542    0.6206  1.65e+02
  -8.6484   28.7280   24.8737  1.67e+02
  -8.7307   28.5047   24.5396  1.67e+02
   0.1848   27.1982   -4.1371  1.69e+02
  -7.5588   25.3312   24.5727  1.69e+02
   0.2318   28.3217   -4.0773  1.69e+02
   0.3019   28.2079   -3.8386  1.69e+02
  -7.8024   26.3921   23.2627  1.69e+02
  -6.3691   26.4175   24.5450  1.67e+02
  -0.4687   31.1962   -4.9250  1.69e+02
  -8.9648   26.9528   19.6221  1.69e+02
  -8.0230   26.4274   23.3766  1.69e+02
  -8.2561   26.7455   19.8026  1.69e+02
  -7.3713   24.7105   20.3246  1.67e+02
