NLLOC "./loc/alaska.20181130.182011.grid0" "LOCATED" "Location completed."
PUBLIC_ID None
SIGNATURE "NonLinLoc - ALomax Scientific   obs:./obs/2018-11-30-mww70-southern-alaska.obs   NLLoc:v7.00.13(17Jan2022)   run:13May2022 09h14m11"
COMMENT "2018-11-30 Mww7.0 Southern Alaska (NonLinLoc Sample Location)"
GRID  201 201 106  -100 -100 -5  1 1 1 PROB_DENSITY
SEARCH OCTREE nInitial 400 nEvaluated 20008 smallestNodeSide 0.312500/0.312500/0.410156 oct_tree_integral 1.323182e+02 scatter_volume 1.323182e+02
HYPOCENTER  x -42.0312 y 62.3438 z -3.97461  OT 1.36616  ix -1 iy -1 iz -1 MAXIMUM_LIKELIHOOD
GEOGRAPHIC  OT 2018 11 30  18 20 1.366163  Lat 61.557250 Long -150.790755 Depth -3.974609
QUALITY  Pmax 1.09059e+23 MFmin 13.464 MFmax 14.4929 RMS 0.940463 Nphs 16 Gap 56.9178 Dist 55.9413 Mamp -9.90 0 Mdur -9.90 0
VPVSRATIO  VpVsRatio -1  Npair 0  Diff -2e+30
STATISTICS  ExpectX -34.976844 Y 62.773154 Z 11.335852  CovXX 74.0384 XY -16.8617 XZ 20.2964 YY 46.1458 YZ 46.8431 ZZ 403.399 EllAz1  204.958 Dip1  7.80754 Len1  10.4969 Az2  294.925 Dip2  -0.238043 Len2  17.0101 Len3  3.806204e+01
STAT_GEOG  ExpectLat 61.561803 Long -150.658128 Depth 11.335852
TRANSFORM  LAMBERT RefEllipsoid Clarke-1880  LatOrig 61.000000  LongOrig -150.000000  FirstStdParal 60.000000  SecondStdParal 62.000000  RotCW 0.000000
QML_OriginQuality  assocPhCt 23  usedPhCt 16  assocStaCt -1  usedStaCt 16  depthPhCt -1  stdErr 0.940463  azGap 56.9178  secAzGap 103.063  gtLevel -  minDist 55.9413 maxDist 265.675 medDist 163.789
QML_OriginUncertainty  horUnc -1  minHorUnc 9.37463  maxHorUnc 13.731  azMaxHorUnc 115.203
QML_ConfidenceEllipsoid  semiMajorAxisLength 38.062  semiMinorAxisLength 10.4969  semiIntermediateAxisLength 17.0101  majorAxisPlunge 82.1888  majorAxisAzimuth 23.1898  majorAxisRotation 268.313
FOCALMECH  Hyp  61.557250 -150.790755 -3.974609 Mech  0 0 0 mf  0 nObs -1
PHASE ID Ins Cmp On Pha  FM Date     HrMn   Sec     Err  ErrMag    Coda      Amp       Per       PriorWt  >   TTpred    Res       Weight    StaLoc(X  Y         Z)        SDist    SAzim  RAz  RDip RQual    Tcorr       TTerr
AV_STLK_--   ?    BHZ  ? P      ? 20181130 1820   11.9800 GAU  6.00e-02 -1.00e+00  1.41e+01  2.00e-02    1.0000 >   10.5804    0.0334    2.6654  -97.7049   56.8786   -0.9450   55.9413 264.39 264.4  85.9  9     0.0000    0.2116
AK_SKN_--    ?    BHZ  ? P      0 20181130 1820   12.9284 GAU  4.00e-02 -1.00e+00  1.62e+01  2.00e-02    1.0000 >   11.5825   -0.0203    2.6737  -80.3077  110.1399   -0.5810   61.2336 321.31 321.3  85.9  9     0.0000    0.2317
AV_SPBL_--   ?    BHZ  ? P      0 20181130 1820   12.7800 GAU  4.00e-02 -1.00e+00  1.40e+01  2.00e-02    1.0000 >   11.7599   -0.3461    1.8119 -101.2807   43.4033   -0.9270   62.2033 252.27 252.3  86.2  9     0.0000    0.2352
AV_SPCG_--   ?    BHZ  ? P      ? 20181130 1820   15.2000 GAU  6.00e-02 -1.00e+00  1.12e+01  2.00e-02    1.0000 >   13.6263    0.2075    2.1887 -108.4188   34.1306   -1.3290   72.1339 246.98 247.0  83.6  9     0.0000    0.2725
AV_SPCR_--   ?    BHZ  ? P      0 20181130 1820   17.0600 GAU  6.00e-02 -1.00e+00  1.21e+01  2.00e-02    1.0000 >   15.7452   -0.0514    2.4753 -118.7430   24.3192   -0.9840   85.6187 243.63 243.6  50.2 10     0.0000    0.3149
AK_CUT_--    ?    BHZ  ? P      -0 20181130 1820   16.1400 GAU  6.00e-02 -1.00e+00  1.23e+01  2.00e-02    1.0000 >   17.5554   -2.7816    0.3955  -13.5739  156.6879   -0.5740   98.5426  16.79  16.8  47.7 10     0.0000    0.3511
AK_SLK_--    ?    BHZ  ? P      0 20181130 1820   14.5884 GAU  4.00e-02 -1.00e+00  1.52e+01  2.00e-02    1.0000 >   20.5388   -7.3165    0.0215  -12.2555  -54.3822   -0.6550  120.4638 165.69 165.7  45.7 10     0.0000    0.4108
AV_RDJH_--   ?    BHZ  ? P      0 20181130 1820   30.6600 GAU  1.20e-01 -1.00e+00  1.10e+01  5.12e+00    1.0000 >   24.9416    4.3523    0.2179 -153.7080  -42.3314   -1.4140  153.0640 226.85 226.9  43.5 10     0.0000    0.4988
AK_WAT7_--   ?    BHZ  ? P      -0 20181130 1820   30.6484 GAU  8.00e-02 -1.00e+00  1.29e+01  2.56e+00    1.0000 >   27.7027    1.5795    0.1579   58.7508  204.8162   -1.2320  174.5149  35.27  35.3  43.5 10     0.0000    0.5541
AK_SWD_--    ?    BHZ  ? P      0 20181130 1820   26.9484 GAU  8.00e-02 -1.00e+00  1.15e+01  3.20e-01    1.0000 >   27.9312   -2.3490    0.4711   30.4489  -99.6652   -0.0770  177.4831 155.90 155.9  43.5 10     0.0000    0.5586
AK_SCM_--    ?    BHZ  ? P      0 20181130 1820   25.8884 GAU  8.00e-02 -1.00e+00  1.18e+01  6.40e-01    1.0000 >   29.1329   -4.6106    0.1711  140.6889   95.5759   -1.0500  185.7176  79.69  79.7  43.5 10     0.0000    0.5827
AK_WAT6_--   ?    BHZ  ? P      -0 20181130 1820   32.1084 GAU  4.00e-02 -1.00e+00  1.07e+01  2.00e-02    1.0000 >   30.5634    0.1788    1.7428  116.1703  178.1736   -1.6810  196.0722  53.79  53.8  43.5 10     0.0000    0.6113
AK_BRSE_--   ?    BHZ  ? P      0 20181130 1820   36.3084 GAU  4.00e-02 -1.00e+00  1.12e+01  2.00e-02    1.0000 >   31.2173    3.7250    0.2259  -41.6971 -139.9566   -0.5410  202.3006 179.91 179.9  43.5 10     0.0000    0.6243
AK_GLI_--    ?    HNZ  ? P      -0 20181130 1820   28.3395 GAU  1.50e-02 -1.00e+00  1.07e+01  8.00e-02    1.0000 >   32.5115   -5.5382    0.1747  157.6640   -9.9635   -0.4300  212.3829 109.90 109.9  43.5 10     0.0000    0.6502
AK_TRF_--    ?    BHZ  ? P      0 20181130 1820   40.9484 GAU  6.00e-02 -1.00e+00  1.02e+01  4.00e-02    1.0000 >   32.7139    6.8684    0.0036  -14.4406  273.1461   -1.7099  212.6003   7.46   7.5  43.5 10     0.0000    0.6543
AK_HIN_--    ?    HNZ  ? P      0 20181130 1820   39.1995 GAU  2.00e-02 -1.00e+00  1.19e+01  5.00e-03    1.0000 >   39.3962   -1.5629    0.6032  192.6700  -62.1501   -0.6229  265.6754 117.94 117.9  42.2 10     0.0000    0.7879
NP_AMJG1     ?    HNZ  ? P      0 20181130 1820   12.6850 GAU  2.00e-02 -1.00e+00  1.32e+01  8.00e-02    1.0000 >    0.0000    0.0000    0.0000 -100000000000000000000.0000 -100000000000000000000.0000 -100000000000000000000.0000    0.0000   0.00 359.0  -1.0  0     0.0000    0.0000
AK_CHUM_--   ?    BHZ  ? P      -0 20181130 1820   44.8884 GAU  4.00e-02 -1.00e+00  1.29e+01  2.00e-02    1.0000 >    0.0000    0.0000    0.0000 -113.8756  323.3981   -0.2170    0.0000   0.00 359.0  -1.0  0     0.0000    0.0000
AK_KTH_--    ?    BHZ  ? P      0 20181130 1820   38.6484 GAU  1.20e-01 -1.00e+00  1.02e+01  5.12e+00    1.0000 >    0.0000    0.0000    0.0000  -45.9401  284.8846   -1.1720    0.0000   0.00 359.0  -1.0  0     0.0000    0.0000
AK_CAST_--   ?    BHZ  ? P      ? 20181130 1820   39.1484 GAU  1.80e-01 -1.00e+00  1.01e+01  1.60e-01    1.0000 >    0.0000    0.0000    0.0000 -104.1740  271.2800   -0.6110    0.0000   0.00 359.0  -1.0  0     0.0000    0.0000
NP0521       ?    HNZ  ? S      -0 20181130 1820   49.6350 GAU  4.00e-02 -1.00e+00  1.03e+01  5.00e-03    1.0000 >    0.0000    0.0000    0.0000 -100000000000000000000.0000 -100000000000000000000.0000 -100000000000000000000.0000    0.0000   0.00 359.0  -1.0  0     0.0000    0.0000
AK_RAG_--    ?    BHZ  ? P      0 20181130 1820   51.8284 GAU  4.00e-02 -1.00e+00  1.39e+01  2.00e-02    1.0000 >    0.0000    0.0000    0.0000  293.2037  -56.4555   -0.7520    0.0000   0.00 359.0  -1.0  0     0.0000    0.0000
AK_MCK_--    ?    BHZ  ? P      -0 20181130 1820   42.7684 GAU  1.20e-01 -1.00e+00  1.16e+01  2.56e+00    1.0000 >    0.0000    0.0000    0.0000   52.5517  304.9713   -0.6180    0.0000   0.00 359.0  -1.0  0     0.0000    0.0000
END_PHASE
END_NLLOC

