NLLOC "./loc/alaska.20181130.181045.grid0" "LOCATED" "Location completed."
PUBLIC_ID None
SIGNATURE "NonLinLoc - ALomax Scientific   obs:./obs/2018-11-30-mww70-southern-alaska.obs   NLLoc:v7.00.13(17Jan2022)   run:13May2022 09h14m11"
COMMENT "2018-11-30 Mww7.0 Southern Alaska (NonLinLoc Sample Location)"
GRID  201 201 106  -100 -100 -5  1 1 1 PROB_DENSITY
SEARCH OCTREE nInitial 400 nEvaluated 20008 smallestNodeSide 0.156250/0.156250/0.205078 oct_tree_integral 8.192446e+01 scatter_volume 8.192446e+01
HYPOCENTER  x 7.89062 y 63.5156 z -4.07715  OT 34.8538  ix -1 iy -1 iz -1 MAXIMUM_LIKELIHOOD
GEOGRAPHIC  OT 2018 11 30  18 10 34.853799  Lat 61.569963 Long -149.851493 Depth -4.077148
QUALITY  Pmax 7.7756e+58 MFmin 19.5055 MFmax 20.721 RMS 0.849865 Nphs 26 Gap 49.1646 Dist 38.359 Mamp -9.90 0 Mdur -9.90 0
VPVSRATIO  VpVsRatio -1  Npair 0  Diff -2e+30
STATISTICS  ExpectX 7.123275 Y 63.415510 Z 1.529458  CovXX 3.38715 XY 0.0508394 XZ -3.98084 YY 4.06342 YZ 1.28214 ZZ 53.4733 EllAz1  98.8066 Dip1  4.68262 Len1  3.28086 Az2  188.869 Dip2  0.757138 Len2  3.78303 Len3  1.378354e+01
STAT_GEOG  ExpectLat 61.569079 Long -149.865939 Depth 1.529458
TRANSFORM  LAMBERT RefEllipsoid Clarke-1880  LatOrig 61.000000  LongOrig -150.000000  FirstStdParal 60.000000  SecondStdParal 62.000000  RotCW 0.000000
QML_OriginQuality  assocPhCt 28  usedPhCt 26  assocStaCt -1  usedStaCt 26  depthPhCt -1  stdErr 0.849865  azGap 49.1646  secAzGap 81.9337  gtLevel -  minDist 38.359 maxDist 248.949 medDist 130.068
QML_OriginUncertainty  horUnc -1  minHorUnc 2.78957  maxHorUnc 3.05853  azMaxHorUnc 4.27525
QML_ConfidenceEllipsoid  semiMajorAxisLength 13.7835  semiMinorAxisLength 3.28086  semiIntermediateAxisLength 3.78303  majorAxisPlunge 0  majorAxisAzimuth 0  majorAxisRotation 4.73823
FOCALMECH  Hyp  61.569963 -149.851493 -4.077148 Mech  0 0 0 mf  0 nObs -1
DIFFERENTIAL  Nhyp 0
PHASE ID Ins Cmp On Pha  FM Date     HrMn   Sec     Err  ErrMag    Coda      Amp       Per       PriorWt  >   TTpred    Res       Weight    StaLoc(X  Y         Z)        SDist    SAzim  RAz  RDip RQual    Tcorr       TTerr
AT_PMR_--    ?    BHZ  ? P      0 20181130 1810   45.3400 GAU  1.20e-01 -1.00e+00  1.46e+01  5.12e+00    1.0000 >    7.2929    3.1933    0.2140   46.1491   66.2909   -0.1000   38.3590  85.85 265.9 200.0  0     0.0000   -1.0000
AK_GHO_--    ?    BHZ  ? S      -0 20181130 1810   55.7284 GAU  1.00e-01 -1.00e+00  1.23e+01  1.28e+00    1.0000 >   17.1278    3.7468    0.1362   56.6953   86.3740   -1.0320   53.8925  64.90 244.9 200.0  0     0.0000   -1.0000
AK_RC01_--   ?    BHZ  ? P      -0 20181130 1810   47.3600 GAU  1.20e-01 -1.00e+00  1.33e+01  2.56e+00    1.0000 >   10.2145    2.2917    0.2370   14.0814    9.9332   -0.3900   53.9388 173.41 353.4 200.0  0     0.0000   -1.0000
AK_KNK_--    ?    BHZ  ? P      0 20181130 1810   49.6684 GAU  4.00e-02 -1.00e+00  1.80e+01  8.00e-02    1.0000 >   14.3129    0.5017    1.2406   82.3084   46.9963   -0.5980   76.2292 102.52 282.5 200.0  0     0.0000   -1.0000
AK_SAW_--    ?    BHZ  ? P      -0 20181130 1810   50.2684 GAU  4.00e-02 -1.00e+00  1.05e+01  2.00e-02    1.0000 >   15.5961   -0.1815    1.4962   87.9646   91.0412   -0.7810   84.6729  71.03 251.0 200.0  0     0.0000   -1.0000
AK_CUT_--    ?    BHZ  ? S      0 20181130 1811    3.7000 GAU  6.00e-02 -1.00e+00  1.26e+01  3.20e-01    1.0000 >   28.8187    0.0275    1.3605  -13.5739  156.6879   -0.5740   95.6128 347.03 167.0 200.0  0     0.0000   -1.0000
AK_SKN_--    ?    BHZ  ? S      -0 20181130 1811    4.8084 GAU  1.20e-01 -1.00e+00  1.16e+01  5.12e+00    1.0000 >   29.8012    0.1534    1.3226  -80.3077  110.1399   -0.5810   99.7635 297.86 117.9 200.0  0     0.0000   -1.0000
AV_STLK_--   ?    BHZ  ? S      -0 20181130 1811    6.7600 GAU  1.00e-01 -1.00e+00  1.40e+01  2.56e+00    1.0000 >   31.2624    0.6438    1.0648  -97.7049   56.8786   -0.9450  105.8039 266.40  86.4 200.0  0     0.0000   -1.0000
AV_SPBL_--   ?    BHZ  ? P      -0 20181130 1810   54.3400 GAU  4.00e-02 -1.00e+00  1.03e+01  2.00e-02    1.0000 >   19.3100    0.1762    1.4804 -101.2807   43.4033   -0.9270  111.0085 259.56  79.6 200.0  0     0.0000   -1.0000
AK_PWL_--    ?    HNZ  ? S      -0 20181130 1811    8.2945 GAU  4.50e-02 -1.00e+00  1.13e+01  1.28e+00    1.0000 >   32.9811    0.4596    1.1692   90.5585  -14.6245   -0.5500  113.7535 133.39 313.4 200.0  0     0.0000   -1.0000
AK_SLK_--    ?    BHZ  ? S      -0 20181130 1811    8.8684 GAU  8.00e-02 -1.00e+00  1.29e+01  6.40e-01    1.0000 >   34.3332   -0.3186    1.1982  -12.2555  -54.3822   -0.6550  119.6067 189.70   9.7 200.0  0     0.0000   -1.0000
AV_SPCG_--   ?    BHZ  ? P      -0 20181130 1810   55.4800 GAU  4.00e-02 -1.00e+00  1.27e+01  1.60e-01    1.0000 >   20.5726    0.0536    1.4927 -108.4188   34.1306   -1.3290  119.9640 255.82  75.8 200.0  0     0.0000   -1.0000
AV_SPCP_--   ?    BHZ  ? P      ? 20181130 1810   56.5480 GAU  8.00e-02 -1.00e+00  1.07e+01  2.00e-02    1.0000 >   21.6379    0.0563    1.4723 -115.5968   31.4831   -1.6160  127.5744 255.46  75.5 200.0  0     0.0000   -1.0000
AV_SPCR_--   ?    BHZ  ? P      -0 20181130 1810   56.8400 GAU  8.00e-02 -1.00e+00  1.28e+01  6.40e-01    1.0000 >   22.2219   -0.2357    1.3953 -118.7430   24.3192   -0.9840  132.5610 252.80  72.8 200.0  0     0.0000   -1.0000
AK_SCM_--    ?    BHZ  ? P      -0 20181130 1810   56.8484 GAU  4.00e-02 -1.00e+00  1.36e+01  2.00e-02    1.0000 >   22.7652   -0.7706    0.9230  140.6889   95.5759   -1.0500  136.6134  76.43 256.4 200.0  0     0.0000   -1.0000
AK_WAT7_--   ?    BHZ  ? S      -0 20181130 1811   16.5684 GAU  1.20e-01 -1.00e+00  1.04e+01  5.12e+00    1.0000 >   41.2536    0.4610    1.0859   58.7508  204.8162   -1.2320  150.1753  19.80 199.8 200.0  0     0.0000   -1.0000
AK_WAT6_--   ?    BHZ  ? S      0 20181130 1811   17.6684 GAU  1.20e-01 -1.00e+00  1.01e+01  5.12e+00    1.0000 >   42.9992   -0.1846    1.1197  116.1703  178.1736   -1.6810  157.7052  43.36 223.4 200.0  0     0.0000   -1.0000
AV_RDT_--    ?    BHZ  ? S      0 20181130 1811   21.9800 GAU  6.00e-02 -1.00e+00  1.06e+01  1.28e+00    1.0000 >   47.0682    0.0580    1.0923 -131.9721  -45.1925   -0.9300  177.1413 232.14  52.1 200.0  0     0.0000   -1.0000
AV_RDJH_--   ?    BHZ  ? P      0 20181130 1811    4.6400 GAU  4.00e-02 -1.00e+00  1.46e+01  2.00e-02    1.0000 >   30.1652   -0.3790    1.2221 -153.7080  -42.3314   -1.4140  193.1779 236.78  56.8 200.0  0     0.0000   -1.0000
AK_FID_--    ?    BHZ  ? S      0 20181130 1811   26.7684 GAU  2.00e-02 -1.00e+00  1.31e+01  2.00e-02    1.0000 >   51.6707    0.2439    1.0302  185.5109  -25.5209   -0.5000  198.6869 116.62 296.6 200.0  0     0.0000   -1.0000
AV_RDWB_--   ?    BHZ  ? P      ? 20181130 1811    5.4600 GAU  2.00e-02 -1.00e+00  1.15e+01  2.00e-02    1.0000 >   31.2866   -0.6804    1.0044 -156.2149  -53.7095   -1.5460  201.6739 234.46  54.5 200.0  0     0.0000   -1.0000
AV_RED_--    ?    BHZ  ? S      0 20181130 1811   28.9400 GAU  6.00e-02 -1.00e+00  1.00e+01  6.40e-01    1.0000 >   52.8595    1.2267    0.7502 -152.7839  -61.4282   -1.0710  203.5369 232.13  52.1 200.0  0     0.0000   -1.0000
AK_KLU_--    ?    BHZ  ? S      -0 20181130 1811   28.8484 GAU  2.20e-01 -1.00e+00  1.29e+01  5.12e+00    1.0000 >   54.0797   -0.0851    0.9939  217.0370   61.6207   -1.0471  209.1549  90.52 270.5 200.0  0     0.0000   -1.0000
AK_HIN_--    ?    HNZ  ? P      0 20181130 1811   11.3245 GAU  2.55e-01 -1.00e+00  1.04e+01  1.02e+01    1.0000 >   33.9907    2.4800    0.3383  192.6700  -62.1501   -0.6229  223.4621 124.22 304.2 200.0  0     0.0000   -1.0000
AK_DIV_--    ?    BHZ  ? S      0 20181130 1811   31.3684 GAU  6.00e-02 -1.00e+00  1.01e+01  2.00e-02    1.0000 >   57.1964   -0.6818    0.8440  227.5020   21.7345   -0.9414  223.5504 100.77 280.8 200.0  0     0.0000   -1.0000
AK_EYAK_--   ?    BHZ  ? P      0 20181130 1811   14.8684 GAU  6.00e-02 -1.00e+00  1.01e+01  3.20e-01    1.0000 >   37.2195    2.7951    0.3160  233.0342  -42.7188   -0.1339  248.9485 115.26 295.3 200.0  0     0.0000   -1.0000
AT_SVW2_--   ?    BHZ  ? P      0 20181130 1811   18.0600 GAU  4.00e-02 -1.00e+00  1.11e+01  2.00e-02    1.0000 >    0.0000    0.0000    0.0000 -302.7416   25.0539   -0.4988    0.0000   0.00 359.0  -1.0  0     0.0000   -1.0000
AK_RND_--    ?    BHZ  ? S      0 20181130 1811   22.3684 GAU  1.20e-01 -1.00e+00  1.18e+01  5.12e+00    1.0000 >    0.0000    0.0000    0.0000   56.9974  268.6460   -0.9936    0.0000   0.00 359.0  -1.0  0     0.0000   -1.0000
END_PHASE
SCATTER Nsamples 4996
   5.3492   62.9861    6.8845  1.40e+02
   5.5099   63.0490    6.7484  1.40e+02
   8.7743   62.7249   -2.9567  1.42e+02
   8.1213   64.5097   -1.8340  1.42e+02
   7.8136   64.5730   -1.7631  1.42e+02
   5.5737   63.3632   -3.5980  1.40e+02
   3.2743   66.1650    8.6178  1.38e+02
   7.3193   64.1560   -1.5593  1.42e+02
   7.2275   64.1524   -1.6822  1.42e+02
   7.8805   62.4337   -1.3272  1.42e+02
   7.9937   62.3680   -1.3998  1.42e+02
   4.5922   63.1170   13.1098  1.38e+02
   0.9849   61.7095    7.5963  1.38e+02
   7.1894   62.7536   -1.0953  1.42e+02
   8.7667   62.7933   -4.7899  1.42e+02
   8.7826   62.7423   -4.7126  1.42e+02
   7.5050   65.7520    2.6336  1.40e+02
   8.6242   62.2641   -4.7918  1.42e+02
   8.5166   64.3516   -2.3321  1.42e+02
   8.6706   64.1845   -2.4914  1.42e+02
   7.2974   63.5935   -0.6095  1.42e+02
   7.9945   62.0520   -3.4073  1.42e+02
   8.6998   62.8188   -1.6142  1.42e+02
   8.6549   63.0936   -1.6188  1.42e+02
   1.4453   64.5255   11.7548  1.38e+02
   1.4030   64.4861   12.7792  1.38e+02
   8.2608   66.3626   -0.4122  1.40e+02
   7.2722   62.9943   -0.6846  1.42e+02
   8.5600   63.7018   -1.3750  1.42e+02
   7.3043   64.7087   -4.7869  1.42e+02
   7.2334   64.9739   -3.8621  1.42e+02
   7.4675   64.8267   -3.8711  1.42e+02
   6.1421   65.8702    2.2784  1.40e+02
   5.9562   65.7947    2.1513  1.40e+02
   6.4425   60.6829    6.0418  1.40e+02
   8.0997   62.8585    5.0350  1.40e+02
   7.9655   62.6622    5.2658  1.40e+02
   7.6243   63.8187   -0.8047  1.42e+02
   6.4717   64.8104    5.6734  1.40e+02
   6.6405   64.4480    6.0116  1.40e+02
   4.6723   63.5925    3.6459  1.40e+02
   4.6129   63.2047    3.8383  1.40e+02
   9.0568   63.2070   -2.4685  1.42e+02
   8.9176   63.1606   -2.1905  1.42e+02
   7.7161   64.2903   -1.2620  1.42e+02
   6.6757   60.0380   -1.1073  1.40e+02
   9.3063   66.0997   -0.6075  1.40e+02
   6.6492   60.2114    3.5837  1.40e+02
   8.7102   65.0001    2.6538  1.40e+02
   7.8461   61.9557   -2.8692  1.42e+02
   6.5625   64.2334    6.9882  1.40e+02
   7.6540   60.0354   -4.5825  1.40e+02
   8.8911   64.2121   -3.4166  1.42e+02
   5.5909   63.9015   -2.7684  1.40e+02
   7.5080   62.5547   -0.7415  1.42e+02
   7.7507   62.7915   -0.8920  1.42e+02
   7.7023   61.9818   -3.0661  1.42e+02
   6.9859   64.6006   -4.0374  1.42e+02
   7.7536   64.7079   -2.9190  1.42e+02
   4.4354   62.3273    0.2610  1.40e+02
   6.9424   63.8407   -1.4378  1.42e+02
   5.5772   67.5856   -0.4046  1.38e+02
   7.1353   69.7585    1.5965  1.38e+02
   7.4187   62.3098   -4.7761  1.42e+02
   7.4378   62.4992   -4.8969  1.42e+02
   7.2758   62.1090    6.6798  1.40e+02
   7.2962   62.4171    7.2933  1.40e+02
   7.1360   63.5909   -1.0782  1.42e+02
   3.1402   61.9132    0.1412  1.38e+02
   6.6179   63.2114   -3.7390  1.42e+02
   6.6293   63.2241   -3.4480  1.42e+02
   8.3914   62.0342   -3.9250  1.42e+02
   8.7239   62.3433   -2.3342  1.42e+02
  10.5089   63.7592   -3.1290  1.40e+02
   5.0245   61.1063    2.7899  1.40e+02
   6.9625   62.5749   -4.9507  1.42e+02
   6.6945   63.5083   -3.9535  1.42e+02
   8.2981   62.1478   -3.3048  1.42e+02
   6.9741   63.0877   -1.0274  1.42e+02
   8.3583   63.1870   -0.8379  1.42e+02
   6.9363   64.6051   -4.6960  1.42e+02
   5.8911   65.7518   -1.0363  1.40e+02
   6.0760   60.7394   -2.9219  1.40e+02
   7.6081   61.9095   -3.9272  1.42e+02
   6.5716   63.5786   -3.0340  1.42e+02
   3.2328   64.2788   22.0478  1.35e+02
   9.3334   62.2197    2.5278  1.40e+02
   7.3002   62.4016   -1.3482  1.42e+02
   4.3961   63.5282    0.5088  1.40e+02
   5.8514   69.6167   33.6519  1.35e+02
   8.2630   60.3852    1.1459  1.40e+02
   8.5576   60.3531    0.8289  1.40e+02
   6.6953   66.8738   -3.1206  1.40e+02
   7.9373   62.1552   -4.4933  1.42e+02
   1.9005   63.1691   14.2472  1.37e+02
   7.0164   62.5157   -1.4250  1.42e+02
   9.8182   62.7799    8.0135  1.37e+02
   6.7956   63.1410   -2.8065  1.42e+02
   7.0550   63.7025    6.9091  1.40e+02
   7.6925   63.5156   -0.4423  1.42e+02
   7.6410   63.1069   -0.1710  1.42e+02
   4.4329   62.2000   -3.6363  1.37e+02
   4.6536   64.8682   -3.7192  1.37e+02
   7.2121   64.5098   -1.9154  1.42e+02
   7.6184   62.1993   -1.0539  1.42e+02
   8.0897   64.0941    5.5395  1.40e+02
  10.4498   62.7198   -1.6397  1.40e+02
   3.0442   65.8690    1.9228  1.37e+02
   7.4979   66.1862    3.2323  1.40e+02
   7.4459   65.7040    3.4547  1.40e+02
   7.8469   63.3316   -0.1184  1.42e+02
   7.7580   64.4011   -1.5587  1.42e+02
   7.6108   68.6922    8.5821  1.35e+02
   6.0805   63.1043    7.6994  1.40e+02
   7.3525   62.8064   -0.6036  1.42e+02
   7.4608   63.4008   -0.0846  1.42e+02
   8.6015   64.4259   -2.6180  1.42e+02
   7.5812   62.0763   -2.3739  1.42e+02
   7.7369   62.0850   -2.2926  1.42e+02
   7.1349   64.2964   -1.7996  1.42e+02
   6.6766   65.5266    5.1685  1.40e+02
   6.8539   63.4349   -4.4297  1.42e+02
   7.2634   64.8793   -3.1314  1.42e+02
   7.0946   64.5951   -3.0129  1.42e+02
   5.3676   60.7317    1.0418  1.40e+02
   4.5512   62.3306    5.2875  1.40e+02
   6.6620   62.6458   13.6947  1.37e+02
   6.5910   62.8759   -3.1275  1.42e+02
   8.4744   64.9739   -4.8136  1.42e+02
   6.0724   65.3700    4.2510  1.40e+02
   7.1335   62.2918   -2.8033  1.42e+02
   7.6248   68.6836   40.4868  1.37e+02
   7.5220   67.5122   39.6939  1.37e+02
   8.7257   63.3329   -0.9161  1.42e+02
   8.5900   63.2125   -1.3065  1.42e+02
   7.0243   62.2522   -3.3977  1.42e+02
   6.8538   63.8386   -3.6998  1.42e+02
   7.8944   65.1915   -4.5029  1.42e+02
   7.8424   65.0328   -4.1864  1.42e+02
   9.1762   63.4307   -4.2351  1.42e+02
   7.1313   63.2927   -0.8072  1.42e+02
   8.5501   64.9681    3.8684  1.40e+02
   7.4330   62.9881   -0.3463  1.42e+02
   7.3409   63.0739   -0.1871  1.42e+02
   7.3095   63.5555   -0.3824  1.42e+02
   4.6708   63.6188    5.3881  1.40e+02
   6.7516   62.3893    7.7305  1.40e+02
   8.5506   64.7458   -3.9198  1.42e+02
   8.0563   64.9514   -2.5010  1.42e+02
   6.7182   63.6612   -2.3241  1.42e+02
   4.4466   62.7826    6.3218  1.40e+02
   7.1070   61.1763   22.2642  1.35e+02
   8.8292   62.4227   -3.6327  1.42e+02
   6.7584   63.6005   -4.8116  1.42e+02
   6.8426   63.0047   -3.7994  1.42e+02
   6.6032   64.0601   -4.5364  1.42e+02
   6.6509   63.9599   -4.2164  1.42e+02
   6.1207   61.0049   12.5483  1.37e+02
   8.3772   64.8630   -2.7227  1.42e+02
   8.8284   60.3529   -3.1430  1.40e+02
   8.6923   66.0652    1.8125  1.40e+02
   1.4531   61.2899   14.7196  1.37e+02
   8.8099   62.7742   -2.2860  1.42e+02
   8.8695   62.6257   -2.1373  1.42e+02
   2.4425   64.8584    1.8879  1.37e+02
   7.9862   62.0281   -1.8640  1.42e+02
   9.1301   63.6596   -4.1187  1.42e+02
   8.2158   61.9103   -2.4609  1.42e+02
   6.9092   62.6118   -1.0537  1.42e+02
   7.1187   63.0210   -0.6142  1.42e+02
   6.9695   63.5400   -0.6620  1.42e+02
   7.3634   62.2370   -1.2280  1.42e+02
   6.6840   62.9118   -2.2828  1.42e+02
   6.7414   62.8125   -2.3740  1.42e+02
   5.5699   57.8156   19.9231  1.35e+02
   7.5520   64.3242   -0.6423  1.42e+02
   7.7118   65.0015   -4.9435  1.42e+02
   6.5515   66.3266    1.8221  1.40e+02
   9.2528   62.8550   -3.8742  1.42e+02
   6.8187   63.3581   -1.8102  1.42e+02
   6.6434   63.1526   -1.7273  1.42e+02
   8.9180   62.4401   -4.5301  1.42e+02
   9.0096   60.2353   -0.9810  1.40e+02
   5.3470   65.2637    2.0894  1.40e+02
   8.9593   62.9498   -1.8553  1.42e+02
   7.7386   63.8812   -0.1895  1.42e+02
   9.2702   63.2760   -3.7115  1.42e+02
   9.0907   63.6503   -4.8552  1.42e+02
   8.7730   63.8262   -2.4974  1.42e+02
  10.1256   61.5064   -4.4451  1.40e+02
  10.1297   61.7531   -4.9379  1.40e+02
   7.7512   62.8019   -0.0810  1.42e+02
   5.6000   64.4021    4.6347  1.40e+02
   8.9474   71.5016   43.9137  1.35e+02
   7.5330   70.2288   43.8994  1.35e+02
   7.6139   65.2962   -4.0993  1.42e+02
   7.2813   62.1317   -2.6268  1.42e+02
   6.6943   63.9762   -2.7409  1.42e+02
  10.3296   61.3484   -2.8299  1.40e+02
   4.4082   63.8355    2.6570  1.40e+02
   7.3839   61.8886   -3.7564  1.42e+02
   3.0313   68.8806   17.1525  1.35e+02
   8.3376   62.7067   -0.7669  1.42e+02
   3.2954   62.6968   -0.6697  1.37e+02
   4.6184   62.9105   -0.3874  1.39e+02
   8.1849   64.2821   -1.0020  1.42e+02
   8.5750   62.0248   -3.5397  1.42e+02
   6.9491   62.3538   -1.8446  1.42e+02
   7.3451   64.5390   -1.4066  1.42e+02
   7.4339   64.6220   -1.4768  1.42e+02
   6.9564   64.1694   -1.6331  1.42e+02
   8.8803   64.6272   -4.7987  1.42e+02
   6.7450   73.1828   32.8924  1.33e+02
   5.8676   70.0123   31.3913  1.33e+02
   8.7787   63.4379   -1.9500  1.42e+02
   4.6936   61.2626    2.4572  1.39e+02
   4.3834   61.5442    3.0617  1.39e+02
   8.2222   63.7506   -0.7734  1.42e+02
   8.2299   61.9313   -4.6479  1.42e+02
   8.8877   64.3815   -3.8455  1.42e+02
   7.5446   62.3432   -0.8845  1.42e+02
   5.0919   69.8920    3.2991  1.37e+02
   5.4089   62.4185   -3.7174  1.39e+02
   8.1722   62.4927   -1.2643  1.42e+02
   8.0773   65.1106   -3.7211  1.42e+02
   7.9720   64.3432   -0.6309  1.42e+02
   4.7400   63.8798    0.7572  1.39e+02
   5.0559   60.6479    4.4926  1.39e+02
   5.1290   61.0347    4.2188  1.39e+02
   6.8237   63.5055    7.3449  1.39e+02
   8.0438   62.7418   -0.3493  1.42e+02
   9.2556   63.0387   -4.8180  1.42e+02
   7.3323   62.7950   -0.2318  1.42e+02
   7.3607   63.7682   -0.1686  1.42e+02
   7.2146   63.9433   -0.1615  1.42e+02
   7.6340   63.3578    0.1162  1.42e+02
   7.7451   64.4290   -1.1151  1.42e+02
   8.0314   63.8324   -0.3539  1.42e+02
   7.8266   61.5749    5.4148  1.39e+02
  10.1238   65.2237   -1.5924  1.37e+02
   6.9492   62.3413   -4.2982  1.42e+02
   7.3076   64.1210   -0.8237  1.42e+02
   8.7636   64.2181   -2.6169  1.42e+02
   6.8934   60.3325    4.6500  1.39e+02
   8.4241   65.2993   -4.6615  1.42e+02
   7.5842   61.9018   -4.6986  1.42e+02
   7.0102   65.2827   36.8876  1.35e+02
   7.8606   62.4583   -0.8760  1.42e+02
   8.7685   62.2180   -4.6028  1.42e+02
   5.1437   62.9910   -4.9376  1.39e+02
   7.7192   62.0268   -1.6617  1.42e+02
   7.0457   64.5908   -2.3532  1.42e+02
   8.1643   63.1692   -0.4291  1.42e+02
   5.0251   65.2001    0.4468  1.39e+02
   8.5496   62.5012   -1.2020  1.42e+02
   8.5739   62.6477   -1.2228  1.42e+02
   7.9948   62.0079   -1.3404  1.42e+02
   7.0983   63.2953   -0.4237  1.42e+02
   9.0914   66.5667   -4.2950  1.39e+02
   7.7713   64.7120   -2.0535  1.42e+02
   8.8233   62.2702   -2.6274  1.42e+02
   7.6144   62.8747    0.1726  1.42e+02
   7.0473   62.6288   -0.5130  1.42e+02
   6.9140   62.4091   -1.6107  1.42e+02
   8.5566   61.8983   -4.4923  1.42e+02
   7.0004   63.9999   -0.8615  1.42e+02
   8.2716   65.2159   -3.9285  1.42e+02
   7.6655   60.9271    4.7220  1.39e+02
   7.4266   63.1301    0.0934  1.42e+02
   7.7655   63.5122    0.1765  1.42e+02
   6.8273   62.7433   -2.6345  1.42e+02
   6.6580   62.5210   -2.6847  1.42e+02
   9.1436   63.8762   -4.3534  1.42e+02
   9.1692   63.8919   -4.4798  1.42e+02
   8.5251   61.8756   -2.9074  1.42e+02
   8.6517   61.8764   -2.7210  1.42e+02
   8.2319   64.5510   -1.3925  1.42e+02
   7.2011   62.0108   -1.9219  1.42e+02
   7.3951   62.1722   -2.0036  1.42e+02
   7.8816   64.9405   -1.9012  1.42e+02
   7.8570   64.4173   -1.2392  1.42e+02
   8.0194   64.4837   -1.1143  1.42e+02
   6.8707   66.7776   -4.7918  1.39e+02
   9.8644   64.5227    0.1374  1.39e+02
   9.9405   64.1975    1.5256  1.39e+02
   3.9706   65.0356   -2.4698  1.37e+02
   7.4158   62.4831   -0.6390  1.42e+02
