NLLOC "./loc/alaska.20181130.180013.grid0" "LOCATED" "Location completed."
PUBLIC_ID None
SIGNATURE "NonLinLoc - ALomax Scientific   obs:./obs/2018-11-30-mww70-southern-alaska.obs   NLLoc:v7.00.13(17Jan2022)   run:13May2022 09h14m11"
COMMENT "2018-11-30 Mww7.0 Southern Alaska (NonLinLoc Sample Location)"
GRID  201 201 106  -100 -100 -5  1 1 1 PROB_DENSITY
SEARCH OCTREE nInitial 400 nEvaluated 20008 smallestNodeSide 0.156250/0.156250/0.205078 oct_tree_integral 8.173754e+01 scatter_volume 8.173754e+01
HYPOCENTER  x 2.57812 y 51.9531 z 36.7334  OT 6.54874  ix -1 iy -1 iz -1 MAXIMUM_LIKELIHOOD
GEOGRAPHIC  OT 2018 11 30  18 00 6.548737  Lat 61.466269 Long -149.951638 Depth 36.733398
QUALITY  Pmax 1.96491e+113 MFmin 33.2442 MFmax 33.4305 RMS 0.286928 Nphs 39 Gap 37.574 Dist 43.566 Mamp -9.90 0 Mdur -9.90 0
VPVSRATIO  VpVsRatio -1  Npair 0  Diff -2e+30
STATISTICS  ExpectX 2.524116 Y 51.894879 Z 37.289386  CovXX 1.21965 XY -0.395362 XZ 1.82701 YY 1.45215 YZ -0.288692 ZZ 20.6911 EllAz1  239.126 Dip1  4.08969 Len1  1.71281 Az2  329.38 Dip2  3.54603 Len2  2.42461 Len3  8.582452e+00
STAT_GEOG  ExpectLat 61.465747 Long -149.952652 Depth 37.289386
TRANSFORM  LAMBERT RefEllipsoid Clarke-1880  LatOrig 61.000000  LongOrig -150.000000  FirstStdParal 60.000000  SecondStdParal 62.000000  RotCW 0.000000
QML_OriginQuality  assocPhCt 63  usedPhCt 39  assocStaCt -1  usedStaCt 39  depthPhCt -1  stdErr 0.286928  azGap 37.574  secAzGap 51.9404  gtLevel -  minDist 43.566 maxDist 249.144 medDist 166.989
QML_OriginUncertainty  horUnc -1  minHorUnc 1.45765  maxHorUnc 2.00509  azMaxHorUnc 143.193
QML_ConfidenceEllipsoid  semiMajorAxisLength 8.58245  semiMinorAxisLength 1.71281  semiIntermediateAxisLength 2.42461  majorAxisPlunge 0  majorAxisAzimuth 0  majorAxisRotation 175.238
FOCALMECH  Hyp  61.466269 -149.951638 36.733398 Mech  0 0 0 mf  0 nObs -1
DIFFERENTIAL  Nhyp 0
PHASE ID Ins Cmp On Pha  FM Date     HrMn   Sec     Err  ErrMag    Coda      Amp       Per       PriorWt  >   TTpred    Res       Weight    StaLoc(X  Y         Z)        SDist    SAzim  RAz  RDip RQual    Tcorr       TTerr
AK_RC01_--   ?    BHZ  ? P      -0 20181130 1800   15.1200 GAU  8.00e-02 -1.00e+00  1.42e+01  1.28e+00    1.0000 >    8.4978    0.0734    1.4305   14.0814    9.9332   -0.3900   43.5660 164.69 164.7 120.7 10     0.0000   -1.0000
AT_PMR_--    ?    BHZ  ? P      ? 20181130 1800   15.2000 GAU  4.00e-02 -1.00e+00  1.25e+01  6.40e-01    1.0000 >    8.7075   -0.0563    1.4328   46.1491   66.2909   -0.1000   45.8694  71.79  71.8 118.6  9     0.0000   -1.0000
AK_GHO_--    ?    BHZ  ? P      0 20181130 1800   17.4284 GAU  6.00e-02 -1.00e+00  1.02e+01  2.56e+00    1.0000 >   10.9772   -0.0976    1.3795   56.6953   86.3740   -1.0320   64.1363  57.54  57.5 108.0  9     0.0000   -1.0000
AK_KNK_--    ?    BHZ  ? P      0 20181130 1800   19.7884 GAU  4.00e-02 -1.00e+00  1.66e+01  2.00e-02    1.0000 >   12.8475    0.3922    1.1062   82.3084   46.9963   -0.5980   79.8842  93.56  93.6 101.7  9     0.0000   -1.0000
AK_SAW_--    ?    BHZ  ? P      0 20181130 1800   20.9484 GAU  4.00e-02 -1.00e+00  1.47e+01  1.60e-01    1.0000 >   14.6248   -0.2252    1.2340   87.9646   91.0412   -0.7810   93.9081  65.40  65.4  98.2  9     0.0000   -1.0000
AV_STLK_--   ?    BHZ  ? P      ? 20181130 1800   22.4600 GAU  4.00e-02 -1.00e+00  1.09e+01  1.60e-01    1.0000 >   15.4636    0.4477    1.0278  -97.7049   56.8786   -0.9450  100.4040 272.81 272.8  97.2  9     0.0000   -1.0000
AK_CAPN_--   ?    BHZ  ? P      0 20181130 1800   23.5884 GAU  1.00e-01 -1.00e+00  1.56e+01  6.40e-01    1.0000 >   15.4416    1.5981    0.0928  -62.8803  -25.2610   -0.0470  101.2266 220.29 220.3  97.0  9     0.0000   -1.0000
AK_SKN_--    ?    BHZ  ? P      ? 20181130 1800   21.5884 GAU  4.00e-02 -1.00e+00  1.09e+01  4.00e-02    1.0000 >   15.5217   -0.4820    0.9356  -80.3077  110.1399   -0.5810  101.2707 305.07 305.1  97.0  9     0.0000   -1.0000
AV_SPBL_--   ?    BHZ  ? P      -0 20181130 1800   22.6200 GAU  8.00e-02 -1.00e+00  1.13e+01  3.20e-01    1.0000 >   15.9399    0.1314    1.2910 -101.2807   43.4033   -0.9270  104.2102 265.29 265.3  96.7  9     0.0000   -1.0000
AK_CUT_--    ?    BHZ  ? P      0 20181130 1800   22.2600 GAU  4.00e-02 -1.00e+00  1.10e+01  1.60e-01    1.0000 >   16.1124   -0.4011    1.0339  -13.5739  156.6879   -0.5740  105.9729 351.23 351.2  96.4  9     0.0000   -1.0000
AK_SLK_--    ?    BHZ  ? P      0 20181130 1800   22.7884 GAU  8.00e-02 -1.00e+00  1.37e+01  1.28e+00    1.0000 >   16.2990   -0.0593    1.2960  -12.2555  -54.3822   -0.6550  107.3649 187.94 187.9  96.3  9     0.0000   -1.0000
AK_PWL_--    ?    HNZ  ? P      0 20181130 1800   23.5845 GAU  2.55e-01 -1.00e+00  1.06e+01  1.02e+01    1.0000 >   16.6581    0.3777    1.0562   90.5585  -14.6245   -0.5500  110.3319 127.12 127.1  95.9  9     0.0000   -1.0000
AV_SPCG_--   ?    BHZ  ? P      0 20181130 1800   23.8800 GAU  1.80e-01 -1.00e+00  1.17e+01  3.20e-01    1.0000 >   17.0297    0.3016    1.1395 -108.4188   34.1306   -1.3290  112.4187 260.88 260.9  95.8  9     0.0000   -1.0000
AV_SPCP_--   ?    BHZ  ? P      0 20181130 1800   25.1080 GAU  4.00e-02 -1.00e+00  1.28e+01  2.00e-02    1.0000 >   18.0175    0.5417    0.9093 -115.5968   31.4831   -1.6160  119.9347 260.17 260.2  95.2  9     0.0000   -1.0000
AV_SPCR_--   ?    BHZ  ? P      -0 20181130 1800   25.0400 GAU  2.20e-01 -1.00e+00  1.46e+01  1.28e+00    1.0000 >   18.4965   -0.0052    1.2060 -118.7430   24.3192   -0.9840  124.4285 257.17 257.2  94.8  9     0.0000   -1.0000
AK_SCM_--    ?    BHZ  ? P      ? 20181130 1800   28.0284 GAU  8.00e-02 -1.00e+00  2.03e+01  4.00e-02    1.0000 >   21.0831    0.3966    1.0350  140.6889   95.5759   -1.0500  144.8362  72.47  72.5  93.7  9     0.0000   -1.0000
AK_SWD_--    ?    BHZ  ? P      -0 20181130 1800   28.3684 GAU  2.40e-01 -1.00e+00  1.01e+01  1.02e+01    1.0000 >   22.1259   -0.3062    1.0251   30.4489  -99.6652   -0.0770  154.1586 169.58 169.6  93.3  9     0.0000   -1.0000
AK_WAT7_--   ?    BHZ  ? P      0 20181130 1800   30.2684 GAU  2.00e-02 -1.00e+00  1.05e+01  2.00e-02    1.0000 >   23.3862    0.3335    1.0582   58.7508  204.8162   -1.2320  162.8573  20.18  20.2  93.1  9     0.0000   -1.0000
AV_RDT_--    ?    BHZ  ? P      0 20181130 1800   30.2000 GAU  8.00e-02 -1.00e+00  1.98e+01  6.40e-01    1.0000 >   23.7359   -0.0846    1.1419 -131.9721  -45.1925   -0.9300  165.9550 234.17 234.2  93.0  9     0.0000   -1.0000
AK_GLI_--    ?    HNZ  ? P      0 20181130 1800   30.0045 GAU  1.02e+00 -1.00e+00  1.01e+01  4.10e+01    1.0000 >   23.7969   -0.3411    0.6617  157.6640   -9.9635   -0.4300  166.9889 111.76 111.8  92.9  9     0.0000   -1.0000
AK_WAT1_--   ?    HNZ  ? P      -0 20181130 1800   30.6184 GAU  1.00e-01 -1.00e+00  1.12e+01  2.56e+00    1.0000 >   24.0394    0.0303    1.1443   73.8832  204.7152   -0.7220  168.5842  25.02  25.0  92.9  9     0.0000   -1.0000
AK_WAT6_--   ?    BHZ  ? P      0 20181130 1800   31.0484 GAU  8.00e-02 -1.00e+00  1.33e+01  6.40e-01    1.0000 >   24.3276    0.1721    1.1176  116.1703  178.1736   -1.6810  169.8081  41.99  42.0  92.9  9     0.0000   -1.0000
AV_RDJH_--   ?    BHZ  ? P      0 20181130 1800   32.5400 GAU  6.00e-02 -1.00e+00  1.07e+01  1.60e-01    1.0000 >   25.8983    0.0929    1.1090 -153.7080  -42.3314   -1.4140  182.5237 238.90 238.9  92.6  9     0.0000   -1.0000
AV_RDWB_--   ?    BHZ  ? P      0 20181130 1800   33.4600 GAU  1.00e-01 -1.00e+00  1.18e+01  6.40e-01    1.0000 >   26.9554   -0.0441    1.0844 -156.2149  -53.7095   -1.5460  190.7349 236.36 236.4  92.5  9     0.0000   -1.0000
AV_RED_--    ?    BHZ  ? P      0 20181130 1800   33.6000 GAU  8.00e-02 -1.00e+00  1.11e+01  6.40e-01    1.0000 >   27.0916   -0.0404    1.0854 -152.7839  -61.4282   -1.0710  192.3349 233.88 233.9  92.4  9     0.0000   -1.0000
AK_BRSE_--   ?    BHZ  ? P      -0 20181130 1800   33.8684 GAU  2.00e-01 -1.00e+00  1.50e+01  5.12e+00    1.0000 >   27.6018   -0.2821    0.9786  -41.6971 -139.9566   -0.5410  196.9508 192.99 193.0  92.3  9     0.0000   -1.0000
AK_PPLA_--   ?    BHZ  ? P      -0 20181130 1800   34.2084 GAU  1.40e-01 -1.00e+00  1.03e+01  1.28e+00    1.0000 >   27.7999   -0.1403    1.0425 -111.3681  213.1967   -1.5190  197.4417 324.75 324.8  92.3  9     0.0000   -1.0000
AK_BRLK_--   ?    BHZ  ? P      0 20181130 1800   33.7884 GAU  8.00e-02 -1.00e+00  1.03e+01  1.28e+00    1.0000 >   27.7307   -0.4910    0.8671  -50.9563 -138.7927   -0.4090  198.1159 195.68 195.7  92.3  9     0.0000   -1.0000
AK_FID_--    ?    BHZ  ? P      -0 20181130 1800   34.3684 GAU  1.20e-01 -1.00e+00  1.01e+01  5.12e+00    1.0000 >   27.8124    0.0072    1.0685  185.5109  -25.5209   -0.5000  198.6621 112.95 113.0  92.3  9     0.0000   -1.0000
AK_KLU_--    ?    BHZ  ? P      0 20181130 1800   37.7684 GAU  1.20e-01 -1.00e+00  1.23e+01  1.28e+00    1.0000 >   29.9146    1.3051    0.3279  217.0370   61.6207   -1.0471  214.6766  87.42  87.4  92.1  9     0.0000   -1.0000
AK_HIN_--    ?    HNZ  ? P      0 20181130 1800   37.2195 GAU  2.95e-01 -1.00e+00  1.00e+01  1.02e+01    1.0000 >   30.7452   -0.0744    0.9635  192.6700  -62.1501   -0.6229  221.7081 120.97 121.0  92.0  9     0.0000   -1.0000
AK_TRF_--    ?    BHZ  ? P      -0 20181130 1800   37.3884 GAU  8.00e-02 -1.00e+00  1.30e+01  3.20e-01    1.0000 >   30.9139   -0.0743    1.0124  -14.4406  273.1461   -1.7099  221.8467 355.60 355.6  92.0  9     0.0000   -1.0000
AK_HOM_--    ?    BHZ  ? P      0 20181130 1800   37.3284 GAU  1.00e-01 -1.00e+00  1.13e+01  1.28e+00    1.0000 >   30.7341    0.0456    1.0195  -93.1125 -148.4338   -0.2210  222.0621 205.53 205.5  92.0  9     0.0000   -1.0000
AK_DIV_--    ?    BHZ  ? P      0 20181130 1800   41.1484 GAU  4.00e-02 -1.00e+00  2.27e+01  2.00e-02    1.0000 >   31.4520    3.1476    0.0075  227.5020   21.7345   -0.9414  226.9447  97.65  97.7  91.9  9     0.0000   -1.0000
AK_CNP_--    ?    BHZ  ? P      0 20181130 1800   37.5084 GAU  1.20e-01 -1.00e+00  1.50e+01  6.40e-01    1.0000 >   31.4722   -0.5125    0.8209  -70.0410 -163.6652   -0.5640  227.5188 198.61 198.6  91.9  9     0.0000   -1.0000
AV_IVE_--    ?    BHZ  ? P      0 20181130 1800   38.6000 GAU  1.00e-01 -1.00e+00  1.17e+01  8.00e-01    1.0000 >   32.1879   -0.1367    0.9777 -168.2986 -105.7187   -1.1730  232.5065 227.30 227.3  91.9  9     0.0000   -1.0000
AV_ILS_--    ?    BHZ  ? P      0 20181130 1800   39.6200 GAU  8.00e-02 -1.00e+00  1.29e+01  6.40e-01    1.0000 >   33.0350    0.0363    0.9831 -171.4944 -112.1841   -1.1250  239.2536 226.68 226.7  91.8  9     0.0000   -1.0000
AV_ILSW_--   ?    BHZ  ? P      0 20181130 1800   39.7080 GAU  1.40e-01 -1.00e+00  1.23e+01  6.40e-01    1.0000 >   33.1566    0.0027    0.9728 -175.3844 -109.0772   -1.3180  240.0030 227.86 227.9  91.8  9     0.0000   -1.0000
AK_EYAK_--   ?    BHZ  ? P      0 20181130 1800   40.4684 GAU  1.00e-01 -1.00e+00  1.10e+01  2.56e+00    1.0000 >   34.1486   -0.2290    0.9242  233.0342  -42.7188   -0.1339  249.1440 112.33 112.3  91.7  9     0.0000   -1.0000
AV_WACK_--   ?    BHZ  ? P      0 20181130 1800   50.1600 GAU  1.00e-01 -1.00e+00  1.16e+01  6.40e-01    1.0000 >    0.0000    0.0000    0.0000  296.8555  122.7019   -2.2800    0.0000   0.00 359.0  -1.0  0     0.0000   -1.0000
AK_KTH_--    ?    BHZ  ? P      -0 20181130 1800   39.4284 GAU  1.20e-01 -1.00e+00  1.11e+01  1.28e+00    1.0000 >    0.0000    0.0000    0.0000  -45.9401  284.8846   -1.1720    0.0000   0.00 359.0  -1.0  0     0.0000   -1.0000
AV_WASW_--   ?    SHZ  ? P      -0 20181130 1800   52.1000 GAU  1.20e-01 -1.00e+00  1.00e+01  5.12e+00    1.0000 >    0.0000    0.0000    0.0000  305.5778  116.9688   -2.1960    0.0000   0.00 359.0  -1.0  0     0.0000   -1.0000
AK_RAG_--    ?    BHZ  ? P      ? 20181130 1800   52.7084 GAU  1.00e-01 -1.00e+00  1.44e+01  2.00e-02    1.0000 >    0.0000    0.0000    0.0000  293.2037  -56.4555   -0.7520    0.0000   0.00 359.0  -1.0  0     0.0000   -1.0000
AK_CAST_--   ?    BHZ  ? P      0 20181130 1800   39.9684 GAU  1.20e-01 -1.00e+00  1.04e+01  1.28e+00    1.0000 >    0.0000    0.0000    0.0000 -104.1740  271.2800   -0.6110    0.0000   0.00 359.0  -1.0  0     0.0000   -1.0000
AK_GLB_--    ?    BHZ  ? P      0 20181130 1800   53.8684 GAU  1.20e-01 -1.00e+00  1.08e+01  5.12e+00    1.0000 >    0.0000    0.0000    0.0000  329.6303   64.7945   -0.8549    0.0000   0.00 359.0  -1.0  0     0.0000   -1.0000
AK_HMT_--    ?    BHZ  ? P      0 20181130 1800   55.8084 GAU  8.00e-02 -1.00e+00  1.01e+01  6.40e-01    1.0000 >    0.0000    0.0000    0.0000  316.5073  -60.2082   -0.6290    0.0000   0.00 359.0  -1.0  0     0.0000   -1.0000
AK_MCK_--    ?    BHZ  ? P      -0 20181130 1800   42.0484 GAU  3.40e-01 -1.00e+00  1.13e+01  1.28e+00    1.0000 >    0.0000    0.0000    0.0000   52.5517  304.9713   -0.6180    0.0000   0.00 359.0  -1.0  0     0.0000   -1.0000
AK_CHUM_--   ?    BHZ  ? P      -0 20181130 1800   45.9084 GAU  1.00e-01 -1.00e+00  1.08e+01  6.40e-01    1.0000 >    0.0000    0.0000    0.0000 -113.8756  323.3981   -0.2170    0.0000   0.00 359.0  -1.0  0     0.0000   -1.0000
AK_BPAW_--   ?    BHZ  ? P      -0 20181130 1800   46.0684 GAU  1.60e-01 -1.00e+00  1.38e+01  6.40e-01    1.0000 >    0.0000    0.0000    0.0000  -48.2048  345.9705   -0.6190    0.0000   0.00 359.0  -1.0  0     0.0000   -1.0000
AK_PAX_--    ?    BHZ  ? P      -0 20181130 1800   47.3884 GAU  1.60e-01 -1.00e+00  1.35e+01  1.28e+00    1.0000 >    0.0000    0.0000    0.0000  229.7234  227.5003   -1.1500    0.0000   0.00 359.0  -1.0  0     0.0000   -1.0000
AV_AU22_--   ?    BHZ  ? P      ? 20181130 1800   47.6600 GAU  2.00e-02 -1.00e+00  1.56e+01  2.00e-02    1.0000 >    0.0000    0.0000    0.0000 -190.8613 -176.6951   -0.1050    0.0000   0.00 359.0  -1.0  0     0.0000   -1.0000
AV_AUSB_--   ?    BHZ  ? P      -0 20181130 1800   47.8400 GAU  8.00e-02 -1.00e+00  1.06e+01  1.28e+00    1.0000 >    0.0000    0.0000    0.0000 -195.1169 -180.6255   -0.2300    0.0000   0.00 359.0  -1.0  0     0.0000   -1.0000
AV_AUCH_--   ?    BHZ  ? P      -0 20181130 1800   47.9600 GAU  2.40e-01 -1.00e+00  1.15e+01  1.02e+01    1.0000 >    0.0000    0.0000    0.0000 -195.8701 -177.2832   -0.9160    0.0000   0.00 359.0  -1.0  0     0.0000   -1.0000
AV_AUJA_--   ?    BHZ  ? P      0 20181130 1800   48.1200 GAU  1.40e-01 -1.00e+00  1.08e+01  1.28e+00    1.0000 >    0.0000    0.0000    0.0000 -194.7545 -179.9192   -0.3760    0.0000   0.00 359.0  -1.0  0     0.0000   -1.0000
AT_SVW2_--   ?    BHZ  ? P      -0 20181130 1800   48.1600 GAU  6.00e-02 -1.00e+00  1.33e+01  2.00e-02    1.0000 >    0.0000    0.0000    0.0000 -302.7416   25.0539   -0.4988    0.0000   0.00 359.0  -1.0  0     0.0000   -1.0000
AV_AUL_--    ?    BHZ  ? P      -0 20181130 1800   48.1800 GAU  1.20e-01 -1.00e+00  1.03e+01  3.20e-01    1.0000 >    0.0000    0.0000    0.0000 -195.3724 -175.1891   -0.3600    0.0000   0.00 359.0  -1.0  0     0.0000   -1.0000
AV_AUWS_--   ?    BHZ  ? P      0 20181130 1800   48.2600 GAU  1.60e-01 -1.00e+00  1.02e+01  1.28e+00    1.0000 >    0.0000    0.0000    0.0000 -196.8087 -177.6909   -0.4870    0.0000   0.00 359.0  -1.0  0     0.0000   -1.0000
AK_BWN_--    ?    BHZ  ? P      0 20181130 1800   48.3284 GAU  6.00e-02 -1.00e+00  1.20e+01  2.00e-02    1.0000 >    0.0000    0.0000    0.0000   34.1339  353.9956   -0.3560    0.0000   0.00 359.0  -1.0  0     0.0000   -1.0000
AK_BMR_--    ?    BHZ  ? P      ? 20181130 1800   49.8684 GAU  2.00e-02 -1.00e+00  1.50e+01  2.00e-02    1.0000 >    0.0000    0.0000    0.0000  291.8435    8.4259   -0.8420    0.0000   0.00 359.0  -1.0  0     0.0000   -1.0000
AK_RND_--    ?    BHZ  ? P      -0 20181130 1800   37.5684 GAU  8.00e-02 -1.00e+00  1.28e+01  3.20e-01    1.0000 >    0.0000    0.0000    0.0000   56.9974  268.6460   -0.9936    0.0000   0.00 359.0  -1.0  0     0.0000   -1.0000
AK_GOAT_--   ?    BHZ  ? P      ? 20181130 1800   49.9084 GAU  4.00e-02 -1.00e+00  1.37e+01  2.00e-02    1.0000 >    0.0000    0.0000    0.0000  288.6122  -35.1201   -0.8955    0.0000   0.00 359.0  -1.0  0     0.0000   -1.0000
AK_DHY_--    ?    BHZ  ? P      0 20181130 1800   37.9684 GAU  2.40e-01 -1.00e+00  1.02e+01  1.28e+00    1.0000 >    0.0000    0.0000    0.0000  132.6689  233.9657   -1.6110    0.0000   0.00 359.0  -1.0  0     0.0000   -1.0000
NP040_D0     ?    HNZ  ? P      -0 20181130 1800   13.9145 GAU  2.55e-01 -1.00e+00  1.16e+01  1.02e+01    1.0000 >    0.0000    0.0000    0.0000 -100000000000000000000.0000 -100000000000000000000.0000 -100000000000000000000.0000    0.0000   0.00 359.0  -1.0  0     0.0000   -1.0000
END_PHASE
SCATTER Nsamples 4912
   3.3450   51.8427   41.4940  2.67e+02
   2.1157   49.5390   31.5349  2.65e+02
   2.4079   52.3108   41.0676  2.67e+02
   2.1128   49.4078   40.4060  2.65e+02
   3.0768   51.4189   33.1440  2.67e+02
   3.0094   51.5506   41.6515  2.67e+02
   1.5882   52.6726   32.0456  2.67e+02
   3.0718   51.1121   28.9940  2.65e+02
   1.4581   52.7934   35.6522  2.67e+02
   1.4834   52.5459   35.9392  2.67e+02
   1.5403   51.8994   33.4130  2.67e+02
   3.1725   47.6192   39.2844  2.63e+02
   2.3722   51.6014   41.2265  2.67e+02
   2.4554   51.6716   41.1885  2.67e+02
   2.5989   52.3318   41.6501  2.67e+02
   2.5062   52.3071   41.4940  2.67e+02
   1.8102   51.5111   36.2942  2.67e+02
   1.5875   51.3385   36.0885  2.67e+02
   3.3065   50.7184   37.7743  2.67e+02
   3.2455   50.8106   37.7468  2.67e+02
   0.4585   52.6809   29.6045  2.65e+02
   0.5478   53.0037   29.8249  2.65e+02
   1.7387   51.3323   33.6794  2.67e+02
   1.8405   51.4623   33.6566  2.67e+02
   1.5294   51.8929   35.9425  2.67e+02
   2.9923   50.6517   38.9513  2.67e+02
   3.4919   51.5630   40.4104  2.67e+02
   2.9245   51.8667   42.0516  2.67e+02
   3.0307   51.7611   41.9168  2.67e+02
   2.3776   51.3421   32.1305  2.67e+02
   2.2252   51.2713   32.1486  2.67e+02
   3.3599   50.5728   30.4209  2.65e+02
   3.5107   50.6090   30.6936  2.65e+02
   3.6853   51.2045   38.7793  2.67e+02
   3.4886   51.1783   38.6023  2.67e+02
   2.5836   52.9842   39.0316  2.67e+02
   2.5079   52.9369   39.2583  2.67e+02
   1.7920   51.8783   39.0469  2.67e+02
   1.7179   51.9657   39.2793  2.67e+02
   1.5972   53.0011   37.5053  2.67e+02
   3.1709   51.0869   40.8906  2.67e+02
   3.2753   51.1456   40.5441  2.67e+02
   2.9474   52.3179   33.2163  2.67e+02
   1.9751   51.1523   33.7106  2.67e+02
   3.4989   51.7419   36.8856  2.67e+02
   3.5883   51.7359   37.0666  2.67e+02
   3.1965   50.8179   38.6080  2.67e+02
   3.2466   49.8457   43.9457  2.65e+02
   3.2593   50.7828   37.2392  2.67e+02
   4.9240   50.4336   36.4364  2.65e+02
   2.3311   50.9958   39.4671  2.67e+02
   3.0714   52.5078   46.9914  2.65e+02
   3.0460   49.5485   42.7789  2.65e+02
   2.5663   49.9581   43.1978  2.65e+02
   3.4007   51.1438   34.8274  2.67e+02
   3.3165   50.9618   35.0141  2.67e+02
   2.4028   52.7696   40.6959  2.67e+02
   3.3769   52.3714   40.8783  2.67e+02
   3.4598   50.9765   37.9974  2.67e+02
   2.1861   51.0265   37.4058  2.67e+02
   0.2282   53.1631   37.5678  2.65e+02
   2.5972   51.7511   31.9200  2.67e+02
   2.6029   51.7096   32.1719  2.67e+02
   4.7394   51.2353   35.3469  2.65e+02
   3.5219   52.1602   39.0475  2.67e+02
   3.4698   51.9180   38.9424  2.67e+02
   2.2315   53.0430   39.3361  2.67e+02
   2.3805   53.0443   39.4753  2.67e+02
   2.7708   50.8723   38.7593  2.67e+02
   2.6851   50.6391   38.5463  2.67e+02
   2.7681   51.9869   41.7859  2.67e+02
   2.6935   51.9204   41.9496  2.67e+02
   2.1452   53.3266   45.1117  2.65e+02
   3.5518   51.1238   39.4298  2.67e+02
   3.6701   51.0437   39.3953  2.67e+02
   2.3212   51.2639   40.8225  2.67e+02
   3.5205   52.1794   38.0800  2.67e+02
   3.5264   51.8999   38.3684  2.67e+02
   3.1190   50.1714   45.5396  2.65e+02
   2.8378   51.1966   33.4088  2.67e+02
   3.6423   51.4726   36.6819  2.67e+02
   2.8530   50.7264   35.1075  2.67e+02
   1.3318   52.2387   36.9680  2.67e+02
   2.0188   51.4995   39.4340  2.67e+02
   1.6159   52.4260   31.6259  2.67e+02
   1.7520   52.3001   31.7751  2.67e+02
   2.4400   51.9055   41.7560  2.67e+02
