NLLOC "./loc/alaska.20181130.182148.grid0" "LOCATED" "Location completed."
PUBLIC_ID None
SIGNATURE "NonLinLoc - ALomax Scientific   obs:./obs/2018-11-30-mww70-southern-alaska.obs   NLLoc:v7.00.13(17Jan2022)   run:13May2022 09h14m11"
COMMENT "2018-11-30 Mww7.0 Southern Alaska (NonLinLoc Sample Location)"
GRID  201 201 106  -100 -100 -5  1 1 1 PROB_DENSITY
SEARCH OCTREE nInitial 400 nEvaluated 20008 smallestNodeSide 0.156250/0.156250/0.205078 oct_tree_integral 9.498760e+01 scatter_volume 9.498760e+01
HYPOCENTER  x -7.10938 y 51.1719 z -4.4873  OT 40.867  ix -1 iy -1 iz -1 MAXIMUM_LIKELIHOOD
GEOGRAPHIC  OT 2018 11 30  18 21 40.866968  Lat 61.459201 Long -150.133331 Depth -4.487305
QUALITY  Pmax 1.38827e+70 MFmin 21.4333 MFmax 22.7676 RMS 1.13994 Nphs 30 Gap 47.6394 Dist 46.3646 Mamp -9.90 0 Mdur -9.90 0
VPVSRATIO  VpVsRatio -1  Npair 0  Diff -2e+30
STATISTICS  ExpectX -5.944739 Y 49.422940 Z -2.099616  CovXX 3.1035 XY -2.45219 XZ 0.373308 YY 6.16227 YZ -0.485521 ZZ 5.22458 EllAz1  61.1349 Dip1  -1.52148 Len1  2.47866 Az2  337.255 Dip2  76.0108 Len2  4.23344 Len3  5.204333e+00
STAT_GEOG  ExpectLat 61.443525 Long -150.111433 Depth -2.099616
TRANSFORM  LAMBERT RefEllipsoid Clarke-1880  LatOrig 61.000000  LongOrig -150.000000  FirstStdParal 60.000000  SecondStdParal 62.000000  RotCW 0.000000
QML_OriginQuality  assocPhCt 37  usedPhCt 30  assocStaCt -1  usedStaCt 30  depthPhCt -1  stdErr 1.13994  azGap 47.6394  secAzGap 82.8897  gtLevel -  minDist 46.3646 maxDist 257.846 medDist 154.884
QML_OriginUncertainty  horUnc -1  minHorUnc 2.00214  maxHorUnc 4.15965  azMaxHorUnc 150.975
QML_ConfidenceEllipsoid  semiMajorAxisLength 5.20433  semiMinorAxisLength 2.47866  semiIntermediateAxisLength 4.23344  majorAxisPlunge 0  majorAxisAzimuth 0  majorAxisRotation 358.263
FOCALMECH  Hyp  61.459201 -150.133331 -4.487305 Mech  0 0 0 mf  0 nObs -1
DIFFERENTIAL  Nhyp 0
PHASE ID Ins Cmp On Pha  FM Date     HrMn   Sec     Err  ErrMag    Coda      Amp       Per       PriorWt  >   TTpred    Res       Weight    StaLoc(X  Y         Z)        SDist    SAzim  RAz  RDip RQual    Tcorr       TTerr
AK_RC01_--   ?    BHZ  ? P      -0 20181130 1821   49.6800 GAU  4.00e-02 -1.00e+00  1.77e+01  2.00e-02    1.0000 >    8.7981    0.0149    1.2878   14.0814    9.9332   -0.3900   46.3646 152.80 332.8 200.0  0     0.0000   -1.0000
AT_PMR_--    ?    BHZ  ? S      0 20181130 1821   58.7400 GAU  8.00e-02 -1.00e+00  1.24e+01  2.56e+00    1.0000 >   17.6303    0.2427    1.1318   46.1491   66.2909   -0.1000   55.3629  74.15 254.2 200.0  0     0.0000   -1.0000
AK_GHO_--    ?    BHZ  ? S      0 20181130 1822    3.5884 GAU  1.40e-01 -1.00e+00  1.18e+01  2.56e+00    1.0000 >   23.1350   -0.4135    1.2496   56.6953   86.3740   -1.0320   72.8713  61.11 241.1 200.0  0     0.0000   -1.0000
AK_KNK_--    ?    BHZ  ? S      ? 20181130 1822    6.3084 GAU  4.00e-02 -1.00e+00  1.30e+01  6.40e-01    1.0000 >   27.4275   -1.9861    0.8825   82.3084   46.9963   -0.5980   89.5153  92.67 272.7 200.0  0     0.0000   -1.0000
AV_STLK_--   ?    BHZ  ? S      -0 20181130 1822    8.7200 GAU  6.00e-02 -1.00e+00  1.80e+01  1.28e+00    1.0000 >   27.8038    0.0492    1.1620  -97.7049   56.8786   -0.9450   90.7751 273.60  93.6 200.0  0     0.0000   -1.0000
AK_SKN_--    ?    BHZ  ? S      0 20181130 1822    9.2284 GAU  8.00e-02 -1.00e+00  1.57e+01  1.28e+00    1.0000 >   28.5137   -0.1522    1.2126  -80.3077  110.1399   -0.5810   93.9958 308.85 128.9 200.0  0     0.0000   -1.0000
AV_SPBL_--   ?    BHZ  ? S      ? 20181130 1822    9.4200 GAU  1.20e-01 -1.00e+00  1.93e+01  1.60e-01    1.0000 >   28.7036   -0.1505    1.2085 -101.2807   43.4033   -0.9270   94.4913 265.28  85.3 200.0  0     0.0000   -1.0000
AV_SPCG_--   ?    BHZ  ? P      -0 20181130 1821   57.9600 GAU  1.00e-01 -1.00e+00  1.23e+01  1.28e+00    1.0000 >   18.2951   -1.2021    1.1197 -108.4188   34.1306   -1.3290  102.7327 260.45  80.5 200.0  0     0.0000   -1.0000
AK_SAW_--    ?    BHZ  ? P      ? 20181130 1821   57.2484 GAU  8.00e-02 -1.00e+00  1.40e+01  3.20e-01    1.0000 >   18.2737   -1.8923    0.9168   87.9646   91.0412   -0.7810  103.0952  67.25 247.2 200.0  0     0.0000   -1.0000
AK_SLK_--    ?    BHZ  ? S      0 20181130 1822    9.0684 GAU  1.20e-01 -1.00e+00  1.08e+01  5.12e+00    1.0000 >   31.2612   -3.0598    0.3369  -12.2555  -54.3822   -0.6550  105.6794 182.79   2.8 200.0  0     0.0000   -1.0000
AK_CUT_--    ?    BHZ  ? S      ? 20181130 1822   11.4200 GAU  6.00e-02 -1.00e+00  1.12e+01  6.40e-01    1.0000 >   31.2512   -0.6981    1.2174  -13.5739  156.6879   -0.5740  105.7139 356.49 176.5 200.0  0     0.0000   -1.0000
AV_SPCP_--   ?    BHZ  ? P      -0 20181130 1821   59.0080 GAU  2.00e-01 -1.00e+00  1.05e+01  2.56e+00    1.0000 >   19.3528   -1.2118    1.1273 -115.5968   31.4831   -1.6160  110.2595 259.71  79.7 200.0  0     0.0000   -1.0000
AV_SPCR_--   ?    BHZ  ? P      0 20181130 1821   59.4000 GAU  6.00e-02 -1.00e+00  1.29e+01  6.40e-01    1.0000 >   19.8862   -1.3532    1.0977 -118.7430   24.3192   -0.9840  114.8178 256.47  76.5 200.0  0     0.0000   -1.0000
AK_PWL_--    ?    HNZ  ? P      -0 20181130 1821   58.4795 GAU  1.25e-01 -1.00e+00  1.14e+01  5.12e+00    1.0000 >   20.2275   -2.6150    0.5237   90.5585  -14.6245   -0.5500  117.7633 123.97 304.0 200.0  0     0.0000   -1.0000
AK_SCM_--    ?    BHZ  ? P      -0 20181130 1822    3.7284 GAU  4.00e-02 -1.00e+00  1.00e+01  8.00e-02    1.0000 >   25.1260   -2.2646    0.7408  140.6889   95.5759   -1.0500  154.3244  73.28 253.3 200.0  0     0.0000   -1.0000
AK_SWD_--    ?    BHZ  ? S      -0 20181130 1822   23.7484 GAU  6.00e-02 -1.00e+00  1.14e+01  1.28e+00    1.0000 >   42.2336    0.6479    0.7917   30.4489  -99.6652   -0.0770  155.4427 166.02 346.0 200.0  0     0.0000   -1.0000
AV_RDT_--    ?    BHZ  ? S      ? 20181130 1822   22.7400 GAU  8.00e-02 -1.00e+00  1.12e+01  2.56e+00    1.0000 >   42.9260   -1.0530    1.1339 -131.9721  -45.1925   -0.9300  157.7238 232.34  52.3 200.0  0     0.0000   -1.0000
AK_WAT7_--   ?    BHZ  ? S      0 20181130 1822   26.2284 GAU  8.00e-02 -1.00e+00  1.11e+01  1.28e+00    1.0000 >   45.0549    0.3065    0.9451   58.7508  204.8162   -1.2320  167.1651  23.20 203.2 200.0  0     0.0000   -1.0000
AK_WAT1_--   ?    HNZ  ? S      -0 20181130 1822   26.7784 GAU  6.00e-02 -1.00e+00  1.02e+01  6.40e-01    1.0000 >   46.3414   -0.4300    1.1328   73.8832  204.7152   -0.7220  173.5953  27.81 207.8 200.0  0     0.0000   -1.0000
AV_RDJH_--   ?    BHZ  ? P      0 20181130 1822    6.5000 GAU  4.00e-02 -1.00e+00  1.07e+01  8.00e-02    1.0000 >   27.7150   -2.0820    0.8369 -153.7080  -42.3314   -1.4140  173.8793 237.47  57.5 200.0  0     0.0000   -1.0000
AK_WAT6_--   ?    BHZ  ? S      0 20181130 1822   27.1684 GAU  3.40e-01 -1.00e+00  1.02e+01  2.56e+00    1.0000 >   47.3022   -1.0008    1.1015  116.1703  178.1736   -1.6810  176.9953  44.15 224.1 200.0  0     0.0000   -1.0000
AV_RDWB_--   ?    BHZ  ? P      ? 20181130 1822    7.9600 GAU  4.00e-02 -1.00e+00  1.10e+01  8.00e-02    1.0000 >   28.8264   -1.7334    0.9864 -156.2149  -53.7095   -1.5460  182.2980 234.88  54.9 200.0  0     0.0000   -1.0000
AV_RED_--    ?    BHZ  ? S      0 20181130 1822   29.3200 GAU  6.00e-02 -1.00e+00  1.18e+01  6.40e-01    1.0000 >   48.7172   -0.2642    1.0923 -152.7839  -61.4282   -1.0710  184.1192 232.30  52.3 200.0  0     0.0000   -1.0000
AK_BRSE_--   ?    BHZ  ? S      -0 20181130 1822   31.9884 GAU  1.00e-01 -1.00e+00  1.00e+01  1.28e+00    1.0000 >   50.8027    0.3187    0.9127  -41.6971 -139.9566   -0.5410  194.2328 190.26  10.3 200.0  0     0.0000   -1.0000
AK_BRLK_--   ?    BHZ  ? S      0 20181130 1822   31.0284 GAU  2.40e-01 -1.00e+00  1.05e+01  1.02e+01    1.0000 >   50.9309   -0.7694    1.1039  -50.9563 -138.7927   -0.4090  194.9592 193.00  13.0 200.0  0     0.0000   -1.0000
AK_CNP_--    ?    BHZ  ? S      0 20181130 1822   38.5284 GAU  1.40e-01 -1.00e+00  1.22e+01  5.12e+00    1.0000 >   57.2730    0.3884    0.8588  -70.0410 -163.6652   -0.5640  223.8646 196.33  16.3 200.0  0     0.0000   -1.0000
AK_KLU_--    ?    BHZ  ? S      ? 20181130 1822   38.0884 GAU  8.00e-02 -1.00e+00  1.03e+01  1.28e+00    1.0000 >   57.4980   -0.2765    1.0308  217.0370   61.6207   -1.0471  224.3897  87.33 267.3 200.0  0     0.0000   -1.0000
AK_HIN_--    ?    HNZ  ? P      ? 20181130 1822   15.6045 GAU  1.00e-02 -1.00e+00  1.14e+01  4.00e-02    1.0000 >   34.8546   -0.1170    1.1610  192.6700  -62.1501   -0.6229  229.6817 119.56 299.6 200.0  0     0.0000   -1.0000
AK_DIV_--    ?    BHZ  ? S      0 20181130 1822   39.0284 GAU  4.00e-02 -1.00e+00  1.23e+01  2.00e-02    1.0000 >   60.1046   -1.9432    0.8357  227.5020   21.7345   -0.9414  236.4509  97.15 277.2 200.0  0     0.0000   -1.0000
AK_EYAK_--   ?    BHZ  ? P      ? 20181130 1822   19.8084 GAU  4.00e-02 -1.00e+00  3.02e+01  2.00e-02    1.0000 >   38.4080    0.5335    0.8614  233.0342  -42.7188   -0.1339  257.8456 111.35 291.4 200.0  0     0.0000   -1.0000
AK_DHY_--    ?    BHZ  ? S      0 20181130 1822   42.2284 GAU  1.20e-01 -1.00e+00  1.03e+01  5.12e+00    1.0000 >    0.0000    0.0000    0.0000  132.6689  233.9657   -1.6110    0.0000   0.00 359.0  -1.0  0     0.0000   -1.0000
NP_AHOU1     ?    HNZ  ? P      0 20181130 1821   49.5150 GAU  4.00e-02 -1.00e+00  1.14e+01  6.40e-01    1.0000 >    0.0000    0.0000    0.0000 -100000000000000000000.0000 -100000000000000000000.0000 -100000000000000000000.0000    0.0000   0.00 359.0  -1.0  0     0.0000   -1.0000
NP_ABBK1     ?    HNZ  ? P      -0 20181130 1821   49.5250 GAU  1.00e-02 -1.00e+00  1.03e+01  5.00e-03    1.0000 >    0.0000    0.0000    0.0000 -100000000000000000000.0000 -100000000000000000000.0000 -100000000000000000000.0000    0.0000   0.00 359.0  -1.0  0     0.0000   -1.0000
AK_CAST_--   ?    BHZ  ? P      -0 20181130 1822   16.0484 GAU  4.00e-02 -1.00e+00  1.01e+01  4.00e-02    1.0000 >    0.0000    0.0000    0.0000 -104.1740  271.2800   -0.6110    0.0000   0.00 359.0  -1.0  0     0.0000   -1.0000
AK_KTH_--    ?    BHZ  ? P      -0 20181130 1822   16.1684 GAU  4.00e-02 -1.00e+00  1.25e+01  4.00e-02    1.0000 >    0.0000    0.0000    0.0000  -45.9401  284.8846   -1.1720    0.0000   0.00 359.0  -1.0  0     0.0000   -1.0000
AK_CHUM_--   ?    BHZ  ? P      ? 20181130 1822   22.6084 GAU  4.00e-02 -1.00e+00  2.00e+01  4.00e-02    1.0000 >    0.0000    0.0000    0.0000 -113.8756  323.3981   -0.2170    0.0000   0.00 359.0  -1.0  0     0.0000   -1.0000
NP040_D0     ?    HNZ  ? P      -0 20181130 1821   48.5745 GAU  1.00e-02 -1.00e+00  1.11e+01  5.00e-03    1.0000 >    0.0000    0.0000    0.0000 -100000000000000000000.0000 -100000000000000000000.0000 -100000000000000000000.0000    0.0000   0.00 359.0  -1.0  0     0.0000   -1.0000
END_PHASE
SCATTER Nsamples 4960
  -9.6320   54.1189   -3.4409  1.66e+02
  -5.4374   49.8299   -4.9008  1.68e+02
  -5.5970   50.6023   -2.3987  1.68e+02
  -6.2421   51.6551   -4.8414  1.68e+02
  -8.8909   49.3069    2.2148  1.64e+02
  -6.4107   48.8649   -3.1097  1.68e+02
  -7.5518   49.9625   -4.2054  1.68e+02
  -6.0281   48.8006   -1.7579  1.68e+02
  -7.4148   52.7277   -4.1099  1.68e+02
  -5.1643   48.1046   -4.4963  1.68e+02
  -5.1004   48.1103   -4.2576  1.68e+02
  -5.4523   48.9821   -2.7251  1.68e+02
  -5.7197   49.5508   -0.5964  1.68e+02
  -6.3886   48.8819   -3.7946  1.68e+02
  -5.9146   50.1894   -0.8665  1.68e+02
  -5.6269   50.2953   -0.7598  1.68e+02
  -8.2033   50.8623   -4.3959  1.68e+02
  -5.6097   50.4286   -3.2047  1.68e+02
  -4.3243   48.5630    2.6704  1.66e+02
  -3.7726   48.7222    2.7330  1.66e+02
  -5.0189   48.1687   -4.1190  1.68e+02
  -5.7446   48.6990   -4.3275  1.68e+02
  -6.7641   49.3038   -2.2446  1.68e+02
  -6.1460   50.3424   -0.5265  1.68e+02
  -4.4524   44.7660   -0.4924  1.66e+02
  -5.3323   48.1589   -4.7602  1.68e+02
  -8.8321   51.2304   -0.3088  1.66e+02
  -5.2471   48.9578   -3.8675  1.68e+02
  -8.4707   51.2839   -4.8136  1.68e+02
  -8.6477   51.3765   -4.7566  1.68e+02
  -5.7177   48.6635   -3.5997  1.68e+02
  -9.1202   49.9448   -1.9043  1.66e+02
  -5.6365   51.5490   -2.4008  1.68e+02
  -6.3413   51.1723   -1.0344  1.68e+02
  -4.7906   47.9669   -3.8650  1.68e+02
  -8.1280   51.8576   -4.0690  1.68e+02
  -8.3656   51.5964   -4.1782  1.68e+02
  -7.3235   49.5331   -4.4937  1.68e+02
  -6.7008   50.6411   -1.2006  1.68e+02
  -5.4684   48.2164   -4.3569  1.68e+02
  -3.8458   46.3150   -4.9276  1.68e+02
  -3.9002   46.4175   -4.6782  1.68e+02
  -3.4483   46.4452    1.0420  1.66e+02
  -4.5640   47.5221   -3.9757  1.68e+02
  -4.5718   47.5862   -3.8244  1.68e+02
  -6.0340   52.1192   -3.5468  1.68e+02
  -5.1583   47.5496   -4.8017  1.68e+02
  -7.5623   50.2162   -3.1083  1.68e+02
  -5.5096   50.0594   -4.1857  1.68e+02
  -7.5204   50.6094   -2.8261  1.68e+02
  -7.8050   50.3835   -2.8847  1.68e+02
  -5.2312   49.1573   -4.5008  1.68e+02
  -5.3371   45.3599    0.6640  1.66e+02
  -6.5241   52.4240   -3.4608  1.68e+02
  -4.1412   47.2004    2.5540  1.66e+02
  -4.1266   47.2980    2.4831  1.66e+02
  -5.5068   49.1233   -1.6176  1.68e+02
  -3.7096   47.7977    1.4029  1.66e+02
  -5.7209   51.3277   -3.8566  1.68e+02
  -3.8837   47.4450   -4.4039  1.68e+02
  -8.4337   54.9367   -4.6736  1.66e+02
  -4.9544   49.0276   -4.6717  1.68e+02
  -5.3573   49.4668   -1.0420  1.68e+02
  -7.2478   51.6772   -2.1301  1.68e+02
  -5.8281   49.0108   -1.6096  1.68e+02
  -7.3420   50.6767   -1.8317  1.68e+02
  -7.1670   49.4337   -2.4958  1.68e+02
  -8.4966   52.1646   -4.9244  1.68e+02
  -6.4813   50.1801   -0.8713  1.68e+02
  -5.6070   48.7395   -3.2484  1.68e+02
  -3.5983   46.6711   -4.8893  1.68e+02
  -7.0310   50.0509   -1.5769  1.68e+02
  -7.3994   54.7332   -4.4563  1.66e+02
  -3.7736   46.7549   -4.1886  1.68e+02
  -3.3533   49.4973   -1.4171  1.66e+02
  -6.0712   45.0828   -0.4262  1.66e+02
  -5.2580   47.9004   -3.7894  1.68e+02
  -5.2098   48.0795   -4.1598  1.68e+02
  -7.5517   51.8493   -2.9048  1.68e+02
  -7.9925   51.0690   -3.0877  1.68e+02
  -6.6693   45.8588   -0.7934  1.66e+02
  -6.4353   52.0373   -2.1798  1.68e+02
  -6.4139   52.0993   -2.2853  1.68e+02
  -8.1032   50.2791   -4.3688  1.68e+02
  -5.1459   48.4924   -3.5122  1.68e+02
  -8.3487   51.1154   -4.0816  1.68e+02
  -6.3983   48.9687   -2.5100  1.68e+02
  -4.2181   47.3997   -3.9775  1.68e+02
  -4.1106   47.4431   -4.1342  1.68e+02
  -2.1961   44.7955   -3.6052  1.66e+02
  -5.8371   48.4627   -2.5719  1.68e+02
  -5.7788   48.4955   -2.9049  1.68e+02
  -5.3417   50.0803   -1.0231  1.68e+02
  -7.0701   52.0133   -2.4159  1.68e+02
  -5.5734   50.4541   -4.0957  1.68e+02
  -5.0354   49.2965    3.5839  1.66e+02
  -5.2707   48.9328    3.8859  1.66e+02
  -5.4072   48.7619   -2.0634  1.68e+02
  -5.6212   50.3453   -1.5378  1.68e+02
  -5.0799   48.3256   -3.6277  1.68e+02
  -2.5911   49.8828   -4.2093  1.66e+02
  -4.8824   48.5069   -4.0943  1.68e+02
  -7.1959   49.4708   -3.6065  1.68e+02
  -7.1904   49.4203   -3.7557  1.68e+02
  -5.1566   47.6569    3.7872  1.66e+02
  -5.4030   50.8566   -2.5862  1.68e+02
  -5.5832   50.9241   -2.7554  1.68e+02
  -4.3912   46.6953   -4.2562  1.68e+02
  -4.7283   52.5552   -3.8207  1.66e+02
  -3.4655   47.2963   -4.7074  1.68e+02
  -8.3081   50.5622   -4.7944  1.68e+02
  -5.3855   48.6704   -2.8755  1.68e+02
  -6.3799   49.0252   -4.8672  1.68e+02
  -6.7097   53.9207   -1.2825  1.66e+02
  -6.0830   48.5018   -3.8679  1.68e+02
  -4.6630   47.1759   -3.8919  1.68e+02
  -5.5083   48.2775   -3.3724  1.68e+02
  -5.0239   49.2456   -3.7515  1.68e+02
  -6.9900   49.0915   -3.7605  1.68e+02
  -4.8047   47.3676   -3.8494  1.68e+02
  -7.0969   51.5639   -1.8195  1.68e+02
  -4.9392   48.9273   -4.3623  1.68e+02
  -7.1823   49.3718   -4.4801  1.68e+02
  -5.1820   49.5475   -4.8492  1.68e+02
  -7.7554   49.9916    1.4690  1.66e+02
  -6.1882   48.7123   -3.1029  1.68e+02
  -6.1117   48.5126   -3.0593  1.68e+02
  -5.2952   43.9746   -3.9653  1.66e+02
  -5.4416   47.8401   -4.9763  1.68e+02
  -6.3365   52.4849   -4.7201  1.68e+02
  -4.9258   47.1174   -4.1829  1.68e+02
  -5.1357   48.8364   -3.2284  1.68e+02
  -5.2666   48.9521   -3.1719  1.68e+02
  -6.1964   51.8993   -4.2059  1.68e+02
  -5.3979   53.3994   -2.4775  1.66e+02
  -5.2255   48.7330   -3.3274  1.68e+02
  -5.6161   48.0375   -4.2691  1.68e+02
  -7.3797   47.2717   -0.0663  1.66e+02
  -7.0093   47.1528    0.5770  1.66e+02
  -3.6494   46.3228   -4.7244  1.68e+02
  -5.2531   47.6525   -3.8170  1.68e+02
  -4.7063   48.0313   -3.3913  1.68e+02
  -6.2342   44.9556   -3.6620  1.66e+02
  -5.4938   48.8052   -1.5059  1.68e+02
  -6.1765   51.9453   -2.7945  1.68e+02
  -7.1810   52.6762   -3.3646  1.68e+02
  -6.7132   52.5969   -4.1716  1.68e+02
  -4.5685   48.2145   -4.1347  1.68e+02
  -5.4318   50.8768   -1.8090  1.68e+02
  -5.2546   49.4736   -3.8061  1.68e+02
  -5.2083   49.6712   -4.0787  1.68e+02
  -4.7132   46.8437    2.9890  1.66e+02
  -4.7376   48.2439   -3.4538  1.68e+02
  -4.1045   46.5467   -4.3415  1.68e+02
  -5.2447   47.8747   -3.5406  1.68e+02
  -6.7114   52.7059   -4.6597  1.68e+02
  -6.0667   49.2111   -0.5932  1.68e+02
  -5.5241   50.7632   -3.7122  1.68e+02
  -7.5328   54.4383   -3.7606  1.66e+02
  -6.3130   49.2744   -0.9791  1.68e+02
  -4.5481   48.4765   -4.4020  1.68e+02
  -4.5188   48.6338   -4.3323  1.68e+02
  -4.3090   46.7935   -4.0426  1.68e+02
  -5.7263   48.1475   -3.9186  1.68e+02
  -5.7259   48.2657   -4.4313  1.68e+02
  -5.3617   48.6336   -2.1670  1.68e+02
  -3.9112   46.2881   -4.4297  1.68e+02
  -5.5728   48.2098   -3.0239  1.68e+02
  -6.8915   52.1985   -2.8236  1.68e+02
  -7.1357   52.2420   -2.9400  1.68e+02
  -4.6375   46.2999   -4.8130  1.68e+02
  -4.4451   46.4104   -4.6519  1.68e+02
  -7.6451   46.9760   -3.6227  1.66e+02
  -5.3988   47.9606   -4.1195  1.68e+02
  -5.4375   47.9205   -3.8214  1.68e+02
  -6.1230   48.5580   -4.6575  1.68e+02
  -5.9738   48.5776   -4.6518  1.68e+02
  -7.4670   49.7576    2.2929  1.66e+02
  -7.5890   49.9138   -3.5227  1.68e+02
 -10.4573   52.5597   -2.9520  1.66e+02
  -5.8030   48.3965   -4.9034  1.68e+02
  -5.5809   49.4382   -0.8124  1.68e+02
  -5.1350   48.2560   -3.1783  1.68e+02
  -4.7134   47.7768   -3.5331  1.68e+02
  -5.7426   48.7154   -1.8112  1.68e+02
  -3.8353   47.0906   -3.9667  1.68e+02
  -6.9508   44.2455    2.0968  1.64e+02
  -6.6385   49.0067   -3.3680  1.68e+02
  -4.7536   49.3592   -4.8510  1.68e+02
  -4.7982   49.0827   -4.9045  1.68e+02
  -5.4319   49.8941   -0.6408  1.68e+02
  -5.3963   49.7434   -0.5926  1.68e+02
  -4.4154   47.7828   -3.5411  1.68e+02
  -1.9740   47.4745   -1.9767  1.66e+02
  -2.1064   47.2049   -1.8221  1.66e+02
  -5.8189   48.4023   -3.6618  1.68e+02
  -4.7247   48.9277   -3.9753  1.68e+02
  -5.3037   48.9558   -2.6948  1.68e+02
  -2.2984   47.8525    0.7941  1.64e+02
  -6.1129   48.7103   -2.3555  1.68e+02
  -6.4148   49.6547   -0.8142  1.68e+02
  -6.5233   49.4988   -0.8483  1.68e+02
  -7.5433   50.8735   -2.3554  1.68e+02
  -5.9735   48.7794   -1.2866  1.68e+02
  -7.0922   47.5977    1.3562  1.66e+02
  -5.2337   49.1685   -2.8674  1.68e+02
  -4.8254   48.4539   -3.6774  1.68e+02
  -7.4506   51.4899   -1.7231  1.68e+02
  -7.1930   51.3622   -2.0277  1.68e+02
  -7.1964   49.9212   -2.2317  1.68e+02
  -5.1584   47.4984   -4.2235  1.68e+02
  -4.0590   45.9909   -4.8332  1.68e+02
  -4.3635   48.2293   -4.2693  1.68e+02
  -4.7437   46.7990   -4.9842  1.68e+02
  -5.1318   49.5300   -3.1895  1.68e+02
  -5.8602   51.7956   -3.5008  1.68e+02
  -5.5959   50.3809   -4.9289  1.68e+02
  -4.5271   47.2747   -3.5190  1.68e+02
  -4.6458   47.3864   -3.6394  1.68e+02
  -4.3005   48.0596   -3.9697  1.68e+02
  -3.7872   47.3877   -4.1607  1.68e+02
  -4.4275   46.8623   -4.0469  1.68e+02
  -3.5790   46.9076   -4.3798  1.68e+02
  -8.0438   50.8283    1.2174  1.66e+02
  -3.7528   46.5837   -3.9850  1.68e+02
  -4.8963   47.0513   -3.9183  1.68e+02
  -5.5087   48.9545   -0.9974  1.68e+02
  -5.2624   48.5463   -2.7830  1.68e+02
  -3.6105   46.6051   -4.3196  1.68e+02
  -4.5762   48.0328   -3.6861  1.68e+02
  -8.3882   50.7080   -4.0331  1.68e+02
  -4.4413   48.9166   -4.9438  1.68e+02
