NLLOC "./loc/alaska.20181130.175512.grid0" "LOCATED" "Location completed."
PUBLIC_ID None
SIGNATURE "NonLinLoc - ALomax Scientific   obs:./obs/2018-11-30-mww70-southern-alaska.obs   NLLoc:v7.00.13(17Jan2022)   run:13May2022 09h14m10"
COMMENT "2018-11-30 Mww7.0 Southern Alaska (NonLinLoc Sample Location)"
GRID  201 201 106  -100 -100 -5  1 1 1 PROB_DENSITY
SEARCH OCTREE nInitial 400 nEvaluated 20008 smallestNodeSide 0.156250/0.156250/0.205078 oct_tree_integral 9.690469e+01 scatter_volume 9.655524e+01
HYPOCENTER  x 2.26562 y 46.4844 z -4.89746  OT 3.40991  ix -1 iy -1 iz -1 MAXIMUM_LIKELIHOOD
GEOGRAPHIC  OT 2018 11 30  17 55 3.409911  Lat 61.417192 Long -149.957567 Depth -4.897461
QUALITY  Pmax 1.28086e+53 MFmin 18.7006 MFmax 20.1224 RMS 1.13687 Nphs 25 Gap 62.0896 Dist 38.4135 Mamp -9.90 0 Mdur -9.90 0
VPVSRATIO  VpVsRatio -1  Npair 0  Diff -2e+30
STATISTICS  ExpectX 2.074495 Y 46.204567 Z 4.484174  CovXX 3.35598 XY -2.55982 XZ 4.59993 YY 15.347 YZ -27.7156 ZZ 238.107 EllAz1  77.7011 Dip1  0.343212 Len1  3.1585 Az2  347.658 Dip2  7.08564 Len2  6.61082 Len3  2.920379e+01
STAT_GEOG  ExpectLat 61.414681 Long -149.961150 Depth 4.484174
TRANSFORM  LAMBERT RefEllipsoid Clarke-1880  LatOrig 61.000000  LongOrig -150.000000  FirstStdParal 60.000000  SecondStdParal 62.000000  RotCW 0.000000
QML_OriginQuality  assocPhCt 32  usedPhCt 25  assocStaCt -1  usedStaCt 25  depthPhCt -1  stdErr 1.13687  azGap 62.0896  secAzGap 116.003  gtLevel -  minDist 38.4135 maxDist 247.409 medDist 162.556
QML_OriginUncertainty  horUnc -1  minHorUnc 2.55235  maxHorUnc 6.04172  azMaxHorUnc 168.44
QML_ConfidenceEllipsoid  semiMajorAxisLength 29.2038  semiMinorAxisLength 3.1585  semiIntermediateAxisLength 6.61082  majorAxisPlunge 0  majorAxisAzimuth 0  majorAxisRotation 0.351274
FOCALMECH  Hyp  61.417192 -149.957567 -4.897461 Mech  0 0 0 mf  0 nObs -1
DIFFERENTIAL  Nhyp 0
PHASE ID Ins Cmp On Pha  FM Date     HrMn   Sec     Err  ErrMag    Coda      Amp       Per       PriorWt  >   TTpred    Res       Weight    StaLoc(X  Y         Z)        SDist    SAzim  RAz  RDip RQual    Tcorr       TTerr
AK_RC01_--   ?    BHZ  ? P      -0 20181130 1755   13.6000 GAU  6.00e-02 -1.00e+00  1.75e+01  1.28e+00    1.0000 >    7.3155    2.8745    0.3888   14.0814    9.9332   -0.3900   38.4135 162.09 342.1 200.0  0     0.0000   -1.0000
AT_PMR_--    ?    BHZ  ? S      -0 20181130 1755   22.2400 GAU  6.00e-02 -1.00e+00  1.47e+01  2.56e+00    1.0000 >   15.3668    3.4633    0.2580   46.1491   66.2909   -0.1000   48.1462  65.71 245.7 200.0  0     0.0000   -1.0000
AK_GHO_--    ?    BHZ  ? S      0 20181130 1755   26.8684 GAU  8.00e-02 -1.00e+00  1.20e+01  1.28e+00    1.0000 >   21.4451    2.0134    0.6045   56.6953   86.3740   -1.0320   67.4816  53.76 233.8 200.0  0     0.0000   -1.0000
AK_KNK_--    ?    BHZ  ? S      -0 20181130 1755   29.0284 GAU  6.00e-02 -1.00e+00  1.04e+01  1.60e-01    1.0000 >   25.1886    0.4299    1.3243   82.3084   46.9963   -0.5980   80.0445  89.63 269.6 200.0  0     0.0000   -1.0000
AK_SAW_--    ?    BHZ  ? P      ? 20181130 1755   20.7684 GAU  4.00e-02 -1.00e+00  1.09e+01  2.00e-02    1.0000 >   17.4197   -0.0613    1.5611   87.9646   91.0412   -0.7810   96.5900  62.53 242.5 200.0  0     0.0000   -1.0000
AK_SLK_--    ?    BHZ  ? S      -0 20181130 1755   34.2884 GAU  1.00e-01 -1.00e+00  1.05e+01  2.56e+00    1.0000 >   30.4901    0.3884    1.3066  -12.2555  -54.3822   -0.6550  101.9064 188.19   8.2 200.0  0     0.0000   -1.0000
AK_PWL_--    ?    HNZ  ? P      0 20181130 1755   22.3145 GAU  2.50e-02 -1.00e+00  1.15e+01  5.00e-03    1.0000 >   18.8778    0.0268    1.5516   90.5585  -14.6245   -0.5500  107.3775 124.69 304.7 200.0  0     0.0000   -1.0000
AV_SPCG_--   ?    BHZ  ? P      ? 20181130 1755   22.9600 GAU  4.00e-02 -1.00e+00  1.19e+01  2.00e-02    1.0000 >   19.5195    0.0306    1.5411 -108.4188   34.1306   -1.3290  111.3718 263.63  83.6 200.0  0     0.0000   -1.0000
AV_SPCP_--   ?    BHZ  ? P      -0 20181130 1755   24.0680 GAU  1.00e-01 -1.00e+00  1.23e+01  2.00e-02    1.0000 >   20.5628    0.0952    1.5118 -115.5968   31.4831   -1.6160  118.8132 262.75  82.7 200.0  0     0.0000   -1.0000
AV_SPCR_--   ?    BHZ  ? P      -0 20181130 1755   24.2200 GAU  4.00e-02 -1.00e+00  1.43e+01  2.00e-02    1.0000 >   21.0489   -0.2388    1.4241 -118.7430   24.3192   -0.9840  123.0219 259.62  79.6 200.0  0     0.0000   -1.0000
AK_SCM_--    ?    BHZ  ? P      -0 20181130 1755   27.5084 GAU  4.00e-02 -1.00e+00  1.19e+01  2.00e-02    1.0000 >   24.2139   -0.1154    1.4410  140.6889   95.5759   -1.0500  146.8706  70.47 250.5 200.0  0     0.0000   -1.0000
AK_SWD_--    ?    BHZ  ? S      -0 20181130 1755   47.3284 GAU  1.20e-01 -1.00e+00  1.19e+01  5.12e+00    1.0000 >   40.8876    3.0309    0.4731   30.4489  -99.6652   -0.0770  148.8422 169.09 349.1 200.0  0     0.0000   -1.0000
AV_RDT_--    ?    BHZ  ? S      ? 20181130 1755   48.4000 GAU  6.00e-02 -1.00e+00  1.10e+01  3.20e-01    1.0000 >   44.0746    0.9155    1.0594 -131.9721  -45.1925   -0.9300  162.5559 235.67  55.7 200.0  0     0.0000   -1.0000
AK_GLI_--    ?    HNZ  ? P      -0 20181130 1755   29.0545 GAU  2.50e-02 -1.00e+00  1.17e+01  8.00e-02    1.0000 >   26.5275   -0.8829    0.7798  157.6640   -9.9635   -0.4300  165.3330 109.96 290.0 200.0  0     0.0000   -1.0000
AK_WAT7_--   ?    BHZ  ? S      0 20181130 1755   50.4684 GAU  1.20e-01 -1.00e+00  1.08e+01  5.12e+00    1.0000 >   45.3544    1.7040    0.8040   58.7508  204.8162   -1.2320  168.1058  19.63 199.6 200.0  0     0.0000   -1.0000
AK_WAT6_--   ?    BHZ  ? S      -0 20181130 1755   51.0884 GAU  8.00e-02 -1.00e+00  1.21e+01  2.56e+00    1.0000 >   46.7683    0.9102    1.0556  116.1703  178.1736   -1.6810  174.1159  40.86 220.9 200.0  0     0.0000   -1.0000
AV_RDJH_--   ?    BHZ  ? S      -0 20181130 1755   52.5000 GAU  8.00e-02 -1.00e+00  1.08e+01  1.28e+00    1.0000 >   47.8793    1.2108    0.9631 -153.7080  -42.3314   -1.4140  179.4882 240.34  60.3 200.0  0     0.0000   -1.0000
AV_RDWB_--   ?    BHZ  ? S      -0 20181130 1755   54.8000 GAU  8.00e-02 -1.00e+00  1.22e+01  6.40e-01    1.0000 >   49.6568    1.7333    0.8081 -156.2149  -53.7095   -1.5460  187.4964 237.70  57.7 200.0  0     0.0000   -1.0000
AV_RED_--    ?    BHZ  ? P      0 20181130 1755   32.6800 GAU  6.00e-02 -1.00e+00  1.70e+01  2.00e-02    1.0000 >   29.6761   -0.4060    1.2084 -152.7839  -61.4282   -1.0710  188.9061 235.16  55.2 200.0  0     0.0000   -1.0000
AK_FID_--    ?    BHZ  ? P      0 20181130 1755   33.4484 GAU  1.00e-01 -1.00e+00  1.20e+01  1.28e+00    1.0000 >   30.6346   -0.5961    1.0542  185.5109  -25.5209   -0.5000  196.8847 111.45 291.5 200.0  0     0.0000   -1.0000
AK_PPLA_--   ?    BHZ  ? P      -0 20181130 1755   35.0884 GAU  6.00e-02 -1.00e+00  1.09e+01  2.00e-02    1.0000 >   31.4059    0.2726    1.3355 -111.3681  213.1967   -1.5190  201.7564 325.72 145.7 200.0  0     0.0000   -1.0000
AK_KLU_--    ?    BHZ  ? P      0 20181130 1755   35.5884 GAU  4.00e-02 -1.00e+00  1.11e+01  2.00e-02    1.0000 >   33.1012   -0.9227    0.7742  217.0370   61.6207   -1.0471  215.3040  85.97 266.0 200.0  0     0.0000   -1.0000
AK_HIN_--    ?    HNZ  ? P      0 20181130 1755   38.6695 GAU  2.00e-02 -1.00e+00  1.08e+01  5.00e-03    1.0000 >   33.5514    1.7082    0.7400  192.6700  -62.1501   -0.6229  219.2151 119.71 299.7 200.0  0     0.0000   -1.0000
AK_CNP_--    ?    BHZ  ? S      -0 20181130 1756    4.8284 GAU  6.00e-02 -1.00e+00  1.43e+01  2.56e+00    1.0000 >   57.0131    4.4054    0.1785  -70.0410 -163.6652   -0.5640  222.2411 198.99  19.0 200.0  0     0.0000   -1.0000
AK_EYAK_--   ?    BHZ  ? P      -0 20181130 1755   41.9684 GAU  4.00e-02 -1.00e+00  1.14e+01  2.00e-02    1.0000 >   37.1364    1.4221    0.8532  233.0342  -42.7188   -0.1339  247.4092 111.13 291.1 200.0  0     0.0000   -1.0000
AK_DHY_--    ?    BHZ  ? S      -0 20181130 1756    5.0483 GAU  2.40e-01 -1.00e+00  1.03e+01  1.02e+01    1.0000 >    0.0000    0.0000    0.0000  132.6689  233.9657   -1.6110    0.0000   0.00 359.0  -1.0  0     0.0000   -1.0000
AK_KTH_--    ?    BHZ  ? P      0 20181130 1755   40.6484 GAU  6.00e-02 -1.00e+00  1.26e+01  2.00e-02    1.0000 >    0.0000    0.0000    0.0000  -45.9401  284.8846   -1.1720    0.0000   0.00 359.0  -1.0  0     0.0000   -1.0000
AK_CHUM_--   ?    BHZ  ? P      -0 20181130 1755   46.8084 GAU  6.00e-02 -1.00e+00  1.04e+01  2.00e-02    1.0000 >    0.0000    0.0000    0.0000 -113.8756  323.3981   -0.2170    0.0000   0.00 359.0  -1.0  0     0.0000   -1.0000
AK_BMR_--    ?    BHZ  ? P      ? 20181130 1755   49.5484 GAU  4.00e-02 -1.00e+00  1.30e+01  2.00e-02    1.0000 >    0.0000    0.0000    0.0000  291.8435    8.4259   -0.8420    0.0000   0.00 359.0  -1.0  0     0.0000   -1.0000
AK_GOAT_--   ?    BHZ  ? P      0 20181130 1755   49.7684 GAU  6.00e-02 -1.00e+00  1.08e+01  4.00e-02    1.0000 >    0.0000    0.0000    0.0000  288.6122  -35.1201   -0.8955    0.0000   0.00 359.0  -1.0  0     0.0000   -1.0000
AK_GLB_--    ?    BHZ  ? P      -0 20181130 1755   54.4084 GAU  4.00e-02 -1.00e+00  1.31e+01  2.00e-02    1.0000 >    0.0000    0.0000    0.0000  329.6303   64.7945   -0.8549    0.0000   0.00 359.0  -1.0  0     0.0000   -1.0000
NP040_D0     ?    HNZ  ? P      ? 20181130 1755   12.0345 GAU  5.00e-03 -1.00e+00  1.56e+01  5.00e-03    1.0000 >    0.0000    0.0000    0.0000 -100000000000000000000.0000 -100000000000000000000.0000 -100000000000000000000.0000    0.0000   0.00 359.0  -1.0  0     0.0000   -1.0000
END_PHASE
SCATTER Nsamples 5000
   1.1102   46.3752   -4.9772  1.29e+02
   2.9872   44.9829   -4.5530  1.29e+02
   3.7917   52.2166   -1.3190  1.25e+02
   4.0046   51.8093   -1.5562  1.25e+02
   4.6671   48.4070   -3.4963  1.27e+02
   3.1345   45.9490    0.7936  1.27e+02
   4.9354   42.8353   -3.1583  1.27e+02
   2.4326   47.3182   -3.6295  1.29e+02
   3.0983   40.6481   -3.2148  1.27e+02
   3.0914   40.8708   -2.6474  1.27e+02
   2.9802   47.9898   -4.4765  1.29e+02
   1.9781   46.9901   -3.7469  1.29e+02
   2.0664   47.1745   -3.5507  1.29e+02
  -1.0640   48.0150   -3.8518  1.27e+02
   1.0909   47.6006   -4.7638  1.29e+02
   1.0592   47.8097   -4.8918  1.29e+02
  -0.0778   50.7671   -1.9851  1.27e+02
   4.9481   46.2688   29.9521  1.25e+02
  -0.0592   38.1930   30.3082  1.23e+02
  -2.4237   45.0607   -1.0078  1.25e+02
  -1.2630   45.7755   -1.1229  1.25e+02
   3.9857   50.8228   54.6881  1.23e+02
   2.4346   51.3879   -2.7008  1.27e+02
   2.3042   51.2724   -2.9172  1.27e+02
   2.3965   47.9302   -3.4613  1.29e+02
  -1.0024   41.9736   -4.5795  1.25e+02
   0.5074   51.6463   -2.4352  1.27e+02
   2.3993   43.7959   45.2408  1.25e+02
   3.0006   41.4643   -1.8458  1.27e+02
   2.4151   46.5917   -3.4878  1.29e+02
   1.4803   40.8195   -4.3778  1.27e+02
   2.1284   46.5302   -3.4933  1.29e+02
   0.1026   40.6022   35.5171  1.25e+02
   1.3930   52.3947   -4.5966  1.27e+02
   2.0743   48.3424   -3.6668  1.29e+02
  -1.0369   48.7027   -4.7590  1.27e+02
  -2.4380   52.0760    0.9286  1.25e+02
   2.3585   38.5513   -2.9029  1.25e+02
   1.9472   49.1367   -4.8661  1.29e+02
   2.6555   44.4486    2.1714  1.27e+02
   3.0903   44.5879    2.1121  1.27e+02
   0.3272   44.7602   -1.1420  1.27e+02
  -4.2052   50.3627   -0.4914  1.25e+02
   1.4750   47.2082   -4.0459  1.29e+02
   0.3663   45.9068    0.0163  1.27e+02
  -1.2252   55.5827    1.6163  1.25e+02
   1.4124   46.6874   -3.9870  1.29e+02
  -1.0151   53.9291    1.5938  1.25e+02
   1.6913   47.8194   -3.4597  1.29e+02
   1.2579   47.8718   -4.0001  1.29e+02
   1.4744   47.8604   -4.0965  1.29e+02
  -3.7209   51.6139   -0.5579  1.25e+02
   2.3978   46.0355   -3.4082  1.29e+02
  -0.6158   48.3360   -0.6205  1.27e+02
   1.7727   47.4966   -3.6068  1.29e+02
   2.6740   49.4725    0.3763  1.27e+02
   2.8561   46.9250   -4.1048  1.29e+02
  -0.7418   47.3223   -3.0432  1.27e+02
   1.4410   46.0448    1.9370  1.27e+02
   5.2872   46.7751   -0.0465  1.25e+02
   2.6584   42.0486   36.0703  1.25e+02
   2.9581   41.8020   36.3696  1.25e+02
   1.6290   55.7933   -2.9108  1.25e+02
   1.0670   48.2263   -4.7782  1.29e+02
   0.9687   48.2831   -4.6224  1.29e+02
   2.0956   44.6850   -4.4520  1.29e+02
   2.0021   45.7143   -3.4743  1.29e+02
  -0.3826   49.8210   -0.6363  1.27e+02
   2.0464   44.2974   -4.6931  1.29e+02
   2.5065   44.9836   -4.1788  1.29e+02
   4.6729   47.2532   -2.0957  1.27e+02
   1.8655   44.9151   -4.3063  1.29e+02
   2.8736   46.5455   -4.0238  1.29e+02
   2.3313   48.9321    4.9245  1.25e+02
   1.6325   46.6993   -3.6618  1.29e+02
   1.8038   46.6390   -3.5953  1.29e+02
   3.1848   40.0923   -4.6198  1.27e+02
   1.6067   44.6151   -4.5942  1.29e+02
   2.5340   42.5057   -0.2288  1.27e+02
   1.5621   46.2230   -4.0951  1.29e+02
   1.3371   48.7626   -4.1951  1.29e+02
   1.0237   45.7781   -4.6938  1.29e+02
   2.5329   47.6825   -3.5992  1.29e+02
   2.5654   46.9560   -3.4565  1.29e+02
   2.7488   47.1163   -3.4515  1.29e+02
   1.5884   53.9374   10.6516  1.23e+02
   0.8092   51.6804   -1.3212  1.27e+02
   2.9677   47.7742   -4.0989  1.29e+02
   2.5270   41.9740   -1.7111  1.27e+02
   4.7465   45.0422   34.7307  1.25e+02
   0.9125   52.3084    3.6807  1.25e+02
   3.9753   40.8986   40.9072  1.25e+02
   2.6062   38.5693   -1.3211  1.25e+02
  -3.8303   51.9109   -2.5139  1.25e+02
  -2.8274   48.6850    1.2915  1.25e+02
  -3.1824   47.6367   -0.0079  1.25e+02
   1.7971   49.0146   -3.9588  1.29e+02
  -3.7635   51.0490   -4.5107  1.25e+02
   0.1726   44.3660   -1.8339  1.27e+02
   0.2412   44.1694   -2.1719  1.27e+02
   1.9181   44.7089   -4.1092  1.29e+02
   3.4021   46.2525   -4.2851  1.29e+02
  -0.5725   46.9879   -0.2470  1.27e+02
   1.5017   48.7043    2.2844  1.27e+02
   3.1283   47.0151   -4.3892  1.29e+02
   3.3395   47.1845   -4.2486  1.29e+02
   2.2074   45.5465   -3.3853  1.29e+02
   2.3702   45.5756   -3.5410  1.29e+02
   2.9806   45.6439   -4.1047  1.29e+02
   1.8926   50.4205    0.3419  1.27e+02
  -0.6713   46.5670   -4.0170  1.27e+02
   1.8114   46.2313   -3.7025  1.29e+02
   3.5262   44.9258    0.8767  1.27e+02
   5.6259   43.3043    7.4756  1.25e+02
   2.3958   40.5497   -4.7206  1.27e+02
  -0.5118   57.8940   -4.2491  1.25e+02
  -0.9667   57.7582   -3.8864  1.25e+02
  -2.1557   53.4269   -0.9870  1.25e+02
  -2.4601   53.0624   -1.3512  1.25e+02
   2.9324   50.2772   -0.1202  1.27e+02
   3.2822   48.0072   -4.9512  1.29e+02
   1.4213   49.2673   -4.7457  1.29e+02
   1.2626   49.2029   -4.7038  1.29e+02
   0.6497   55.4859    2.9839  1.25e+02
   1.7918   45.1061   -3.8217  1.29e+02
   2.8801   40.5381   43.8375  1.27e+02
   2.7619   39.7056   43.2013  1.27e+02
   3.1583   44.2166   -4.9515  1.29e+02
   3.2762   45.7923   -4.4050  1.29e+02
   1.3202   48.6493   -3.8358  1.29e+02
   2.8617   44.0030   -4.6526  1.29e+02
   0.7645   49.4459    1.0588  1.27e+02
   1.0089   46.6391   -4.4450  1.29e+02
  -4.6141   50.8399    1.5583  1.25e+02
   0.8067   52.0613   -3.7830  1.27e+02
   0.0137   48.1746    8.2254  1.23e+02
   1.5985   48.4845   -3.4502  1.29e+02
   2.6230   46.3050   -3.5802  1.29e+02
   3.4541   54.7876   -2.3832  1.25e+02
   1.0462   47.4454   -4.2402  1.29e+02
   1.7425   49.0877   -4.3181  1.29e+02
   2.3743   44.2865   -4.4742  1.29e+02
   2.2919   44.3122   -4.2494  1.29e+02
   2.5654   40.4235   43.1419  1.27e+02
  -2.7573   47.3869   -4.7392  1.25e+02
  -3.6869   46.4890   -4.3419  1.25e+02
   3.0920   39.5154   43.5221  1.27e+02
   2.3781   43.9720   -4.8769  1.29e+02
   2.9925   40.4344   -4.1708  1.27e+02
   0.7708   61.7899   -0.7340  1.23e+02
   3.7618   44.1151   -0.8137  1.27e+02
   2.9467   45.0266   -3.8348  1.29e+02
   1.9783   48.0474   -3.1289  1.29e+02
   2.9535   48.8460    1.1707  1.27e+02
   3.2659   45.1630   -4.3900  1.29e+02
   1.1229   48.0289   -4.4259  1.29e+02
   2.4928   52.1956   52.7304  1.23e+02
   2.8574   45.3753   17.4342  1.23e+02
   4.2931   47.2721   15.9918  1.23e+02
   2.1969   48.5215   -3.4375  1.29e+02
   4.2702   49.9354   -3.1295  1.27e+02
   3.7787   45.3949   -0.5228  1.27e+02
   1.3680   41.3739   -2.3416  1.27e+02
   1.5115   41.7994   -2.4927  1.27e+02
   3.1909   38.6442   49.0716  1.25e+02
   2.3275   44.6169   -3.8028  1.29e+02
   2.7079   45.7431   -3.4563  1.29e+02
   2.5270   45.7433   -3.4958  1.29e+02
   2.1612   47.2206   -3.3455  1.29e+02
  -0.8563   48.2186   -2.6700  1.27e+02
  -1.3122   40.1332   27.1906  1.23e+02
   0.7229   41.5870   40.5626  1.25e+02
   2.6204   48.6763   -4.0508  1.29e+02
   2.5967   48.7173   -3.7882  1.29e+02
   2.4454   47.7168   -3.2560  1.29e+02
  -0.7977   48.9902   -4.1181  1.27e+02
  -0.9703   49.1975   -3.7042  1.27e+02
   2.3754   48.9956   -3.9618  1.29e+02
   2.8449   44.3046   -4.3157  1.29e+02
   2.4639   49.7839   48.4651  1.23e+02
   0.3494   43.4849   -2.6603  1.27e+02
   0.5011   43.4996   -3.3367  1.27e+02
   1.2824   45.2156   -4.2193  1.29e+02
   2.3852   44.0008    1.9293  1.27e+02
   1.1592   46.2386   -4.5615  1.29e+02
   1.2823   44.9366   -4.9372  1.29e+02
   3.2297   36.3688   46.9903  1.25e+02
   3.0617   37.0935   47.1313  1.25e+02
   2.2853   47.3223   -3.2636  1.29e+02
   3.9457   43.1423   46.3531  1.25e+02
   1.8865   48.3881   -2.9759  1.29e+02
   2.3495   48.1132   -3.2509  1.29e+02
   4.1117   52.8914    6.8699  1.23e+02
   2.3447   49.4690    0.7982  1.27e+02
   3.2509   47.6797   -4.4027  1.29e+02
   3.3672   47.7105   -4.4589  1.29e+02
   1.9710   45.1369   -3.6263  1.29e+02
   2.0420   46.9348   -3.3029  1.29e+02
   1.0434   42.4879   42.5888  1.25e+02
   1.6661   41.1228   -2.7571  1.27e+02
  -0.5885   44.8767   -4.0785  1.27e+02
   2.9608   40.0551   44.3609  1.27e+02
   2.9090   40.3782   44.3515  1.27e+02
   1.0225   48.9355   -4.9651  1.29e+02
  -1.0126   49.6483   -4.3162  1.27e+02
   2.6934   48.3676   -3.7312  1.29e+02
   3.0764   44.8772   -3.9165  1.29e+02
   4.8586   44.6150   37.5576  1.25e+02
   2.9354   39.4796   42.5090  1.27e+02
   1.2580   47.8440   -3.4891  1.29e+02
   1.3107   47.9449   -3.4924  1.29e+02
   2.3491   47.0348   -3.2081  1.29e+02
   1.3854   47.6912   -3.4966  1.29e+02
   1.4883   48.9472   -3.8475  1.29e+02
   2.7137   48.6357   30.2353  1.25e+02
   3.5400   46.5188   -4.6335  1.29e+02
   2.0852   50.9957   -0.7031  1.27e+02
   1.6599   45.4040   -3.7338  1.29e+02
   2.0236   46.8498   -3.2798  1.29e+02
   1.5499   47.4209   -3.7326  1.29e+02
   3.4185   45.9425   10.8773  1.25e+02
   2.6949   46.1568   10.6560  1.25e+02
   3.7424   45.8646   -4.9466  1.29e+02
   1.6981   47.9116   -3.0858  1.29e+02
   3.3416   44.2662   42.9248  1.25e+02
   1.4207   48.1804   -3.5849  1.29e+02
   0.5025   40.3316   51.3103  1.23e+02
   1.5113   46.9769   -3.5684  1.29e+02
   2.9401   40.8860   43.5053  1.27e+02
   1.8079   47.5774   -3.2274  1.29e+02
   2.5263   48.8827   -4.5218  1.29e+02
   1.5486   49.1686   -4.3267  1.29e+02
   1.9888   48.8198   -3.5303  1.29e+02
   4.0697   46.9695    0.7121  1.27e+02
   2.1133   43.8616   47.5410  1.25e+02
   1.3452   45.3972   -4.1475  1.29e+02
   1.8436   48.9531   -3.4708  1.29e+02
   3.1846   46.5379    1.6056  1.27e+02
   1.6163   48.4231   -3.3147  1.29e+02
   1.5056   46.8691   -3.6974  1.29e+02
   2.4154   46.8540   -3.3079  1.29e+02
   2.7527   45.2116   -3.3603  1.29e+02
   1.1148   48.5869   -4.5700  1.29e+02
   1.0052   48.6992   -4.5177  1.29e+02
   2.8824   38.8280   42.8085  1.27e+02
   3.6212   48.9074    0.4580  1.27e+02
   2.3332   48.2154   -3.2324  1.29e+02
   4.6497   46.0250   -1.7625  1.27e+02
   2.1045   46.4579   -3.3185  1.29e+02
  -3.5576   50.0336    1.1004  1.25e+02
   5.2158   45.8042   -4.6398  1.27e+02
   3.5385   44.0695   11.8163  1.25e+02
   1.7858   44.1605    0.7706  1.27e+02
   1.3132   43.8909    1.4097  1.27e+02
   1.4566   44.8014    1.7846  1.27e+02
   1.7739   47.3152   -2.9623  1.29e+02
   3.6119   49.6006   -0.2188  1.27e+02
   1.6688   37.6982   46.3916  1.25e+02
   1.8363   38.1487   47.2915  1.25e+02
   1.1305   41.5696   -4.6505  1.27e+02
   3.5247   45.2210   -4.7353  1.29e+02
   2.8719   43.9080   28.8746  1.25e+02
  -0.1565   51.8643   -4.5782  1.27e+02
