NLLOC "./loc/alaska.20181130.172935.grid0" "LOCATED" "Location completed."
PUBLIC_ID None
SIGNATURE "NonLinLoc - ALomax Scientific   obs:./obs/2018-11-30-mww70-southern-alaska.obs   NLLoc:v7.00.13(17Jan2022)   run:13May2022 09h14m10"
COMMENT "2018-11-30 Mww7.0 Southern Alaska (NonLinLoc Sample Location)"
GRID  201 201 106  -100 -100 -5  1 1 1 PROB_DENSITY
SEARCH OCTREE nInitial 400 nEvaluated 20008 smallestNodeSide 0.156250/0.156250/0.205078 oct_tree_integral 4.811845e+01 scatter_volume 4.811845e+01
HYPOCENTER  x 2.73438 y 37.4219 z 44.9365  OT 29.073  ix -1 iy -1 iz -1 MAXIMUM_LIKELIHOOD
GEOGRAPHIC  OT 2018 11 30  17 29 29.073014  Lat 61.335856 Long -149.948920 Depth 44.936523
QUALITY  Pmax 1.80601e+100 MFmin 30.6346 MFmax 30.9159 RMS 0.246143 Nphs 35 Gap 36.9179 Dist 29.7385 Mamp -9.90 0 Mdur -9.90 0
VPVSRATIO  VpVsRatio -1  Npair 0  Diff -2e+30
STATISTICS  ExpectX 2.747149 Y 37.328390 Z 44.346834  CovXX 0.996027 XY -0.25823 XZ 0.205178 YY 1.30366 YZ 0.159148 ZZ 10.5053 EllAz1  240.298 Dip1  1.52398 Len1  1.72447 Az2  330.291 Dip2  -0.231244 Len2  2.26262 Len3  6.091651e+00
STAT_GEOG  ExpectLat 61.335016 Long -149.948683 Depth 44.346834
TRANSFORM  LAMBERT RefEllipsoid Clarke-1880  LatOrig 61.000000  LongOrig -150.000000  FirstStdParal 60.000000  SecondStdParal 62.000000  RotCW 0.000000
QML_OriginQuality  assocPhCt 57  usedPhCt 35  assocStaCt -1  usedStaCt 35  depthPhCt -1  stdErr 0.246143  azGap 36.9179  secAzGap 47.9189  gtLevel -  minDist 29.7385 maxDist 243.845 medDist 162.014
QML_OriginUncertainty  horUnc -1  minHorUnc 1.39762  maxHorUnc 1.82646  azMaxHorUnc 150.39
QML_ConfidenceEllipsoid  semiMajorAxisLength 6.09165  semiMinorAxisLength 1.72447  semiIntermediateAxisLength 2.26262  majorAxisPlunge 0  majorAxisAzimuth 0  majorAxisRotation 178.246
FOCALMECH  Hyp  61.335856 -149.948920 44.936523 Mech  0 0 0 mf  0 nObs -1
DIFFERENTIAL  Nhyp 0
PHASE ID Ins Cmp On Pha  FM Date     HrMn   Sec     Err  ErrMag    Coda      Amp       Per       PriorWt  >   TTpred    Res       Weight    StaLoc(X  Y         Z)        SDist    SAzim  RAz  RDip RQual    Tcorr       TTerr
AK_RC01_--   ?    BHZ  ? P      -0 20181130 1729   37.0400 GAU  2.00e-02 -1.00e+00  3.24e+01  1.60e-01    1.0000 >    7.8979    0.0691    1.4186   14.0814    9.9332   -0.3900   29.7385 157.57 157.6 142.9 10     0.0000   -1.0000
AK_SSN_--    ?    BHZ  ? P      -0 20181130 1729   38.3884 GAU  8.00e-02 -1.00e+00  1.40e+02  2.00e-02    1.0000 >    9.3836   -0.0682    1.3887  -39.8089   51.8817   -1.3060   44.9334 288.77 288.8 129.3 10     0.0000   -1.0000
AT_PMR_--    ?    BHZ  ? P      0 20181130 1729   38.8800 GAU  6.00e-02 -1.00e+00  2.03e+01  3.20e-01    1.0000 >    9.9272   -0.1202    1.3549   46.1491   66.2909   -0.1000   52.1369  56.38  56.4 123.7 10     0.0000   -1.0000
AK_GHO_--    ?    BHZ  ? P      ? 20181130 1729   41.3284 GAU  4.00e-02 -1.00e+00  1.22e+01  8.00e-02    1.0000 >   12.3820   -0.1266    1.3112   56.6953   86.3740   -1.0320   72.8566  47.79  47.8 113.4 10     0.0000   -1.0000
AK_KNK_--    ?    BHZ  ? P      0 20181130 1729   42.3684 GAU  1.00e-01 -1.00e+00  1.74e+01  1.60e-01    1.0000 >   13.1754    0.1200    1.2787   82.3084   46.9963   -0.5980   80.1480  83.14  83.1 110.6  9     0.0000   -1.0000
AK_CAPN_--   ?    BHZ  ? P      0 20181130 1729   45.3484 GAU  4.00e-02 -1.00e+00  2.75e+01  8.00e-02    1.0000 >   14.3662    1.9092    0.0166  -62.8803  -25.2610   -0.0470   90.7437 226.31 226.3 107.3  9     0.0000   -1.0000
AK_SLK_--    ?    BHZ  ? P      -0 20181130 1729   43.9884 GAU  2.00e-02 -1.00e+00  1.39e+02  2.00e-02    1.0000 >   14.7293    0.1861    1.2190  -12.2555  -54.3822   -0.6550   93.0198 189.27 189.3 106.8  9     0.0000   -1.0000
AK_SAW_--    ?    BHZ  ? P      0 20181130 1729   44.8084 GAU  4.00e-02 -1.00e+00  1.72e+01  1.60e-01    1.0000 >   15.6825    0.0529    1.2684   87.9646   91.0412   -0.7810  100.6937  57.83  57.8 105.1  9     0.0000   -1.0000
AK_PWL_--    ?    HNZ  ? P      ? 20181130 1729   45.3895 GAU  9.00e-02 -1.00e+00  1.30e+01  6.40e-01    1.0000 >   15.8202    0.4963    0.8520   90.5585  -14.6245   -0.5500  102.0877 120.65 120.7 104.7  9     0.0000   -1.0000
AK_SKN_--    ?    BHZ  ? P      0 20181130 1729   45.7084 GAU  4.00e-02 -1.00e+00  2.65e+01  4.00e-02    1.0000 >   16.8445   -0.2092    1.1701  -80.3077  110.1399   -0.5810  110.3807 311.21 311.2 103.2  9     0.0000   -1.0000
AV_SPCG_--   ?    BHZ  ? P      0 20181130 1729   45.6600 GAU  2.20e-01 -1.00e+00  1.04e+01  6.40e-01    1.0000 >   17.0519   -0.4649    0.8958 -108.4188   34.1306   -1.3290  111.2019 268.30 268.3 103.1  9     0.0000   -1.0000
AV_SPCP_--   ?    BHZ  ? P      0 20181130 1729   47.3080 GAU  1.40e-01 -1.00e+00  1.31e+01  3.20e-01    1.0000 >   17.9928    0.2422    1.0974 -115.5968   31.4831   -1.6160  118.4801 267.13 267.1 102.0  9     0.0000   -1.0000
AK_CUT_--    ?    BHZ  ? P      -0 20181130 1729   47.4600 GAU  2.00e-02 -1.00e+00  4.17e+01  1.60e-01    1.0000 >   18.0807    0.3063    1.0605  -13.5739  156.6879   -0.5740  120.3759 352.21 352.2 101.6  9     0.0000   -1.0000
AV_SPCR_--   ?    BHZ  ? P      0 20181130 1729   47.0800 GAU  2.20e-01 -1.00e+00  1.53e+01  6.40e-01    1.0000 >   18.3628   -0.3559    0.9880 -118.7430   24.3192   -0.9840  122.1820 263.84 263.8 101.4  9     0.0000   -1.0000
AK_SWD_--    ?    BHZ  ? P      -0 20181130 1729   49.1284 GAU  2.00e-02 -1.00e+00  3.29e+01  8.00e-02    1.0000 >   20.4389   -0.3835    0.9740   30.4489  -99.6652   -0.0770  139.8605 168.57 168.6  99.3  9     0.0000   -1.0000
AK_SCM_--    ?    BHZ  ? P      0 20181130 1729   51.2084 GAU  6.00e-02 -1.00e+00  1.43e+01  2.00e-02    1.0000 >   21.8083    0.3271    0.9924  140.6889   95.5759   -1.0500  149.7108  67.14  67.1  98.5  9     0.0000   -1.0000
AV_RDT_--    ?    BHZ  ? P      0 20181130 1729   52.0400 GAU  6.00e-02 -1.00e+00  1.14e+01  1.60e-01    1.0000 >   22.8336    0.1334    1.0859 -131.9721  -45.1925   -0.9300  158.0221 238.48 238.5  97.8  9     0.0000   -1.0000
AK_GLI_--    ?    HNZ  ? P      0 20181130 1729   52.2445 GAU  2.00e-02 -1.00e+00  1.32e+01  3.20e-01    1.0000 >   23.2645   -0.0930    1.0956  157.6640   -9.9635   -0.4300  162.0140 107.01 107.0  97.5  9     0.0000   -1.0000
AK_WAT7_--   ?    BHZ  ? P      -0 20181130 1729   54.5284 GAU  6.00e-02 -1.00e+00  2.64e+01  1.60e-01    1.0000 >   25.1995    0.2559    0.9892   58.7508  204.8162   -1.2320  176.5183  18.50  18.5  96.7  9     0.0000   -1.0000
AK_WAT6_--   ?    BHZ  ? P      -0 20181130 1729   54.9284 GAU  1.00e-01 -1.00e+00  1.50e+01  2.00e-02    1.0000 >   25.7975    0.0579    1.0384  116.1703  178.1736   -1.6810  180.7727  38.87  38.9  96.5  9     0.0000   -1.0000
AK_BRSE_--   ?    BHZ  ? P      -0 20181130 1729   54.7684 GAU  2.00e-02 -1.00e+00  1.72e+02  2.00e-02    1.0000 >   25.9007   -0.2053    1.0103  -41.6971 -139.9566   -0.5410  182.8586 194.06 194.1  96.4  9     0.0000   -1.0000
AV_RDWB_--   ?    BHZ  ? P      0 20181130 1729   54.9000 GAU  6.00e-02 -1.00e+00  1.08e+01  4.00e-02    1.0000 >   26.0866   -0.2597    0.9809 -156.2149  -53.7095   -1.5460  183.2206 240.17 240.2  96.4  9     0.0000   -1.0000
AK_BRLK_--   ?    BHZ  ? P      -0 20181130 1729   54.9884 GAU  2.00e-02 -1.00e+00  1.24e+01  1.60e-01    1.0000 >   26.0525   -0.1371    1.0298  -50.9563 -138.7927   -0.4090  184.2125 196.95 196.9  96.3  9     0.0000   -1.0000
AK_FID_--    ?    BHZ  ? P      0 20181130 1729   56.0884 GAU  4.00e-02 -1.00e+00  2.97e+01  2.00e-02    1.0000 >   27.2108   -0.1954    0.9901  185.5109  -25.5209   -0.5000  193.3108 109.00 109.0  95.9  9     0.0000   -1.0000
AK_HOM_--    ?    BHZ  ? P      -0 20181130 1729   58.6684 GAU  8.00e-02 -1.00e+00  1.09e+01  1.28e+00    1.0000 >   29.1636    0.4318    0.8353  -93.1125 -148.4338   -0.2210  209.1146 207.28 207.3  95.0  9     0.0000   -1.0000
AK_PPLA_--   ?    BHZ  ? P      0 20181130 1729   58.5484 GAU  4.00e-02 -1.00e+00  3.34e+01  4.00e-02    1.0000 >   29.4011    0.0743    0.9758 -111.3681  213.1967   -1.5190  209.5619 327.01 327.0  95.1  9     0.0000   -1.0000
AK_CNP_--    ?    BHZ  ? P      0 20181130 1729   58.7284 GAU  6.00e-02 -1.00e+00  3.52e+01  2.00e-02    1.0000 >   29.8087   -0.1533    0.9556  -70.0410 -163.6652   -0.5640  213.8510 199.90 199.9  93.5  9     0.0000   -1.0000
AK_HIN_--    ?    HNZ  ? P      ? 20181130 1729   58.3345 GAU  5.00e-02 -1.00e+00  1.30e+01  6.40e-01    1.0000 >   29.8928   -0.6313    0.7085  192.6700  -62.1501   -0.6229  214.4531 117.67 117.7  93.2  9     0.0000   -1.0000
AK_KLU_--    ?    BHZ  ? P      0 20181130 1729   59.0084 GAU  4.00e-02 -1.00e+00  5.78e+01  2.00e-02    1.0000 >   30.1048   -0.1694    0.9482  217.0370   61.6207   -1.0471  215.6645  83.56  83.6  92.8  9     0.0000   -1.0000
AV_ILNE_--   ?    SHZ  ? P      -0 20181130 1730    0.3000 GAU  6.00e-02 -1.00e+00  1.06e+01  2.56e+00    1.0000 >   30.9631    0.2639    0.8984 -170.5947 -101.0390   -1.6140  221.8432 231.38 231.4  89.8  9     0.0000   -1.0000
AK_DIV_--    ?    BHZ  ? P      0 20181130 1730    0.1284 GAU  6.00e-02 -1.00e+00  2.28e+01  2.00e-02    1.0000 >   31.3048   -0.2495    0.9043  227.5020   21.7345   -0.9414  225.3144  93.99  94.0  87.4  9     0.0000   -1.0000
AV_ILS_--    ?    BHZ  ? P      -0 20181130 1730    1.3200 GAU  6.00e-02 -1.00e+00  2.25e+01  1.60e-01    1.0000 >   31.8706    0.3764    0.8380 -171.4944 -112.1841   -1.1250  229.6467 229.35 229.3  84.9  9     0.0000   -1.0000
AV_ILSW_--   ?    BHZ  ? P      0 20181130 1730    1.4880 GAU  2.00e-02 -1.00e+00  1.08e+01  4.00e-02    1.0000 >   32.0194    0.3956    0.8283 -175.3844 -109.0772   -1.3180  230.6259 230.56 230.6  84.3  9     0.0000   -1.0000
AK_TRF_--    ?    BHZ  ? P      -0 20181130 1730    1.8284 GAU  4.00e-02 -1.00e+00  1.67e+01  4.00e-02    1.0000 >   32.7842   -0.0288    0.9216  -14.4406  273.1461   -1.7099  236.3491 355.83 355.8  81.0  9     0.0000   -1.0000
AK_EYAK_--   ?    BHZ  ? P      0 20181130 1730    1.9084 GAU  6.00e-02 -1.00e+00  1.25e+01  8.00e-02    1.0000 >   33.4875   -0.6521    0.6795  233.0342  -42.7188   -0.1339  243.8453 109.19 109.2  78.1  9     0.0000   -1.0000
AK_DHY_--    ?    BHZ  ? P      0 20181130 1730    1.7884 GAU  1.80e-01 -1.00e+00  1.69e+01  2.00e-02    1.0000 >    0.0000    0.0000    0.0000  132.6689  233.9657   -1.6110    0.0000   0.00 359.0  -1.0  0     0.0000   -1.0000
NP040_D0     ?    HNZ  ? P      ? 20181130 1729   35.1095 GAU  1.00e-02 -1.00e+00  1.17e+01  1.60e-01    1.0000 >    0.0000    0.0000    0.0000 -100000000000000000000.0000 -100000000000000000000.0000 -100000000000000000000.0000    0.0000   0.00 359.0  -1.0  0     0.0000   -1.0000
AK_GLB_--    ?    BHZ  ? P      0 20181130 1730   12.4884 GAU  4.00e-02 -1.00e+00  4.27e+01  4.00e-02    1.0000 >    0.0000    0.0000    0.0000  329.6303   64.7945   -0.8549    0.0000   0.00 359.0  -1.0  0     0.0000   -1.0000
AK_RND_--    ?    BHZ  ? P      -0 20181130 1730    2.0884 GAU  4.00e-02 -1.00e+00  4.28e+01  4.00e-02    1.0000 >    0.0000    0.0000    0.0000   56.9974  268.6460   -0.9936    0.0000   0.00 359.0  -1.0  0     0.0000   -1.0000
AK_KTH_--    ?    BHZ  ? P      -0 20181130 1730    3.7884 GAU  8.00e-02 -1.00e+00  1.29e+01  1.60e-01    1.0000 >    0.0000    0.0000    0.0000  -45.9401  284.8846   -1.1720    0.0000   0.00 359.0  -1.0  0     0.0000   -1.0000
AK_CAST_--   ?    BHZ  ? P      -0 20181130 1730    3.9884 GAU  6.00e-02 -1.00e+00  1.54e+01  1.60e-01    1.0000 >    0.0000    0.0000    0.0000 -104.1740  271.2800   -0.6110    0.0000   0.00 359.0  -1.0  0     0.0000   -1.0000
AK_MCK_--    ?    BHZ  ? P      -0 20181130 1730    6.3684 GAU  8.00e-02 -1.00e+00  1.66e+01  1.60e-01    1.0000 >    0.0000    0.0000    0.0000   52.5517  304.9713   -0.6180    0.0000   0.00 359.0  -1.0  0     0.0000   -1.0000
AK_BMR_--    ?    BHZ  ? P      0 20181130 1730    7.5284 GAU  6.00e-02 -1.00e+00  1.00e+01  3.20e-01    1.0000 >    0.0000    0.0000    0.0000  291.8435    8.4259   -0.8420    0.0000   0.00 359.0  -1.0  0     0.0000   -1.0000
AK_GOAT_--   ?    BHZ  ? P      0 20181130 1730    8.1684 GAU  4.00e-02 -1.00e+00  2.81e+01  4.00e-02    1.0000 >    0.0000    0.0000    0.0000  288.6122  -35.1201   -0.8955    0.0000   0.00 359.0  -1.0  0     0.0000   -1.0000
AV_AU22_--   ?    BHZ  ? P      0 20181130 1730    8.6600 GAU  4.00e-02 -1.00e+00  1.26e+01  1.60e-01    1.0000 >    0.0000    0.0000    0.0000 -190.8613 -176.6951   -0.1050    0.0000   0.00 359.0  -1.0  0     0.0000   -1.0000
AV_AUL_--    ?    BHZ  ? P      0 20181130 1730    9.0000 GAU  8.00e-02 -1.00e+00  1.25e+01  2.00e-02    1.0000 >    0.0000    0.0000    0.0000 -195.3724 -175.1891   -0.3600    0.0000   0.00 359.0  -1.0  0     0.0000   -1.0000
AK_RAG_--    ?    BHZ  ? P      0 20181130 1730    9.2684 GAU  4.00e-02 -1.00e+00  1.31e+01  1.60e-01    1.0000 >    0.0000    0.0000    0.0000  293.2037  -56.4555   -0.7520    0.0000   0.00 359.0  -1.0  0     0.0000   -1.0000
AV_AUJA_--   ?    BHZ  ? P      0 20181130 1730    9.3200 GAU  4.00e-02 -1.00e+00  1.66e+01  8.00e-02    1.0000 >    0.0000    0.0000    0.0000 -194.7545 -179.9192   -0.3760    0.0000   0.00 359.0  -1.0  0     0.0000   -1.0000
AV_AUCH_--   ?    BHZ  ? P      0 20181130 1730    9.3200 GAU  2.00e-02 -1.00e+00  2.59e+01  2.00e-02    1.0000 >    0.0000    0.0000    0.0000 -195.8701 -177.2832   -0.9160    0.0000   0.00 359.0  -1.0  0     0.0000   -1.0000
AV_AUSB_--   ?    BHZ  ? P      0 20181130 1730    9.3400 GAU  4.00e-02 -1.00e+00  1.60e+01  1.60e-01    1.0000 >    0.0000    0.0000    0.0000 -195.1169 -180.6255   -0.2300    0.0000   0.00 359.0  -1.0  0     0.0000   -1.0000
AV_AUWS_--   ?    BHZ  ? P      0 20181130 1730    9.3600 GAU  2.00e-02 -1.00e+00  1.51e+01  2.00e-02    1.0000 >    0.0000    0.0000    0.0000 -196.8087 -177.6909   -0.4870    0.0000   0.00 359.0  -1.0  0     0.0000   -1.0000
AK_PAX_--    ?    BHZ  ? P      0 20181130 1730    9.5284 GAU  1.00e-01 -1.00e+00  1.27e+01  3.20e-01    1.0000 >    0.0000    0.0000    0.0000  229.7234  227.5003   -1.1500    0.0000   0.00 359.0  -1.0  0     0.0000   -1.0000
AT_SVW2_--   ?    BHZ  ? P      0 20181130 1730   10.0200 GAU  4.00e-02 -1.00e+00  1.40e+01  3.20e-01    1.0000 >    0.0000    0.0000    0.0000 -302.7416   25.0539   -0.4988    0.0000   0.00 359.0  -1.0  0     0.0000   -1.0000
AK_CHUM_--   ?    BHZ  ? P      -0 20181130 1730   10.2884 GAU  1.20e-01 -1.00e+00  1.23e+01  3.20e-01    1.0000 >    0.0000    0.0000    0.0000 -113.8756  323.3981   -0.2170    0.0000   0.00 359.0  -1.0  0     0.0000   -1.0000
AK_BPAW_--   ?    BHZ  ? P      -0 20181130 1730   10.5284 GAU  8.00e-02 -1.00e+00  1.19e+01  1.60e-01    1.0000 >    0.0000    0.0000    0.0000  -48.2048  345.9705   -0.6190    0.0000   0.00 359.0  -1.0  0     0.0000   -1.0000
AK_HMT_--    ?    BHZ  ? P      0 20181130 1730   10.9684 GAU  6.00e-02 -1.00e+00  1.16e+01  2.00e-02    1.0000 >    0.0000    0.0000    0.0000  316.5073  -60.2082   -0.6290    0.0000   0.00 359.0  -1.0  0     0.0000   -1.0000
AK_BWN_--    ?    BHZ  ? P      -0 20181130 1730   11.6884 GAU  6.00e-02 -1.00e+00  1.01e+01  3.20e-01    1.0000 >    0.0000    0.0000    0.0000   34.1339  353.9956   -0.3560    0.0000   0.00 359.0  -1.0  0     0.0000   -1.0000
END_PHASE
SCATTER Nsamples 4983
   3.7996   36.3616   43.4939  2.36e+02
   1.2718   37.6574   46.1263  2.36e+02
   2.0575   38.1266   47.8106  2.36e+02
   2.0517   38.3163   47.6383  2.36e+02
   1.7185   37.5667   41.7517  2.36e+02
   1.5843   37.7639   41.5830  2.36e+02
   2.1096   36.5021   42.9763  2.36e+02
   3.5234   36.9201   41.6405  2.36e+02
   3.6410   36.9632   41.7089  2.36e+02
   2.5396   35.9878   42.3815  2.36e+02
   3.1315   38.6473   45.7967  2.36e+02
   3.2967   38.5111   45.5517  2.36e+02
   2.0476   36.3132   46.8931  2.36e+02
   2.0824   36.3250   46.8164  2.36e+02
   2.3453   37.4812   48.3878  2.36e+02
   1.5490   37.8257   37.2215  2.34e+02
   2.5350   37.5835   40.2250  2.36e+02
   1.9505   38.9165   44.4944  2.36e+02
   2.0927   38.9715   44.4953  2.36e+02
   3.8033   36.9654   42.9664  2.36e+02
   3.8003   36.9781   42.6215  2.36e+02
   3.1673   36.1536   42.3100  2.36e+02
   3.3606   36.2107   42.5227  2.36e+02
   3.1964   35.7008   44.4221  2.36e+02
   3.6175   34.4172   46.8729  2.34e+02
   3.2430   34.3979   47.0752  2.34e+02
   1.6086   38.4813   46.0703  2.36e+02
   1.8224   38.5620   45.8898  2.36e+02
   2.1871   38.7830   45.3562  2.36e+02
   2.1088   38.7647   45.3237  2.36e+02
   4.8891   37.0601   40.8729  2.34e+02
   2.5787   37.1485   40.3071  2.36e+02
   3.3215   38.0626   47.9841  2.36e+02
   1.8814   37.8214   48.2340  2.36e+02
   1.9338   37.9061   48.2154  2.36e+02
   3.1770   36.0088   47.3181  2.36e+02
   2.3579   37.4558   40.4107  2.36e+02
   3.8822   37.6244   43.7953  2.36e+02
   2.4091   38.3814   48.2376  2.36e+02
   2.3708   38.3020   48.0051  2.36e+02
   2.8619   35.6869   44.1329  2.36e+02
   2.0631   37.2747   40.6505  2.36e+02
   2.1497   37.2276   40.6185  2.36e+02
   3.6854   37.0899   47.9627  2.36e+02
   2.8085   35.8266   45.2937  2.36e+02
   2.5575   35.7124   45.3148  2.36e+02
   0.7879   35.6540   45.7304  2.34e+02
   3.1120   37.2915   40.2679  2.36e+02
   3.1093   37.1971   40.5035  2.36e+02
   2.6445   36.0132   47.1390  2.36e+02
   2.6590   36.1080   47.1966  2.36e+02
   2.1380   36.7406   41.7258  2.36e+02
   2.0197   36.7782   41.6342  2.36e+02
   3.1886   38.6379   43.9078  2.36e+02
   3.4269   38.5120   44.0982  2.36e+02
   1.6992   37.0961   47.4798  2.36e+02
   4.9731   38.4261   45.0694  2.34e+02
   4.8083   38.5905   45.6487  2.34e+02
   3.7113   35.9720   46.9479  2.36e+02
   3.2327   37.4329   40.7600  2.36e+02
   3.4227   37.2495   40.6025  2.36e+02
   1.4190   38.1597   44.5314  2.36e+02
   1.4223   38.2954   44.3887  2.36e+02
   3.2103   39.2330   39.4110  2.34e+02
   2.6103   38.7839   43.7639  2.36e+02
   3.4627   38.4343   43.8872  2.36e+02
   3.7235   38.4328   43.9600  2.36e+02
   1.4789   37.9835   43.1006  2.36e+02
   3.8032   37.2521   47.4687  2.36e+02
   3.8238   37.3564   47.3290  2.36e+02
   2.3676   39.0320   43.0019  2.36e+02
   2.9346   38.4823   34.0929  2.32e+02
   2.9956   35.9589   42.0037  2.36e+02
   3.0120   36.0524   41.8456  2.36e+02
   2.2030   35.0666   39.4375  2.34e+02
   3.8833   37.1943   37.7410  2.34e+02
   2.6547   36.2877   41.0880  2.36e+02
   4.7513   38.9021   39.4008  2.32e+02
   3.8014   36.2215   44.8745  2.36e+02
   1.4274   38.4317   45.1227  2.36e+02
   1.3626   38.2020   45.1436  2.36e+02
   3.1125   36.2985   48.0385  2.36e+02
   2.8141   36.2937   48.2549  2.36e+02
   3.9881   36.8009   47.4751  2.36e+02
   2.4922   36.2728   41.4296  2.36e+02
   3.3307   35.7216   45.9609  2.36e+02
   2.5283   39.0159   46.0862  2.36e+02
   2.5896   38.9700   46.0773  2.36e+02
   5.2731   36.5458   45.5114  2.34e+02
   2.7157   35.8209   44.4600  2.36e+02
   2.5176   35.6679   44.3605  2.36e+02
   2.2171   37.9863   36.6187  2.34e+02
   2.1556   37.9990   36.7498  2.34e+02
   2.0071   38.9362   43.6658  2.36e+02
   1.8757   39.0137   43.4308  2.36e+02
   3.9707   36.3940   46.8688  2.36e+02
   3.8298   36.4862   47.0593  2.36e+02
   2.1983   36.0686   46.7935  2.36e+02
   2.1435   38.1967   41.0325  2.36e+02
   2.1263   38.3565   41.2842  2.36e+02
   4.0436   37.6578   46.8077  2.36e+02
   3.8224   35.9740   45.6629  2.36e+02
   4.5464   35.6728   48.4043  2.34e+02
   3.2566   39.9746   43.8096  2.34e+02
   3.5701   39.7065   44.1649  2.34e+02
   1.5884   36.6179   42.6988  2.36e+02
   1.6715   36.5665   42.6453  2.36e+02
   3.2251   37.0047   48.5557  2.36e+02
   3.2084   37.0951   48.6609  2.36e+02
   2.9147   38.4121   48.1107  2.36e+02
   4.1621   34.9841   46.1204  2.34e+02
   2.0944   37.8262   40.6279  2.36e+02
   2.0746   37.9430   40.5697  2.36e+02
   2.3592   36.0211   42.7245  2.36e+02
   1.3801   37.0643   45.3879  2.36e+02
   1.8272   38.6727   42.6024  2.36e+02
   3.6307   36.0522   42.6661  2.36e+02
   4.3196   35.2771   48.8401  2.34e+02
   1.4915   37.3806   43.0483  2.36e+02
   4.3904   35.6574   40.7588  2.34e+02
   3.5943   38.4136   46.3095  2.36e+02
