NLLOC "./loc/alaska.20181130.173543.grid0" "LOCATED" "Location completed."
PUBLIC_ID None
SIGNATURE "NonLinLoc - ALomax Scientific   obs:./obs/2018-11-30-mww70-southern-alaska.obs   NLLoc:v7.00.13(17Jan2022)   run:13May2022 09h14m10"
COMMENT "2018-11-30 Mww7.0 Southern Alaska (NonLinLoc Sample Location)"
GRID  201 201 106  -100 -100 -5  1 1 1 PROB_DENSITY
SEARCH OCTREE nInitial 400 nEvaluated 20000 smallestNodeSide 0.156250/0.156250/0.205078 oct_tree_integral 1.017775e+02 scatter_volume 1.010403e+02
HYPOCENTER  x -0.546875 y 28.9844 z -4.89746  OT 35.1971  ix -1 iy -1 iz -1 MAXIMUM_LIKELIHOOD
GEOGRAPHIC  OT 2018 11 30  17 35 35.197108  Lat 61.260139 Long -150.010191 Depth -4.897461
QUALITY  Pmax 5.39339e+70 MFmin 22.9885 MFmax 24.5224 RMS 0.946995 Nphs 30 Gap 45.5132 Dist 24.0194 Mamp -9.90 0 Mdur -9.90 0
VPVSRATIO  VpVsRatio -1  Npair 0  Diff -2e+30
STATISTICS  ExpectX -5.322946 Y 27.328538 Z 12.649258  CovXX 14.8889 XY 2.44739 XZ -43.6368 YY 7.64555 YZ -16.773 ZZ 177.465 EllAz1  60.2423 Dip1  14.8325 Len1  3.24176 Az2  330.832 Dip2  -2.22477 Len2  4.98006 Len3  2.589764e+01
STAT_GEOG  ExpectLat 61.245243 Long -150.099151 Depth 12.649258
TRANSFORM  LAMBERT RefEllipsoid Clarke-1880  LatOrig 61.000000  LongOrig -150.000000  FirstStdParal 60.000000  SecondStdParal 62.000000  RotCW 0.000000
QML_OriginQuality  assocPhCt 34  usedPhCt 30  assocStaCt -1  usedStaCt 30  depthPhCt -1  stdErr 0.946995  azGap 45.5132  secAzGap 72.416  gtLevel -  minDist 24.0194 maxDist 244.339 medDist 139.64
QML_OriginUncertainty  horUnc -1  minHorUnc 3.98261  maxHorUnc 5.99734  azMaxHorUnc 72.9754
QML_ConfidenceEllipsoid  semiMajorAxisLength 25.8976  semiMinorAxisLength 3.24176  semiIntermediateAxisLength 4.98006  majorAxisPlunge -74.994  majorAxisAzimuth 69.1648  majorAxisRotation 262.519
FOCALMECH  Hyp  61.260139 -150.010191 -4.897461 Mech  0 0 0 mf  0 nObs -1
PHASE ID Ins Cmp On Pha  FM Date     HrMn   Sec     Err  ErrMag    Coda      Amp       Per       PriorWt  >   TTpred    Res       Weight    StaLoc(X  Y         Z)        SDist    SAzim  RAz  RDip RQual    Tcorr       TTerr
AK_RC01_--   ?    BHZ  ? P      0 20181130 1735   44.6200 GAU  8.00e-02 -1.00e+00  1.17e+01  2.00e-02    1.0000 >    4.6305    4.7924    0.0476   14.0814    9.9332   -0.3900   24.0194 142.48 322.5 200.0  0     0.0000    0.0926
AT_PMR_--    ?    BHZ  ? P      0 20181130 1735   49.9200 GAU  8.00e-02 -1.00e+00  1.03e+01  3.20e-01    1.0000 >   11.3294    3.3935    0.3058   46.1491   66.2909   -0.1000   59.7686  51.38 231.4 200.0  0     0.0000    0.2266
AK_GHO_--    ?    BHZ  ? P      0 20181130 1735   50.2284 GAU  2.20e-01 -1.00e+00  1.01e+01  5.12e+00    1.0000 >   15.1937   -0.1624    1.5414   56.6953   86.3740   -1.0320   81.0570  44.93 224.9 200.0  0     0.0000    0.3039
AK_CAPN_--   ?    BHZ  ? S      0 20181130 1736    4.1684 GAU  1.00e-01 -1.00e+00  1.11e+01  1.28e+00    1.0000 >   25.7220    3.2493    0.3414  -62.8803  -25.2610   -0.0470   82.6318 228.97  49.0 200.0  0     0.0000    0.5144
AK_SLK_--    ?    BHZ  ? S      -0 20181130 1736    2.8284 GAU  4.00e-02 -1.00e+00  1.08e+01  2.00e-02    1.0000 >   26.2236    1.4077    0.5557  -12.2555  -54.3822   -0.6550   84.1847 187.99   8.0 200.0  0     0.0000    0.5245
AK_KNK_--    ?    BHZ  ? P      -0 20181130 1735   50.7884 GAU  1.20e-01 -1.00e+00  1.20e+01  2.56e+00    1.0000 >   15.6904   -0.0991    1.6104   82.3084   46.9963   -0.5980   84.7905  77.74 257.7 200.0  0     0.0000    0.3138
AK_PWL_--    ?    HNZ  ? P      0 20181130 1735   53.2345 GAU  7.50e-02 -1.00e+00  1.01e+01  6.40e-01    1.0000 >   18.0116    0.0258    1.6051   90.5585  -14.6245   -0.5500  101.0046 115.58 295.6 200.0  0     0.0000    0.3602
AV_STLK_--   ?    BHZ  ? P      -0 20181130 1735   53.6200 GAU  4.00e-02 -1.00e+00  4.12e+01  2.00e-02    1.0000 >   18.0728    0.3501    1.4271  -97.7049   56.8786   -0.9450  101.0830 286.02 106.0 200.0  0     0.0000    0.3615
AV_SPBL_--   ?    BHZ  ? P      -0 20181130 1735   53.8200 GAU  1.00e-01 -1.00e+00  1.22e+01  3.20e-01    1.0000 >   18.1637    0.4592    1.3063 -101.2807   43.4033   -0.9270  101.7606 278.15  98.1 200.0  0     0.0000    0.3633
AV_SPCG_--   ?    BHZ  ? P      -0 20181130 1735   54.3799 GAU  4.00e-02 -1.00e+00  1.89e+01  2.00e-02    1.0000 >   19.0629    0.1199    1.5725 -108.4188   34.1306   -1.3290  107.9947 272.73  92.7 200.0  0     0.0000    0.3813
AK_SAW_--    ?    BHZ  ? S      -0 20181130 1736    7.7084 GAU  4.00e-02 -1.00e+00  1.02e+01  2.00e-02    1.0000 >   31.9293    0.5820    1.1412   87.9646   91.0412   -0.7810  108.0987  54.97 235.0 200.0  0     0.0000    0.6386
AK_SKN_--    ?    BHZ  ? P      -0 20181130 1735   54.7884 GAU  4.00e-02 -1.00e+00  1.22e+01  2.00e-02    1.0000 >   19.7486   -0.1573    1.5249  -80.3077  110.1399   -0.5810  113.7893 315.50 135.5 200.0  0     0.0000    0.3950
AV_SPCP_--   ?    BHZ  ? P      -0 20181130 1735   55.4080 GAU  6.00e-02 -1.00e+00  1.03e+01  2.00e-02    1.0000 >   20.0579    0.1529    1.5395 -115.5968   31.4831   -1.6160  115.0770 271.24  91.2 200.0  0     0.0000    0.4012
AV_SPCR_--   ?    BHZ  ? P      -0 20181130 1735   55.4600 GAU  8.00e-02 -1.00e+00  1.29e+01  3.20e-01    1.0000 >   20.4092   -0.1463    1.5131 -118.7430   24.3192   -0.9840  118.2881 267.74  87.7 200.0  0     0.0000    0.4082
AK_CUT_--    ?    BHZ  ? S      -0 20181130 1736   11.6600 GAU  1.20e-01 -1.00e+00  1.09e+01  2.56e+00    1.0000 >   36.4831   -0.0202    1.2440  -13.5739  156.6879   -0.5740  128.3663 354.18 174.2 200.0  0     0.0000    0.7297
AV_RDT_--    ?    BHZ  ? P      -0 20181130 1735   59.7200 GAU  8.00e-02 -1.00e+00  1.03e+01  2.00e-02    1.0000 >   24.7228   -0.1999    1.4063 -131.9721  -45.1925   -0.9300  150.9132 240.56  60.6 200.0  0     0.0000    0.4945
AK_SCM_--    ?    BHZ  ? S      -0 20181130 1736   18.2084 GAU  1.00e-01 -1.00e+00  1.01e+01  1.28e+00    1.0000 >   42.7038    0.3075    1.1396  140.6889   95.5759   -1.0500  156.1472  64.76 244.8 200.0  0     0.0000    0.8541
AK_GLI_--    ?    HNZ  ? P      0 20181130 1736    0.3195 GAU  8.00e-02 -1.00e+00  1.02e+01  1.28e+00    1.0000 >   26.2159   -1.0936    0.5443  157.6640   -9.9635   -0.4300  162.9344 103.83 283.8 200.0  0     0.0000    0.5243
AV_RDJH_--   ?    BHZ  ? P      0 20181130 1736    1.9600 GAU  8.00e-02 -1.00e+00  1.33e+01  3.20e-01    1.0000 >   27.1311   -0.3682    1.2590 -153.7080  -42.3314   -1.4140  168.9505 245.03  65.0 200.0  0     0.0000    0.5426
AK_BRSE_--   ?    BHZ  ? S      -0 20181130 1736   24.5084 GAU  1.20e-01 -1.00e+00  1.17e+01  2.56e+00    1.0000 >   46.4565    2.8548    0.3893  -41.6971 -139.9566   -0.5410  173.8803 193.69  13.7 200.0  0     0.0000    0.9291
AK_BRLK_--   ?    BHZ  ? S      0 20181130 1736   23.8884 GAU  1.00e-01 -1.00e+00  1.00e+01  3.20e-01    1.0000 >   46.7111    1.9802    0.5400  -50.9563 -138.7927   -0.4090  175.1863 196.72  16.7 200.0  0     0.0000    0.9342
AV_RDWB_--   ?    BHZ  ? P      -0 20181130 1736    3.0800 GAU  6.00e-02 -1.00e+00  1.02e+01  2.00e-02    1.0000 >   28.0996   -0.2167    1.3411 -156.2149  -53.7095   -1.5460  176.2691 242.02  62.0 200.0  0     0.0000    0.5620
AV_RED_--    ?    BHZ  ? P      0 20181130 1736    2.8800 GAU  1.40e-01 -1.00e+00  1.46e+01  3.20e-01    1.0000 >   28.1378   -0.4549    1.1730 -152.7839  -61.4282   -1.0710  177.0609 239.29  59.3 200.0  0     0.0000    0.5628
AK_WAT7_--   ?    BHZ  ? S      -0 20181130 1736   24.8484 GAU  6.00e-02 -1.00e+00  1.11e+01  2.00e-02    1.0000 >   49.1629    0.4884    1.0392   58.7508  204.8162   -1.2320  185.5615  18.64 198.6 200.0  0     0.0000    0.9833
AK_WAT6_--   ?    BHZ  ? S      -0 20181130 1736   25.1684 GAU  8.00e-02 -1.00e+00  1.07e+01  8.00e-02    1.0000 >   50.1076   -0.1363    1.0416  116.1703  178.1736   -1.6810  189.4210  38.04 218.0 200.0  0     0.0000    1.0022
AK_WAT1_--   ?    HNZ  ? S      -0 20181130 1736   26.6884 GAU  1.60e-01 -1.00e+00  1.07e+01  2.56e+00    1.0000 >   50.1989    1.2924    0.7771   73.8832  204.7152   -0.7220  190.8432  22.95 203.0 200.0  0     0.0000    1.0040
AK_HIN_--    ?    HNZ  ? P      -0 20181130 1736   10.2345 GAU  3.00e-02 -1.00e+00  1.08e+01  5.00e-03    1.0000 >   32.8262    2.2111    0.4174  192.6700  -62.1501   -0.6229  213.6311 115.25 295.3 200.0  0     0.0000    0.6565
AV_ILS_--    ?    BHZ  ? S      -0 20181130 1736   35.9800 GAU  8.00e-02 -1.00e+00  1.16e+01  1.60e-01    1.0000 >   57.0236    3.7593    0.2806 -171.4944 -112.1841   -1.1250  221.7016 230.45  50.5 200.0  0     0.0000    1.1405
AK_DIV_--    ?    BHZ  ? S      0 20181130 1736   33.9884 GAU  6.00e-02 -1.00e+00  1.05e+01  2.00e-02    1.0000 >   58.3916    0.3997    0.9707  227.5020   21.7345   -0.9414  228.1640  91.82 271.8 200.0  0     0.0000    1.1678
AK_EYAK_--   ?    BHZ  ? P      -0 20181130 1736   14.4684 GAU  1.00e-01 -1.00e+00  1.08e+01  1.60e-01    1.0000 >   36.7423    2.5290    0.4045  233.0342  -42.7188   -0.1339  244.3388 107.07 287.1 200.0  0     0.0000    0.7348
AK_DHY_--    ?    BHZ  ? S      -0 20181130 1736   39.8484 GAU  1.00e-01 -1.00e+00  1.01e+01  3.20e-01    1.0000 >    0.0000    0.0000    0.0000  132.6689  233.9657   -1.6110    0.0000   0.00 359.0  -1.0  0     0.0000    0.0000
AV_AUJA_--   ?    BHZ  ? P      -0 20181130 1736   19.6800 GAU  6.00e-02 -1.00e+00  1.45e+01  2.00e-02    1.0000 >    0.0000    0.0000    0.0000 -194.7545 -179.9192   -0.3760    0.0000   0.00 359.0  -1.0  0     0.0000    0.0000
AK_BMR_--    ?    BHZ  ? P      0 20181130 1736   20.6284 GAU  1.60e-01 -1.00e+00  1.08e+01  5.12e+00    1.0000 >    0.0000    0.0000    0.0000  291.8435    8.4259   -0.8420    0.0000   0.00 359.0  -1.0  0     0.0000    0.0000
NP040_D0     ?    HNZ  ? P      0 20181130 1735   43.8345 GAU  3.50e-02 -1.00e+00  1.06e+01  5.00e-03    1.0000 >    0.0000    0.0000    0.0000 -100000000000000000000.0000 -100000000000000000000.0000 -100000000000000000000.0000    0.0000   0.00 359.0  -1.0  0     0.0000    0.0000
END_PHASE
END_NLLOC

