NLLOC "./loc/alaska.20181130.175512.grid0" "LOCATED" "Location completed."
PUBLIC_ID None
SIGNATURE "NonLinLoc - ALomax Scientific   obs:./obs/2018-11-30-mww70-southern-alaska.obs   NLLoc:v7.00.13(17Jan2022)   run:13May2022 09h14m10"
COMMENT "2018-11-30 Mww7.0 Southern Alaska (NonLinLoc Sample Location)"
GRID  201 201 106  -100 -100 -5  1 1 1 PROB_DENSITY
SEARCH OCTREE nInitial 400 nEvaluated 20008 smallestNodeSide 0.156250/0.156250/0.205078 oct_tree_integral 9.690469e+01 scatter_volume 9.655524e+01
HYPOCENTER  x 2.26562 y 46.4844 z -4.89746  OT 3.40991  ix -1 iy -1 iz -1 MAXIMUM_LIKELIHOOD
GEOGRAPHIC  OT 2018 11 30  17 55 3.409911  Lat 61.417192 Long -149.957567 Depth -4.897461
QUALITY  Pmax 1.28086e+53 MFmin 18.7006 MFmax 20.1224 RMS 1.13687 Nphs 25 Gap 62.0896 Dist 38.4135 Mamp -9.90 0 Mdur -9.90 0
VPVSRATIO  VpVsRatio -1  Npair 0  Diff -2e+30
STATISTICS  ExpectX 2.074495 Y 46.204567 Z 4.484174  CovXX 3.35598 XY -2.55982 XZ 4.59993 YY 15.347 YZ -27.7156 ZZ 238.107 EllAz1  77.7011 Dip1  0.343212 Len1  3.1585 Az2  347.658 Dip2  7.08564 Len2  6.61082 Len3  2.920379e+01
STAT_GEOG  ExpectLat 61.414681 Long -149.961150 Depth 4.484174
TRANSFORM  LAMBERT RefEllipsoid Clarke-1880  LatOrig 61.000000  LongOrig -150.000000  FirstStdParal 60.000000  SecondStdParal 62.000000  RotCW 0.000000
QML_OriginQuality  assocPhCt 32  usedPhCt 25  assocStaCt -1  usedStaCt 25  depthPhCt -1  stdErr 1.13687  azGap 62.0896  secAzGap 116.003  gtLevel -  minDist 38.4135 maxDist 247.409 medDist 162.556
QML_OriginUncertainty  horUnc -1  minHorUnc 2.55235  maxHorUnc 6.04172  azMaxHorUnc 168.44
QML_ConfidenceEllipsoid  semiMajorAxisLength 29.2038  semiMinorAxisLength 3.1585  semiIntermediateAxisLength 6.61082  majorAxisPlunge 82.906  majorAxisAzimuth 170.46  majorAxisRotation 182.867
FOCALMECH  Hyp  61.417192 -149.957567 -4.897461 Mech  0 0 0 mf  0 nObs -1
PHASE ID Ins Cmp On Pha  FM Date     HrMn   Sec     Err  ErrMag    Coda      Amp       Per       PriorWt  >   TTpred    Res       Weight    StaLoc(X  Y         Z)        SDist    SAzim  RAz  RDip RQual    Tcorr       TTerr
AK_RC01_--   ?    BHZ  ? P      -0 20181130 1755   13.6000 GAU  6.00e-02 -1.00e+00  1.75e+01  1.28e+00    1.0000 >    7.3155    2.8745    0.3888   14.0814    9.9332   -0.3900   38.4135 162.09 342.1 200.0  0     0.0000    0.1463
AT_PMR_--    ?    BHZ  ? S      -0 20181130 1755   22.2400 GAU  6.00e-02 -1.00e+00  1.47e+01  2.56e+00    1.0000 >   15.3668    3.4633    0.2580   46.1491   66.2909   -0.1000   48.1462  65.71 245.7 200.0  0     0.0000    0.3073
AK_GHO_--    ?    BHZ  ? S      0 20181130 1755   26.8684 GAU  8.00e-02 -1.00e+00  1.20e+01  1.28e+00    1.0000 >   21.4451    2.0134    0.6045   56.6953   86.3740   -1.0320   67.4816  53.76 233.8 200.0  0     0.0000    0.4289
AK_KNK_--    ?    BHZ  ? S      -0 20181130 1755   29.0284 GAU  6.00e-02 -1.00e+00  1.04e+01  1.60e-01    1.0000 >   25.1886    0.4299    1.3243   82.3084   46.9963   -0.5980   80.0445  89.63 269.6 200.0  0     0.0000    0.5038
AK_SAW_--    ?    BHZ  ? P      ? 20181130 1755   20.7684 GAU  4.00e-02 -1.00e+00  1.09e+01  2.00e-02    1.0000 >   17.4197   -0.0613    1.5611   87.9646   91.0412   -0.7810   96.5900  62.53 242.5 200.0  0     0.0000    0.3484
AK_SLK_--    ?    BHZ  ? S      -0 20181130 1755   34.2884 GAU  1.00e-01 -1.00e+00  1.05e+01  2.56e+00    1.0000 >   30.4901    0.3884    1.3066  -12.2555  -54.3822   -0.6550  101.9064 188.19   8.2 200.0  0     0.0000    0.6098
AK_PWL_--    ?    HNZ  ? P      0 20181130 1755   22.3145 GAU  2.50e-02 -1.00e+00  1.15e+01  5.00e-03    1.0000 >   18.8778    0.0268    1.5516   90.5585  -14.6245   -0.5500  107.3775 124.69 304.7 200.0  0     0.0000    0.3776
AV_SPCG_--   ?    BHZ  ? P      ? 20181130 1755   22.9600 GAU  4.00e-02 -1.00e+00  1.19e+01  2.00e-02    1.0000 >   19.5195    0.0306    1.5411 -108.4188   34.1306   -1.3290  111.3718 263.63  83.6 200.0  0     0.0000    0.3904
AV_SPCP_--   ?    BHZ  ? P      -0 20181130 1755   24.0680 GAU  1.00e-01 -1.00e+00  1.23e+01  2.00e-02    1.0000 >   20.5628    0.0952    1.5118 -115.5968   31.4831   -1.6160  118.8132 262.75  82.7 200.0  0     0.0000    0.4113
AV_SPCR_--   ?    BHZ  ? P      -0 20181130 1755   24.2200 GAU  4.00e-02 -1.00e+00  1.43e+01  2.00e-02    1.0000 >   21.0489   -0.2388    1.4241 -118.7430   24.3192   -0.9840  123.0219 259.62  79.6 200.0  0     0.0000    0.4210
AK_SCM_--    ?    BHZ  ? P      -0 20181130 1755   27.5084 GAU  4.00e-02 -1.00e+00  1.19e+01  2.00e-02    1.0000 >   24.2139   -0.1154    1.4410  140.6889   95.5759   -1.0500  146.8706  70.47 250.5 200.0  0     0.0000    0.4843
AK_SWD_--    ?    BHZ  ? S      -0 20181130 1755   47.3284 GAU  1.20e-01 -1.00e+00  1.19e+01  5.12e+00    1.0000 >   40.8876    3.0309    0.4731   30.4489  -99.6652   -0.0770  148.8422 169.09 349.1 200.0  0     0.0000    0.8178
AV_RDT_--    ?    BHZ  ? S      ? 20181130 1755   48.4000 GAU  6.00e-02 -1.00e+00  1.10e+01  3.20e-01    1.0000 >   44.0746    0.9155    1.0594 -131.9721  -45.1925   -0.9300  162.5559 235.67  55.7 200.0  0     0.0000    0.8815
AK_GLI_--    ?    HNZ  ? P      -0 20181130 1755   29.0545 GAU  2.50e-02 -1.00e+00  1.17e+01  8.00e-02    1.0000 >   26.5275   -0.8829    0.7798  157.6640   -9.9635   -0.4300  165.3330 109.96 290.0 200.0  0     0.0000    0.5305
AK_WAT7_--   ?    BHZ  ? S      0 20181130 1755   50.4684 GAU  1.20e-01 -1.00e+00  1.08e+01  5.12e+00    1.0000 >   45.3544    1.7040    0.8040   58.7508  204.8162   -1.2320  168.1058  19.63 199.6 200.0  0     0.0000    0.9071
AK_WAT6_--   ?    BHZ  ? S      -0 20181130 1755   51.0884 GAU  8.00e-02 -1.00e+00  1.21e+01  2.56e+00    1.0000 >   46.7683    0.9102    1.0556  116.1703  178.1736   -1.6810  174.1159  40.86 220.9 200.0  0     0.0000    0.9354
AV_RDJH_--   ?    BHZ  ? S      -0 20181130 1755   52.5000 GAU  8.00e-02 -1.00e+00  1.08e+01  1.28e+00    1.0000 >   47.8793    1.2108    0.9631 -153.7080  -42.3314   -1.4140  179.4882 240.34  60.3 200.0  0     0.0000    0.9576
AV_RDWB_--   ?    BHZ  ? S      -0 20181130 1755   54.8000 GAU  8.00e-02 -1.00e+00  1.22e+01  6.40e-01    1.0000 >   49.6568    1.7333    0.8081 -156.2149  -53.7095   -1.5460  187.4964 237.70  57.7 200.0  0     0.0000    0.9931
AV_RED_--    ?    BHZ  ? P      0 20181130 1755   32.6800 GAU  6.00e-02 -1.00e+00  1.70e+01  2.00e-02    1.0000 >   29.6761   -0.4060    1.2084 -152.7839  -61.4282   -1.0710  188.9061 235.16  55.2 200.0  0     0.0000    0.5935
AK_FID_--    ?    BHZ  ? P      0 20181130 1755   33.4484 GAU  1.00e-01 -1.00e+00  1.20e+01  1.28e+00    1.0000 >   30.6346   -0.5961    1.0542  185.5109  -25.5209   -0.5000  196.8847 111.45 291.5 200.0  0     0.0000    0.6127
AK_PPLA_--   ?    BHZ  ? P      -0 20181130 1755   35.0884 GAU  6.00e-02 -1.00e+00  1.09e+01  2.00e-02    1.0000 >   31.4059    0.2726    1.3355 -111.3681  213.1967   -1.5190  201.7564 325.72 145.7 200.0  0     0.0000    0.6281
AK_KLU_--    ?    BHZ  ? P      0 20181130 1755   35.5884 GAU  4.00e-02 -1.00e+00  1.11e+01  2.00e-02    1.0000 >   33.1012   -0.9227    0.7742  217.0370   61.6207   -1.0471  215.3040  85.97 266.0 200.0  0     0.0000    0.6620
AK_HIN_--    ?    HNZ  ? P      0 20181130 1755   38.6695 GAU  2.00e-02 -1.00e+00  1.08e+01  5.00e-03    1.0000 >   33.5514    1.7082    0.7400  192.6700  -62.1501   -0.6229  219.2151 119.71 299.7 200.0  0     0.0000    0.6710
AK_CNP_--    ?    BHZ  ? S      -0 20181130 1756    4.8284 GAU  6.00e-02 -1.00e+00  1.43e+01  2.56e+00    1.0000 >   57.0131    4.4054    0.1785  -70.0410 -163.6652   -0.5640  222.2411 198.99  19.0 200.0  0     0.0000    1.1403
AK_EYAK_--   ?    BHZ  ? P      -0 20181130 1755   41.9684 GAU  4.00e-02 -1.00e+00  1.14e+01  2.00e-02    1.0000 >   37.1364    1.4221    0.8532  233.0342  -42.7188   -0.1339  247.4092 111.13 291.1 200.0  0     0.0000    0.7427
AK_DHY_--    ?    BHZ  ? S      -0 20181130 1756    5.0483 GAU  2.40e-01 -1.00e+00  1.03e+01  1.02e+01    1.0000 >    0.0000    0.0000    0.0000  132.6689  233.9657   -1.6110    0.0000   0.00 359.0  -1.0  0     0.0000    0.0000
AK_KTH_--    ?    BHZ  ? P      0 20181130 1755   40.6484 GAU  6.00e-02 -1.00e+00  1.26e+01  2.00e-02    1.0000 >    0.0000    0.0000    0.0000  -45.9401  284.8846   -1.1720    0.0000   0.00 359.0  -1.0  0     0.0000    0.0000
AK_CHUM_--   ?    BHZ  ? P      -0 20181130 1755   46.8084 GAU  6.00e-02 -1.00e+00  1.04e+01  2.00e-02    1.0000 >    0.0000    0.0000    0.0000 -113.8756  323.3981   -0.2170    0.0000   0.00 359.0  -1.0  0     0.0000    0.0000
AK_BMR_--    ?    BHZ  ? P      ? 20181130 1755   49.5484 GAU  4.00e-02 -1.00e+00  1.30e+01  2.00e-02    1.0000 >    0.0000    0.0000    0.0000  291.8435    8.4259   -0.8420    0.0000   0.00 359.0  -1.0  0     0.0000    0.0000
AK_GOAT_--   ?    BHZ  ? P      0 20181130 1755   49.7684 GAU  6.00e-02 -1.00e+00  1.08e+01  4.00e-02    1.0000 >    0.0000    0.0000    0.0000  288.6122  -35.1201   -0.8955    0.0000   0.00 359.0  -1.0  0     0.0000    0.0000
AK_GLB_--    ?    BHZ  ? P      -0 20181130 1755   54.4084 GAU  4.00e-02 -1.00e+00  1.31e+01  2.00e-02    1.0000 >    0.0000    0.0000    0.0000  329.6303   64.7945   -0.8549    0.0000   0.00 359.0  -1.0  0     0.0000    0.0000
NP040_D0     ?    HNZ  ? P      ? 20181130 1755   12.0345 GAU  5.00e-03 -1.00e+00  1.56e+01  5.00e-03    1.0000 >    0.0000    0.0000    0.0000 -100000000000000000000.0000 -100000000000000000000.0000 -100000000000000000000.0000    0.0000   0.00 359.0  -1.0  0     0.0000    0.0000
END_PHASE
END_NLLOC

