NLLOC "./loc/alaska.20181130.182011.grid0" "LOCATED" "Location completed."
SIGNATURE "NonLinLoc - ALomax Scientific   obs:./obs/2018-11-30-mww70-southern-alaska.obs   NLLoc:v7.00.02(17Oct2018)   run:06Dec2018 13h26m13"
COMMENT "2018-11-30 Mww7.0 Southern Alaska (NonLinLoc Sample Location)"
GRID  201 201 106  -100 -100 -5  1 1 1 PROB_DENSITY
SEARCH OCTREE nInitial 400 nEvaluated 20008 smallestNodeSide 0.312500/0.312500/0.414062 oct_tree_integral 1.324097e+02 scatter_volume 1.321752e+02
HYPOCENTER  x -42.0312 y 62.3438 z -3.96484  OT 1.36628  ix -1 iy -1 iz -1 MAXIMUM_LIKELIHOOD
GEOGRAPHIC  OT 2018 11 30  18 20 1.366281  Lat 61.557250 Long -150.790755 Depth -3.964844
QUALITY  Pmax 1.08972e+23 MFmin 13.4643 MFmax 14.4948 RMS 0.940362 Nphs 16 Gap 56.9178 Dist 55.9413 Mamp -9.90 0 Mdur -9.90 0
VPVSRATIO  VpVsRatio -1  Npair 0  Diff -2e+30
STATISTICS  ExpectX -35.3136 Y 62.9412 Z 10.925  CovXX 82.2499 XY -25.816 XZ 17.1032 YY 54.2834 YZ 48.7336 ZZ 390.115 EllAz1  209.515 Dip1  8.07314 Len1  10.5825 Az2  299.268 Dip2  -1.74221 Len2  18.5343 Len3  3.746410e+01
STAT_GEOG  ExpectLat 61.563281 Long -150.664495 Depth 10.924957
TRANSFORM  LAMBERT RefEllipsoid Clarke-1880  LatOrig 61.000000  LongOrig -150.000000  FirstStdParal 60.000000  SecondStdParal 62.000000  RotCW 0.000000
QML_OriginQuality  assocPhCt 23  usedPhCt 16  assocStaCt -1  usedStaCt 16  depthPhCt -1  stdErr 0.940362  azGap 56.9178  secAzGap 103.063  gtLevel -  minDist 55.9413 maxDist 265.675 medDist 163.789
QML_OriginUncertainty  horUnc -1  minHorUnc 9.4597  maxHorUnc 14.9847  azMaxHorUnc 120.779
QML_ConfidenceEllipsoid  semiMajorAxisLength 37.4641  semiMinorAxisLength 10.5825  semiIntermediateAxisLength 18.5343  majorAxisPlunge 81.7386  majorAxisAzimuth 17.176  majorAxisRotation 258.275
FOCALMECH  Hyp  61.557250 -150.790755 -3.964844 Mech  0 0 0 mf  0 nObs 0
PHASE ID Ins Cmp On Pha  FM Date     HrMn   Sec     Err  ErrMag    Coda      Amp       Per       PriorWt  >   TTpred    Res       Weight    StaLoc(X  Y         Z)        SDist    SAzim  RAz  RDip RQual    Tcorr       TTerr
AV_STLK_--   ?    BHZ  ? P      ? 20181130 1820   11.9800 GAU  6.00e-02 -1.00e+00  1.41e+01  2.00e-02    1.0000 >   10.5803    0.0334    2.6657  -97.7049   56.8786   -0.9450   55.9413 264.39 264.4  85.9  9     0.0000    0.2116
AK_SKN_--    ?    BHZ  ? P      0 20181130 1820   12.9284 GAU  4.00e-02 -1.00e+00  1.62e+01  2.00e-02    1.0000 >   11.5824   -0.0203    2.6738  -80.3077  110.1399   -0.5810   61.2336 321.31 321.3  85.9  9     0.0000    0.2316
AV_SPBL_--   ?    BHZ  ? P      0 20181130 1820   12.7800 GAU  4.00e-02 -1.00e+00  1.40e+01  2.00e-02    1.0000 >   11.7598   -0.3461    1.8108 -101.2807   43.4033   -0.9270   62.2033 252.27 252.3  86.2  9     0.0000    0.2352
AV_SPCG_--   ?    BHZ  ? P      ? 20181130 1820   15.2000 GAU  6.00e-02 -1.00e+00  1.12e+01  2.00e-02    1.0000 >   13.6260    0.2077    2.1891 -108.4188   34.1306   -1.3290   72.1339 246.98 247.0  83.5  9     0.0000    0.2725
AV_SPCR_--   ?    BHZ  ? P      0 20181130 1820   17.0600 GAU  6.00e-02 -1.00e+00  1.21e+01  2.00e-02    1.0000 >   15.7441   -0.0503    2.4757 -118.7430   24.3192   -0.9840   85.6187 243.63 243.6  50.2 10     0.0000    0.3149
AK_CUT_--    ?    BHZ  ? P      -0 20181130 1820   16.1400 GAU  6.00e-02 -1.00e+00  1.23e+01  2.00e-02    1.0000 >   17.5542   -2.7805    0.3955  -13.5739  156.6879   -0.5740   98.5426  16.79  16.8  47.7 10     0.0000    0.3511
AK_SLK_--    ?    BHZ  ? P      0 20181130 1820   14.5884 GAU  4.00e-02 -1.00e+00  1.52e+01  2.00e-02    1.0000 >   20.5375   -7.3153    0.0214  -12.2555  -54.3822   -0.6550  120.4638 165.69 165.7  45.7 10     0.0000    0.4107
AV_RDJH_--   ?    BHZ  ? P      0 20181130 1820   30.6600 GAU  1.20e-01 -1.00e+00  1.10e+01  5.12e+00    1.0000 >   24.9402    4.3535    0.2179 -153.7080  -42.3314   -1.4140  153.0640 226.85 226.9  43.5 10     0.0000    0.4988
AK_WAT7_--   ?    BHZ  ? P      -0 20181130 1820   30.6484 GAU  8.00e-02 -1.00e+00  1.29e+01  2.56e+00    1.0000 >   27.7014    1.5807    0.1576   58.7508  204.8162   -1.2320  174.5149  35.27  35.3  43.5 10     0.0000    0.5540
AK_SWD_--    ?    BHZ  ? P      0 20181130 1820   26.9484 GAU  8.00e-02 -1.00e+00  1.15e+01  3.20e-01    1.0000 >   27.9299   -2.3478    0.4711   30.4489  -99.6652   -0.0770  177.4831 155.90 155.9  43.5 10     0.0000    0.5586
AK_SCM_--    ?    BHZ  ? P      0 20181130 1820   25.8884 GAU  8.00e-02 -1.00e+00  1.18e+01  6.40e-01    1.0000 >   29.1315   -4.6094    0.1711  140.6889   95.5759   -1.0500  185.7176  79.69  79.7  43.5 10     0.0000    0.5826
AK_WAT6_--   ?    BHZ  ? P      -0 20181130 1820   32.1084 GAU  4.00e-02 -1.00e+00  1.07e+01  2.00e-02    1.0000 >   30.5621    0.1800    1.7423  116.1703  178.1736   -1.6810  196.0722  53.79  53.8  43.5 10     0.0000    0.6112
AK_BRSE_--   ?    BHZ  ? P      0 20181130 1820   36.3084 GAU  4.00e-02 -1.00e+00  1.12e+01  2.00e-02    1.0000 >   31.2159    3.7262    0.2259  -41.6971 -139.9566   -0.5410  202.3006 179.91 179.9  43.5 10     0.0000    0.6243
AK_GLI_--    ?    HNZ  ? P      -0 20181130 1820   28.3395 GAU  1.50e-02 -1.00e+00  1.07e+01  8.00e-02    1.0000 >   32.5102   -5.5369    0.1747  157.6640   -9.9635   -0.4300  212.3829 109.90 109.9  43.5 10     0.0000    0.6502
AK_TRF_--    ?    BHZ  ? P      0 20181130 1820   40.9484 GAU  6.00e-02 -1.00e+00  1.02e+01  4.00e-02    1.0000 >   32.7125    6.8696    0.0036  -14.4406  273.1461   -1.7099  212.6003   7.46   7.5  43.5 10     0.0000    0.6543
AK_HIN_--    ?    HNZ  ? P      0 20181130 1820   39.1995 GAU  2.00e-02 -1.00e+00  1.19e+01  5.00e-03    1.0000 >   39.3948   -1.5616    0.6038  192.6700  -62.1501   -0.6229  265.6754 117.94 117.9  42.2 10     0.0000    0.7879
AK_CAST_--   ?    BHZ  ? P      ? 20181130 1820   39.1484 GAU  1.80e-01 -1.00e+00  1.01e+01  1.60e-01    1.0000 >    0.0000    0.0000    0.0000 -104.1740  271.2800   -0.6110    0.0000   0.00 359.0  -1.0  0     0.0000    0.0000
AK_CHUM_--   ?    BHZ  ? P      -0 20181130 1820   44.8884 GAU  4.00e-02 -1.00e+00  1.29e+01  2.00e-02    1.0000 >    0.0000    0.0000    0.0000 -113.8756  323.3981   -0.2170    0.0000   0.00 359.0  -1.0  0     0.0000    0.0000
AK_KTH_--    ?    BHZ  ? P      0 20181130 1820   38.6484 GAU  1.20e-01 -1.00e+00  1.02e+01  5.12e+00    1.0000 >    0.0000    0.0000    0.0000  -45.9401  284.8846   -1.1720    0.0000   0.00 359.0  -1.0  0     0.0000    0.0000
NP_AMJG1     ?    HNZ  ? P      0 20181130 1820   12.6850 GAU  2.00e-02 -1.00e+00  1.32e+01  8.00e-02    1.0000 >    0.0000    0.0000    0.0000 -100000000000000000000.0000 -100000000000000000000.0000 -100000000000000000000.0000    0.0000   0.00 359.0  -1.0  0     0.0000    0.0000
NP0521       ?    HNZ  ? S      -0 20181130 1820   49.6350 GAU  4.00e-02 -1.00e+00  1.03e+01  5.00e-03    1.0000 >    0.0000    0.0000    0.0000 -100000000000000000000.0000 -100000000000000000000.0000 -100000000000000000000.0000    0.0000   0.00 359.0  -1.0  0     0.0000    0.0000
AK_RAG_--    ?    BHZ  ? P      0 20181130 1820   51.8284 GAU  4.00e-02 -1.00e+00  1.39e+01  2.00e-02    1.0000 >    0.0000    0.0000    0.0000  293.2037  -56.4555   -0.7520    0.0000   0.00 359.0  -1.0  0     0.0000    0.0000
AK_MCK_--    ?    BHZ  ? P      -0 20181130 1820   42.7684 GAU  1.20e-01 -1.00e+00  1.16e+01  2.56e+00    1.0000 >    0.0000    0.0000    0.0000   52.5517  304.9713   -0.6180    0.0000   0.00 359.0  -1.0  0     0.0000    0.0000
END_PHASE
END_NLLOC

