NLLOC "./loc/alaska.20181130.182148.grid0" "LOCATED" "Location completed."
SIGNATURE "NonLinLoc - ALomax Scientific   obs:./obs/2018-11-30-mww70-southern-alaska.obs   NLLoc:v7.00.02(17Oct2018)   run:06Dec2018 13h26m13"
COMMENT "2018-11-30 Mww7.0 Southern Alaska (NonLinLoc Sample Location)"
GRID  201 201 106  -100 -100 -5  1 1 1 PROB_DENSITY
SEARCH OCTREE nInitial 400 nEvaluated 20000 smallestNodeSide 0.156250/0.156250/0.207031 oct_tree_integral 9.498040e+01 scatter_volume 9.498040e+01
HYPOCENTER  x -7.10938 y 51.1719 z -4.48242  OT 40.8671  ix -1 iy -1 iz -1 MAXIMUM_LIKELIHOOD
GEOGRAPHIC  OT 2018 11 30  18 21 40.867065  Lat 61.459201 Long -150.133331 Depth -4.482422
QUALITY  Pmax 1.39069e+70 MFmin 21.4336 MFmax 22.7678 RMS 1.13949 Nphs 30 Gap 47.6394 Dist 46.3646 Mamp -9.90 0 Mdur -9.90 0
VPVSRATIO  VpVsRatio -1  Npair 0  Diff -2e+30
STATISTICS  ExpectX -5.96021 Y 49.4555 Z -2.12752  CovXX 2.98855 XY -2.32371 XZ 0.428186 YY 6.12334 YZ -0.584766 ZZ 5.34409 EllAz1  62.2169 Dip1  -1.69327 Len1  2.48543 Az2  337.492 Dip2  72.175 Len2  4.25034 Len3  5.175601e+00
STAT_GEOG  ExpectLat 61.443817 Long -150.111724 Depth -2.127525
TRANSFORM  LAMBERT RefEllipsoid Clarke-1880  LatOrig 61.000000  LongOrig -150.000000  FirstStdParal 60.000000  SecondStdParal 62.000000  RotCW 0.000000
QML_OriginQuality  assocPhCt 37  usedPhCt 30  assocStaCt -1  usedStaCt 30  depthPhCt -1  stdErr 1.13949  azGap 47.6394  secAzGap 82.8897  gtLevel -  minDist 46.3646 maxDist 257.846 medDist 154.884
QML_OriginUncertainty  horUnc -1  minHorUnc 2.00797  maxHorUnc 4.11405  azMaxHorUnc 152
QML_ConfidenceEllipsoid  semiMajorAxisLength 5.1756  semiMinorAxisLength 2.48543  semiIntermediateAxisLength 4.25034  majorAxisPlunge 17.739  majorAxisAzimuth 151.675  majorAxisRotation 182.183
FOCALMECH  Hyp  61.459201 -150.133331 -4.482422 Mech  0 0 0 mf  0 nObs 0
PHASE ID Ins Cmp On Pha  FM Date     HrMn   Sec     Err  ErrMag    Coda      Amp       Per       PriorWt  >   TTpred    Res       Weight    StaLoc(X  Y         Z)        SDist    SAzim  RAz  RDip RQual    Tcorr       TTerr
AK_RC01_--   ?    BHZ  ? P      -0 20181130 1821   49.6800 GAU  4.00e-02 -1.00e+00  1.77e+01  2.00e-02    1.0000 >    8.7980    0.0149    1.2880   14.0814    9.9332   -0.3900   46.3646 152.80 152.8 200.0  0     0.0000    0.1760
AT_PMR_--    ?    BHZ  ? S      0 20181130 1821   58.7400 GAU  8.00e-02 -1.00e+00  1.24e+01  2.56e+00    1.0000 >   17.6302    0.2428    1.1322   46.1491   66.2909   -0.1000   55.3629  74.15  74.2 200.0  0     0.0000    0.3526
AK_GHO_--    ?    BHZ  ? S      0 20181130 1822    3.5884 GAU  1.40e-01 -1.00e+00  1.18e+01  2.56e+00    1.0000 >   23.1348   -0.4135    1.2497   56.6953   86.3740   -1.0320   72.8713  61.11  61.1 200.0  0     0.0000    0.4627
AK_KNK_--    ?    BHZ  ? S      ? 20181130 1822    6.3084 GAU  4.00e-02 -1.00e+00  1.30e+01  6.40e-01    1.0000 >   27.4265   -1.9852    0.8825   82.3084   46.9963   -0.5980   89.5153  92.67  92.7 200.0  0     0.0000    0.5485
AV_STLK_--   ?    BHZ  ? S      -0 20181130 1822    8.7200 GAU  6.00e-02 -1.00e+00  1.80e+01  1.28e+00    1.0000 >   27.8028    0.0501    1.1620  -97.7049   56.8786   -0.9450   90.7751 273.60 273.6 200.0  0     0.0000    0.5561
AK_SKN_--    ?    BHZ  ? S      0 20181130 1822    9.2284 GAU  8.00e-02 -1.00e+00  1.57e+01  1.28e+00    1.0000 >   28.5127   -0.1513    1.2126  -80.3077  110.1399   -0.5810   93.9958 308.85 308.9 200.0  0     0.0000    0.5703
AV_SPBL_--   ?    BHZ  ? S      ? 20181130 1822    9.4200 GAU  1.20e-01 -1.00e+00  1.93e+01  1.60e-01    1.0000 >   28.7026   -0.1496    1.2086 -101.2807   43.4033   -0.9270   94.4913 265.28 265.3 200.0  0     0.0000    0.5741
AV_SPCG_--   ?    BHZ  ? P      -0 20181130 1821   57.9600 GAU  1.00e-01 -1.00e+00  1.23e+01  1.28e+00    1.0000 >   18.2945   -1.2016    1.1196 -108.4188   34.1306   -1.3290  102.7327 260.45 260.5 200.0  0     0.0000    0.3659
AK_SAW_--    ?    BHZ  ? P      ? 20181130 1821   57.2484 GAU  8.00e-02 -1.00e+00  1.40e+01  3.20e-01    1.0000 >   18.2731   -1.8918    0.9167   87.9646   91.0412   -0.7810  103.0952  67.25  67.2 200.0  0     0.0000    0.3655
AK_SLK_--    ?    BHZ  ? S      0 20181130 1822    9.0684 GAU  1.20e-01 -1.00e+00  1.08e+01  5.12e+00    1.0000 >   31.2601   -3.0588    0.3370  -12.2555  -54.3822   -0.6550  105.6794 182.79 182.8 200.0  0     0.0000    0.6252
AK_CUT_--    ?    BHZ  ? S      ? 20181130 1822   11.4200 GAU  6.00e-02 -1.00e+00  1.12e+01  6.40e-01    1.0000 >   31.2501   -0.6972    1.2174  -13.5739  156.6879   -0.5740  105.7139 356.49 356.5 200.0  0     0.0000    0.6250
AV_SPCP_--   ?    BHZ  ? P      -0 20181130 1821   59.0080 GAU  2.00e-01 -1.00e+00  1.05e+01  2.56e+00    1.0000 >   19.3522   -1.2113    1.1272 -115.5968   31.4831   -1.6160  110.2595 259.71 259.7 200.0  0     0.0000    0.3870
AV_SPCR_--   ?    BHZ  ? P      0 20181130 1821   59.4000 GAU  6.00e-02 -1.00e+00  1.29e+01  6.40e-01    1.0000 >   19.8856   -1.3526    1.0976 -118.7430   24.3192   -0.9840  114.8178 256.47 256.5 200.0  0     0.0000    0.3977
AK_PWL_--    ?    HNZ  ? P      -0 20181130 1821   58.4795 GAU  1.25e-01 -1.00e+00  1.14e+01  5.12e+00    1.0000 >   20.2269   -2.6144    0.5236   90.5585  -14.6245   -0.5500  117.7633 123.97 124.0 200.0  0     0.0000    0.4045
AK_SCM_--    ?    BHZ  ? P      -0 20181130 1822    3.7284 GAU  4.00e-02 -1.00e+00  1.00e+01  8.00e-02    1.0000 >   25.1254   -2.2640    0.7407  140.6889   95.5759   -1.0500  154.3244  73.28  73.3 200.0  0     0.0000    0.5025
AK_SWD_--    ?    BHZ  ? S      -0 20181130 1822   23.7484 GAU  6.00e-02 -1.00e+00  1.14e+01  1.28e+00    1.0000 >   42.2324    0.6489    0.7915   30.4489  -99.6652   -0.0770  155.4427 166.02 166.0 200.0  0     0.0000    0.8446
AV_RDT_--    ?    BHZ  ? S      ? 20181130 1822   22.7400 GAU  8.00e-02 -1.00e+00  1.12e+01  2.56e+00    1.0000 >   42.9249   -1.0520    1.1340 -131.9721  -45.1925   -0.9300  157.7238 232.34 232.3 200.0  0     0.0000    0.8585
AK_WAT7_--   ?    BHZ  ? S      0 20181130 1822   26.2284 GAU  8.00e-02 -1.00e+00  1.11e+01  1.28e+00    1.0000 >   45.0538    0.3076    0.9449   58.7508  204.8162   -1.2320  167.1651  23.20  23.2 200.0  0     0.0000    0.9011
AK_WAT1_--   ?    HNZ  ? S      -0 20181130 1822   26.7784 GAU  6.00e-02 -1.00e+00  1.02e+01  6.40e-01    1.0000 >   46.3403   -0.4290    1.1328   73.8832  204.7152   -0.7220  173.5953  27.81  27.8 200.0  0     0.0000    0.9268
AV_RDJH_--   ?    BHZ  ? P      0 20181130 1822    6.5000 GAU  4.00e-02 -1.00e+00  1.07e+01  8.00e-02    1.0000 >   27.7144   -2.0814    0.8368 -153.7080  -42.3314   -1.4140  173.8793 237.47 237.5 200.0  0     0.0000    0.5543
AK_WAT6_--   ?    BHZ  ? S      0 20181130 1822   27.1684 GAU  3.40e-01 -1.00e+00  1.02e+01  2.56e+00    1.0000 >   47.3011   -0.9998    1.1015  116.1703  178.1736   -1.6810  176.9953  44.15  44.1 200.0  0     0.0000    0.9460
AV_RDWB_--   ?    BHZ  ? P      ? 20181130 1822    7.9600 GAU  4.00e-02 -1.00e+00  1.10e+01  8.00e-02    1.0000 >   28.8257   -1.7328    0.9863 -156.2149  -53.7095   -1.5460  182.2980 234.88 234.9 200.0  0     0.0000    0.5765
AV_RED_--    ?    BHZ  ? S      0 20181130 1822   29.3200 GAU  6.00e-02 -1.00e+00  1.18e+01  6.40e-01    1.0000 >   48.7161   -0.2631    1.0922 -152.7839  -61.4282   -1.0710  184.1192 232.30 232.3 200.0  0     0.0000    0.9743
AK_BRSE_--   ?    BHZ  ? S      -0 20181130 1822   31.9884 GAU  1.00e-01 -1.00e+00  1.00e+01  1.28e+00    1.0000 >   50.8016    0.3198    0.9126  -41.6971 -139.9566   -0.5410  194.2328 190.26 190.3 200.0  0     0.0000    1.0160
AK_BRLK_--   ?    BHZ  ? S      0 20181130 1822   31.0284 GAU  2.40e-01 -1.00e+00  1.05e+01  1.02e+01    1.0000 >   50.9298   -0.7684    1.1039  -50.9563 -138.7927   -0.4090  194.9592 193.00 193.0 200.0  0     0.0000    1.0186
AK_CNP_--    ?    BHZ  ? S      0 20181130 1822   38.5284 GAU  1.40e-01 -1.00e+00  1.22e+01  5.12e+00    1.0000 >   57.2719    0.3894    0.8587  -70.0410 -163.6652   -0.5640  223.8646 196.33 196.3 200.0  0     0.0000    1.1454
AK_KLU_--    ?    BHZ  ? S      ? 20181130 1822   38.0884 GAU  8.00e-02 -1.00e+00  1.03e+01  1.28e+00    1.0000 >   57.4969   -0.2755    1.0308  217.0370   61.6207   -1.0471  224.3897  87.33  87.3 200.0  0     0.0000    1.1499
AK_HIN_--    ?    HNZ  ? P      ? 20181130 1822   15.6045 GAU  1.00e-02 -1.00e+00  1.14e+01  4.00e-02    1.0000 >   34.8539   -0.1165    1.1611  192.6700  -62.1501   -0.6229  229.6817 119.56 119.6 200.0  0     0.0000    0.6971
AK_DIV_--    ?    BHZ  ? S      0 20181130 1822   39.0284 GAU  4.00e-02 -1.00e+00  1.23e+01  2.00e-02    1.0000 >   60.1035   -1.9421    0.8358  227.5020   21.7345   -0.9414  236.4509  97.15  97.2 200.0  0     0.0000    1.2021
AK_EYAK_--   ?    BHZ  ? P      ? 20181130 1822   19.8084 GAU  4.00e-02 -1.00e+00  3.02e+01  2.00e-02    1.0000 >   38.4073    0.5341    0.8615  233.0342  -42.7188   -0.1339  257.8456 111.35 111.4 200.0  0     0.0000    0.7681
AK_DHY_--    ?    BHZ  ? S      0 20181130 1822   42.2284 GAU  1.20e-01 -1.00e+00  1.03e+01  5.12e+00    1.0000 >    0.0000    0.0000    0.0000  132.6689  233.9657   -1.6110    0.0000   0.00 359.0  -1.0  0     0.0000    0.0000
NP_AHOU1     ?    HNZ  ? P      0 20181130 1821   49.5150 GAU  4.00e-02 -1.00e+00  1.14e+01  6.40e-01    1.0000 >    0.0000    0.0000    0.0000 -100000000000000000000.0000 -100000000000000000000.0000 -100000000000000000000.0000    0.0000   0.00 359.0  -1.0  0     0.0000    0.0000
NP_ABBK1     ?    HNZ  ? P      -0 20181130 1821   49.5250 GAU  1.00e-02 -1.00e+00  1.03e+01  5.00e-03    1.0000 >    0.0000    0.0000    0.0000 -100000000000000000000.0000 -100000000000000000000.0000 -100000000000000000000.0000    0.0000   0.00 359.0  -1.0  0     0.0000    0.0000
AK_CAST_--   ?    BHZ  ? P      -0 20181130 1822   16.0484 GAU  4.00e-02 -1.00e+00  1.01e+01  4.00e-02    1.0000 >    0.0000    0.0000    0.0000 -104.1740  271.2800   -0.6110    0.0000   0.00 359.0  -1.0  0     0.0000    0.0000
AK_KTH_--    ?    BHZ  ? P      -0 20181130 1822   16.1684 GAU  4.00e-02 -1.00e+00  1.25e+01  4.00e-02    1.0000 >    0.0000    0.0000    0.0000  -45.9401  284.8846   -1.1720    0.0000   0.00 359.0  -1.0  0     0.0000    0.0000
AK_CHUM_--   ?    BHZ  ? P      ? 20181130 1822   22.6084 GAU  4.00e-02 -1.00e+00  2.00e+01  4.00e-02    1.0000 >    0.0000    0.0000    0.0000 -113.8756  323.3981   -0.2170    0.0000   0.00 359.0  -1.0  0     0.0000    0.0000
NP040_D0     ?    HNZ  ? P      -0 20181130 1821   48.5745 GAU  1.00e-02 -1.00e+00  1.11e+01  5.00e-03    1.0000 >    0.0000    0.0000    0.0000 -100000000000000000000.0000 -100000000000000000000.0000 -100000000000000000000.0000    0.0000   0.00 359.0  -1.0  0     0.0000    0.0000
END_PHASE
END_NLLOC

