NLLOC "./loc/alaska.20181130.181045.grid0" "LOCATED" "Location completed."
PUBLIC_ID None
SIGNATURE "NonLinLoc - ALomax Scientific   obs:./obs/2018-11-30-mww70-southern-alaska.obs   NLLoc:v7.00.13(17Jan2022)   run:13May2022 09h03m15"
COMMENT "2018-11-30 Mww7.0 Southern Alaska (NonLinLoc Sample Location)"
GRID  201 201 106  -100 -100 -5  1 1 1 PROB_DENSITY
SEARCH OCTREE nInitial 400 nEvaluated 20008 smallestNodeSide 0.156250/0.156250/0.205078 oct_tree_integral 8.192446e+01 scatter_volume 8.192446e+01
HYPOCENTER  x 7.89062 y 63.5156 z -4.07715  OT 34.8538  ix -1 iy -1 iz -1 MAXIMUM_LIKELIHOOD
GEOGRAPHIC  OT 2018 11 30  18 10 34.853799  Lat 61.569963 Long -149.851493 Depth -4.077148
QUALITY  Pmax 7.7756e+58 MFmin 19.5055 MFmax 20.721 RMS 0.849865 Nphs 26 Gap 49.1646 Dist 38.359 Mamp -9.90 0 Mdur -9.90 0
VPVSRATIO  VpVsRatio -1  Npair 0  Diff -2e+30
STATISTICS  ExpectX 7.123275 Y 63.415510 Z 1.529458  CovXX 3.38715 XY 0.0508394 XZ -3.98084 YY 4.06342 YZ 1.28214 ZZ 53.4733 EllAz1  98.8066 Dip1  4.68262 Len1  3.28086 Az2  188.869 Dip2  0.757138 Len2  3.78303 Len3  1.378354e+01
STAT_GEOG  ExpectLat 61.569079 Long -149.865939 Depth 1.529458
TRANSFORM  LAMBERT RefEllipsoid Clarke-1880  LatOrig 61.000000  LongOrig -150.000000  FirstStdParal 60.000000  SecondStdParal 62.000000  RotCW 0.000000
QML_OriginQuality  assocPhCt 28  usedPhCt 26  assocStaCt -1  usedStaCt 26  depthPhCt -1  stdErr 0.849865  azGap 49.1646  secAzGap 81.9337  gtLevel -  minDist 38.359 maxDist 248.949 medDist 130.068
QML_OriginUncertainty  horUnc -1  minHorUnc 2.78957  maxHorUnc 3.05853  azMaxHorUnc 4.27525
QML_ConfidenceEllipsoid  semiMajorAxisLength 13.7835  semiMinorAxisLength 3.28086  semiIntermediateAxisLength 3.78303  majorAxisPlunge -85.2563  majorAxisAzimuth 108.032  majorAxisRotation 260.929
FOCALMECH  Hyp  61.569963 -149.851493 -4.077148 Mech  0 0 0 mf  0 nObs -1
PHASE ID Ins Cmp On Pha  FM Date     HrMn   Sec     Err  ErrMag    Coda      Amp       Per       PriorWt  >   TTpred    Res       Weight    StaLoc(X  Y         Z)        SDist    SAzim  RAz  RDip RQual    Tcorr       TTerr
AT_PMR_--    ?    BHZ  ? P      0 20181130 1810   45.3400 GAU  1.20e-01 -1.00e+00  1.46e+01  5.12e+00    1.0000 >    7.2929    3.1933    0.2140   46.1491   66.2909   -0.1000   38.3590  85.85 265.9 200.0  0     0.0000    0.1459
AK_GHO_--    ?    BHZ  ? S      -0 20181130 1810   55.7284 GAU  1.00e-01 -1.00e+00  1.23e+01  1.28e+00    1.0000 >   17.1278    3.7468    0.1362   56.6953   86.3740   -1.0320   53.8925  64.90 244.9 200.0  0     0.0000    0.3426
AK_RC01_--   ?    BHZ  ? P      -0 20181130 1810   47.3600 GAU  1.20e-01 -1.00e+00  1.33e+01  2.56e+00    1.0000 >   10.2145    2.2917    0.2370   14.0814    9.9332   -0.3900   53.9388 173.41 353.4 200.0  0     0.0000    0.2043
AK_KNK_--    ?    BHZ  ? P      0 20181130 1810   49.6684 GAU  4.00e-02 -1.00e+00  1.80e+01  8.00e-02    1.0000 >   14.3129    0.5017    1.2406   82.3084   46.9963   -0.5980   76.2292 102.52 282.5 200.0  0     0.0000    0.2863
AK_SAW_--    ?    BHZ  ? P      -0 20181130 1810   50.2684 GAU  4.00e-02 -1.00e+00  1.05e+01  2.00e-02    1.0000 >   15.5961   -0.1815    1.4962   87.9646   91.0412   -0.7810   84.6729  71.03 251.0 200.0  0     0.0000    0.3119
AK_CUT_--    ?    BHZ  ? S      0 20181130 1811    3.7000 GAU  6.00e-02 -1.00e+00  1.26e+01  3.20e-01    1.0000 >   28.8187    0.0275    1.3605  -13.5739  156.6879   -0.5740   95.6128 347.03 167.0 200.0  0     0.0000    0.5764
AK_SKN_--    ?    BHZ  ? S      -0 20181130 1811    4.8084 GAU  1.20e-01 -1.00e+00  1.16e+01  5.12e+00    1.0000 >   29.8012    0.1534    1.3226  -80.3077  110.1399   -0.5810   99.7635 297.86 117.9 200.0  0     0.0000    0.5960
AV_STLK_--   ?    BHZ  ? S      -0 20181130 1811    6.7600 GAU  1.00e-01 -1.00e+00  1.40e+01  2.56e+00    1.0000 >   31.2624    0.6438    1.0648  -97.7049   56.8786   -0.9450  105.8039 266.40  86.4 200.0  0     0.0000    0.6252
AV_SPBL_--   ?    BHZ  ? P      -0 20181130 1810   54.3400 GAU  4.00e-02 -1.00e+00  1.03e+01  2.00e-02    1.0000 >   19.3100    0.1762    1.4804 -101.2807   43.4033   -0.9270  111.0085 259.56  79.6 200.0  0     0.0000    0.3862
AK_PWL_--    ?    HNZ  ? S      -0 20181130 1811    8.2945 GAU  4.50e-02 -1.00e+00  1.13e+01  1.28e+00    1.0000 >   32.9811    0.4596    1.1692   90.5585  -14.6245   -0.5500  113.7535 133.39 313.4 200.0  0     0.0000    0.6596
AK_SLK_--    ?    BHZ  ? S      -0 20181130 1811    8.8684 GAU  8.00e-02 -1.00e+00  1.29e+01  6.40e-01    1.0000 >   34.3332   -0.3186    1.1982  -12.2555  -54.3822   -0.6550  119.6067 189.70   9.7 200.0  0     0.0000    0.6867
AV_SPCG_--   ?    BHZ  ? P      -0 20181130 1810   55.4800 GAU  4.00e-02 -1.00e+00  1.27e+01  1.60e-01    1.0000 >   20.5726    0.0536    1.4927 -108.4188   34.1306   -1.3290  119.9640 255.82  75.8 200.0  0     0.0000    0.4115
AV_SPCP_--   ?    BHZ  ? P      ? 20181130 1810   56.5480 GAU  8.00e-02 -1.00e+00  1.07e+01  2.00e-02    1.0000 >   21.6379    0.0563    1.4723 -115.5968   31.4831   -1.6160  127.5744 255.46  75.5 200.0  0     0.0000    0.4328
AV_SPCR_--   ?    BHZ  ? P      -0 20181130 1810   56.8400 GAU  8.00e-02 -1.00e+00  1.28e+01  6.40e-01    1.0000 >   22.2219   -0.2357    1.3953 -118.7430   24.3192   -0.9840  132.5610 252.80  72.8 200.0  0     0.0000    0.4444
AK_SCM_--    ?    BHZ  ? P      -0 20181130 1810   56.8484 GAU  4.00e-02 -1.00e+00  1.36e+01  2.00e-02    1.0000 >   22.7652   -0.7706    0.9230  140.6889   95.5759   -1.0500  136.6134  76.43 256.4 200.0  0     0.0000    0.4553
AK_WAT7_--   ?    BHZ  ? S      -0 20181130 1811   16.5684 GAU  1.20e-01 -1.00e+00  1.04e+01  5.12e+00    1.0000 >   41.2536    0.4610    1.0859   58.7508  204.8162   -1.2320  150.1753  19.80 199.8 200.0  0     0.0000    0.8251
AK_WAT6_--   ?    BHZ  ? S      0 20181130 1811   17.6684 GAU  1.20e-01 -1.00e+00  1.01e+01  5.12e+00    1.0000 >   42.9992   -0.1846    1.1197  116.1703  178.1736   -1.6810  157.7052  43.36 223.4 200.0  0     0.0000    0.8600
AV_RDT_--    ?    BHZ  ? S      0 20181130 1811   21.9800 GAU  6.00e-02 -1.00e+00  1.06e+01  1.28e+00    1.0000 >   47.0682    0.0580    1.0923 -131.9721  -45.1925   -0.9300  177.1413 232.14  52.1 200.0  0     0.0000    0.9414
AV_RDJH_--   ?    BHZ  ? P      0 20181130 1811    4.6400 GAU  4.00e-02 -1.00e+00  1.46e+01  2.00e-02    1.0000 >   30.1652   -0.3790    1.2221 -153.7080  -42.3314   -1.4140  193.1779 236.78  56.8 200.0  0     0.0000    0.6033
AK_FID_--    ?    BHZ  ? S      0 20181130 1811   26.7684 GAU  2.00e-02 -1.00e+00  1.31e+01  2.00e-02    1.0000 >   51.6707    0.2439    1.0302  185.5109  -25.5209   -0.5000  198.6869 116.62 296.6 200.0  0     0.0000    1.0334
AV_RDWB_--   ?    BHZ  ? P      ? 20181130 1811    5.4600 GAU  2.00e-02 -1.00e+00  1.15e+01  2.00e-02    1.0000 >   31.2866   -0.6804    1.0044 -156.2149  -53.7095   -1.5460  201.6739 234.46  54.5 200.0  0     0.0000    0.6257
AV_RED_--    ?    BHZ  ? S      0 20181130 1811   28.9400 GAU  6.00e-02 -1.00e+00  1.00e+01  6.40e-01    1.0000 >   52.8595    1.2267    0.7502 -152.7839  -61.4282   -1.0710  203.5369 232.13  52.1 200.0  0     0.0000    1.0572
AK_KLU_--    ?    BHZ  ? S      -0 20181130 1811   28.8484 GAU  2.20e-01 -1.00e+00  1.29e+01  5.12e+00    1.0000 >   54.0797   -0.0851    0.9939  217.0370   61.6207   -1.0471  209.1549  90.52 270.5 200.0  0     0.0000    1.0816
AK_HIN_--    ?    HNZ  ? P      0 20181130 1811   11.3245 GAU  2.55e-01 -1.00e+00  1.04e+01  1.02e+01    1.0000 >   33.9907    2.4800    0.3383  192.6700  -62.1501   -0.6229  223.4621 124.22 304.2 200.0  0     0.0000    0.6798
AK_DIV_--    ?    BHZ  ? S      0 20181130 1811   31.3684 GAU  6.00e-02 -1.00e+00  1.01e+01  2.00e-02    1.0000 >   57.1964   -0.6818    0.8440  227.5020   21.7345   -0.9414  223.5504 100.77 280.8 200.0  0     0.0000    1.1439
AK_EYAK_--   ?    BHZ  ? P      0 20181130 1811   14.8684 GAU  6.00e-02 -1.00e+00  1.01e+01  3.20e-01    1.0000 >   37.2195    2.7951    0.3160  233.0342  -42.7188   -0.1339  248.9485 115.26 295.3 200.0  0     0.0000    0.7444
AT_SVW2_--   ?    BHZ  ? P      0 20181130 1811   18.0600 GAU  4.00e-02 -1.00e+00  1.11e+01  2.00e-02    1.0000 >    0.0000    0.0000    0.0000 -302.7416   25.0539   -0.4988    0.0000   0.00 359.0  -1.0  0     0.0000    0.0000
AK_RND_--    ?    BHZ  ? S      0 20181130 1811   22.3684 GAU  1.20e-01 -1.00e+00  1.18e+01  5.12e+00    1.0000 >    0.0000    0.0000    0.0000   56.9974  268.6460   -0.9936    0.0000   0.00 359.0  -1.0  0     0.0000    0.0000
END_PHASE
END_NLLOC

