NLLOC "./loc/vinti.19950422.151153.grid0" "LOCATED" "Location completed."
SIGNATURE "Anthony Lomax - ALomax Scientific   NLLoc:v5.11.6 29Nov2010 11h34m17"
COMMENT "1995 Vintimiglia Sequence (NonLinLoc Sample Location)"
GRID  101 101 21  -50 -50 0  1 1 1 PROB_DENSITY
SEARCH OCTREE nInitial 400 nEvaluated 10016 smallestNodeSide 0.156250/0.156250/0.082031 oct_tree_integral 7.802625e+00 scatter_volume 7.802625e+00
HYPOCENTER  x 4.60938 y 4.92188 z 10.7051  OT 51.049  ix -1 iy -1 iz -1
GEOGRAPHIC  OT 1995 04 22  15 11    51.049  Lat 43.7943 Long 7.55728 Depth 10.7051
QUALITY  Pmax 2.41849e+38 MFmin 24.0434 MFmax 24.262 RMS 0.0956408 Nphs 15 Gap 184.194 Dist 10.214 Mamp  -9.9 0 Mdur  -9.9 0
VPVSRATIO  VpVsRatio 1.61691  Npair 4  Diff 1.91
STATISTICS  ExpectX 4.48414 Y 4.23516 Z 9.50756  CovXX 0.249954 XY 0.189289 XZ 0.465122 YY 3.28032 YZ 3.11619 ZZ 6.58098 EllAz1  88.5718 Dip1  -4.87219 Len1  0.871203 Az2  355.669 Dip2  -30.7128 Len2  2.23058 Len3  5.473413e+00
STAT_GEOG  ExpectLat 43.7881 Long 7.55571 Depth 9.50756
TRANSFORM  LAMBERT RefEllipsoid Clarke-1880  LatOrig 43.750000  LongOrig 7.500000  FirstStdParal 43.199300  SecondStdParal 44.996100  RotCW 0.000000
QML_OriginQuality  assocPhCt 31  usedPhCt 15  assocStaCt -1  usedStaCt 9  depthPhCt -1  stdErr 0.0956408  azGap 184.194  secAzGap 225.042  gtLevel -  minDist 10.214 maxDist 34.4713 medDist 20.378
QML_OriginUncertainty  horUnc -1  minHorUnc 0.740138  maxHorUnc 2.75169  azMaxHorUnc 3.56049
FOCALMECH  Hyp  43.7943 7.55728 10.7051 Mech  0 0 0 mf  0 nObs 0
PHASE ID Ins Cmp On Pha  FM Date     HrMn   Sec     Err  ErrMag    Coda      Amp       Per       PriorWt  >   TTpred    Res       Weight    StaLoc(X  Y         Z)        SDist    SAzim  RAz  RDip RQual    Tcorr       TTerr
RONE   ?    ?    ? P      ? 19950422 1511   53.6300 GAU  1.00e-01 -1.00e+00 -1.00e+00 -1.00e+00    1.0000 >    2.7362   -0.1552    0.9495    7.8887   14.5952   -0.3000   10.2140  18.73  18.7 131.6  9     0.0000    0.0500
RONE   ?    ?    ? S      ? 19950422 1511   55.7000 GAU  1.00e-01 -1.00e+00 -1.00e+00 -1.00e+00    1.0000 >    4.5969    0.0542    1.2120    7.8887   14.5952   -0.3000   10.2140  18.73  18.7 131.6  9     0.0000    0.0500
SBF    ?    ?    P G      ? 19950422 1511   54.3200 GAU  1.00e-01 -1.00e+00 -1.00e+00 -1.00e+00    1.0000 >    3.1435    0.1275    0.9748   -5.2384   12.6113   -0.8470   12.4942 307.98 308.0 124.4  9     0.0000    0.0500
NEGI   ?    ?    ? P      ? 19950422 1511   54.1300 GAU  1.00e-01 -1.00e+00 -1.00e+00 -1.00e+00    1.0000 >    3.1942   -0.1531    0.9577   16.3893   10.8705   -0.6400   13.1967  63.21  63.2 122.3  9     0.0400    0.0500
NEGI   ?    ?    ? S      ? 19950422 1511   56.4200 GAU  1.00e-01 -1.00e+00 -1.00e+00 -1.00e+00    1.0000 >    5.3662   -0.0352    1.2673   16.3893   10.8705   -0.6400   13.1967  63.21  63.2 122.3  9     0.0400    0.0537
REVF   ?    ?    P G      ? 19950422 1511   53.8700 GAU  1.00e-01 -1.00e+00 -1.00e+00 -1.00e+00    1.0000 >    3.6613   -0.8403    0.0079  -10.6730   -1.1024   -0.7000   16.4269 248.49 248.5 115.8  9     0.0000    0.0500
CEPP   ?    ?    ? P      ? 19950422 1511   55.3200 GAU  1.00e-01 -1.00e+00 -1.00e+00 -1.00e+00    1.0000 >    4.3231   -0.0520    1.2514   19.7971   18.5085   -1.0800   20.3780  48.18  48.2 110.3  9     0.0000    0.0500
CEPP   ?    ?    ? S      ? 19950422 1511   58.3400 GAU  1.00e-01 -1.00e+00 -1.00e+00 -1.00e+00    1.0000 >    7.2627    0.0283    1.2245   19.7971   18.5085   -1.0800   20.3780  48.18  48.2 110.3  9     0.0000    0.0726
AURF   ?    ?    P G      ? 19950422 1511   55.5400 GAU  1.00e-01 -1.00e+00 -1.00e+00 -1.00e+00    1.0000 >    4.4354    0.0556    1.2087  -13.8607   15.2716   -1.0400   21.1722 299.26 299.3 109.2  9     0.0000    0.0500
AURF   ?    ?    ? p      ? 19950422 1511   55.5700 GAU  5.00e-01 -1.00e+00 -1.00e+00 -1.00e+00    1.0000 >    4.4354    0.0856    0.5007  -13.8607   15.2716   -1.0400   21.1722 299.26 299.3 109.2  9     0.0000    0.0500
AUTN   ?    ?    P G      ? 19950422 1511   56.0300 GAU  1.00e-01 -1.00e+00 -1.00e+00 -1.00e+00    1.0000 >    5.1736   -0.1925    0.7954   -5.8149   27.2765   -2.0690   24.6657 335.00 335.0 106.1  9     0.0000    0.0517
AUTN   ?    ?    i p      u 19950422 1511   56.1800 GAU  1.00e-01 -1.00e+00 -1.00e+00 -1.00e+00    1.0000 >    5.1736   -0.0425    1.2621   -5.8149   27.2765   -2.0690   24.6657 335.00 335.0 106.1  9     0.0000    0.0517
IMI    ?    ?    ? P      ? 19950422 1511   56.8700 GAU  1.00e-01 -1.00e+00 -1.00e+00 -1.00e+00    1.0000 >    5.7575    0.0636    1.1813   31.5793   17.9062   -0.8400   29.9328  64.29  64.3 100.5  9     0.0000    0.0576
IMI    ?    ?    ? S      ? 19950422 1512    0.8500 GAU  1.00e-01 -1.00e+00 -1.00e+00 -1.00e+00    1.0000 >    9.6725    0.1285    0.9469   31.5793   17.9062   -0.8400   29.9328  64.29  64.3 100.5  9     0.0000    0.0967
MVIF   ?    ?    P G      ? 19950422 1511   57.6400 GAU  1.00e-01 -1.00e+00 -1.00e+00 -1.00e+00    1.0000 >    6.5979   -0.0069    1.2600  -27.9180   16.3343   -1.4800   34.4713 289.33 289.3  98.0  9     0.0000    0.0660
END_PHASE
END_NLLOC

