NLLOC "./loc/alaska.20181130.181045.grid0" "LOCATED" "Location completed."
SIGNATURE "NonLinLoc - ALomax Scientific   obs:./obs/2018-11-30-mww70-southern-alaska.obs   NLLoc:v7.00.02(17Oct2018)   run:06Dec2018 13h26m13"
COMMENT "2018-11-30 Mww7.0 Southern Alaska (NonLinLoc Sample Location)"
GRID  201 201 106  -100 -100 -5  1 1 1 PROB_DENSITY
SEARCH OCTREE nInitial 400 nEvaluated 20016 smallestNodeSide 0.156250/0.156250/0.207031 oct_tree_integral 8.192446e+01 scatter_volume 8.192446e+01
HYPOCENTER  x 7.89062 y 63.5156 z -4.06836  OT 34.8556  ix -1 iy -1 iz -1 MAXIMUM_LIKELIHOOD
GEOGRAPHIC  OT 2018 11 30  18 10 34.855609  Lat 61.569963 Long -149.851493 Depth -4.068359
QUALITY  Pmax 7.7808e+58 MFmin 19.5059 MFmax 20.7208 RMS 0.849768 Nphs 26 Gap 49.1646 Dist 38.359 Mamp -9.90 0 Mdur -9.90 0
VPVSRATIO  VpVsRatio -1  Npair 0  Diff -2e+30
STATISTICS  ExpectX 7.06338 Y 63.4419 Z 1.57755  CovXX 3.58555 XY -0.00839767 XZ -4.53065 YY 4.16991 YZ 1.1993 ZZ 50.0095 EllAz1  96.1182 Dip1  5.64442 Len1  3.32723 Az2  186.205 Dip2  0.877733 Len2  3.8277 Len3  1.334873e+01
STAT_GEOG  ExpectLat 61.569317 Long -149.867065 Depth 1.577553
TRANSFORM  LAMBERT RefEllipsoid Clarke-1880  LatOrig 61.000000  LongOrig -150.000000  FirstStdParal 60.000000  SecondStdParal 62.000000  RotCW 0.000000
QML_OriginQuality  assocPhCt 28  usedPhCt 26  assocStaCt -1  usedStaCt 26  depthPhCt -1  stdErr 0.849768  azGap 49.1646  secAzGap 81.9337  gtLevel -  minDist 38.359 maxDist 248.949 medDist 130.068
QML_OriginUncertainty  horUnc -1  minHorUnc 2.87167  maxHorUnc 3.09694  azMaxHorUnc 179.177
QML_ConfidenceEllipsoid  semiMajorAxisLength 13.3487  semiMinorAxisLength 3.32723  semiIntermediateAxisLength 3.8277  majorAxisPlunge -84.2873  majorAxisAzimuth 105.014  majorAxisRotation 261.32
FOCALMECH  Hyp  61.569963 -149.851493 -4.068359 Mech  0 0 0 mf  0 nObs 0
PHASE ID Ins Cmp On Pha  FM Date     HrMn   Sec     Err  ErrMag    Coda      Amp       Per       PriorWt  >   TTpred    Res       Weight    StaLoc(X  Y         Z)        SDist    SAzim  RAz  RDip RQual    Tcorr       TTerr
AT_PMR_--    ?    BHZ  ? P      0 20181130 1810   45.3400 GAU  1.20e-01 -1.00e+00  1.46e+01  5.12e+00    1.0000 >    7.2926    3.1917    0.2142   46.1491   66.2909   -0.1000   38.3590  85.85  85.9 200.0  0     0.0000    0.1459
AK_GHO_--    ?    BHZ  ? S      -0 20181130 1810   55.7284 GAU  1.00e-01 -1.00e+00  1.23e+01  1.28e+00    1.0000 >   17.1276    3.7452    0.1363   56.6953   86.3740   -1.0320   53.8925  64.90  64.9 200.0  0     0.0000    0.3426
AK_RC01_--   ?    BHZ  ? P      -0 20181130 1810   47.3600 GAU  1.20e-01 -1.00e+00  1.33e+01  2.56e+00    1.0000 >   10.2144    2.2900    0.2371   14.0814    9.9332   -0.3900   53.9388 173.41 173.4 200.0  0     0.0000    0.2043
AK_KNK_--    ?    BHZ  ? P      0 20181130 1810   49.6684 GAU  4.00e-02 -1.00e+00  1.80e+01  8.00e-02    1.0000 >   14.3121    0.5007    1.2413   82.3084   46.9963   -0.5980   76.2292 102.52 102.5 200.0  0     0.0000    0.2862
AK_SAW_--    ?    BHZ  ? P      -0 20181130 1810   50.2684 GAU  4.00e-02 -1.00e+00  1.05e+01  2.00e-02    1.0000 >   15.5950   -0.1823    1.4960   87.9646   91.0412   -0.7810   84.6729  71.03  71.0 200.0  0     0.0000    0.3119
AK_CUT_--    ?    BHZ  ? S      0 20181130 1811    3.7000 GAU  6.00e-02 -1.00e+00  1.26e+01  3.20e-01    1.0000 >   28.8169    0.0275    1.3604  -13.5739  156.6879   -0.5740   95.6128 347.03 347.0 200.0  0     0.0000    0.5763
AK_SKN_--    ?    BHZ  ? S      -0 20181130 1811    4.8084 GAU  1.20e-01 -1.00e+00  1.16e+01  5.12e+00    1.0000 >   29.7993    0.1535    1.3225  -80.3077  110.1399   -0.5810   99.7635 297.86 297.9 200.0  0     0.0000    0.5960
AV_STLK_--   ?    BHZ  ? S      -0 20181130 1811    6.7600 GAU  1.00e-01 -1.00e+00  1.40e+01  2.56e+00    1.0000 >   31.2605    0.6439    1.0644  -97.7049   56.8786   -0.9450  105.8039 266.40 266.4 200.0  0     0.0000    0.6252
AV_SPBL_--   ?    BHZ  ? P      -0 20181130 1810   54.3400 GAU  4.00e-02 -1.00e+00  1.03e+01  2.00e-02    1.0000 >   19.3088    0.1756    1.4805 -101.2807   43.4033   -0.9270  111.0085 259.56 259.6 200.0  0     0.0000    0.3862
AK_PWL_--    ?    HNZ  ? S      -0 20181130 1811    8.2945 GAU  4.50e-02 -1.00e+00  1.13e+01  1.28e+00    1.0000 >   32.9792    0.4597    1.1690   90.5585  -14.6245   -0.5500  113.7535 133.39 133.4 200.0  0     0.0000    0.6596
AK_SLK_--    ?    BHZ  ? S      -0 20181130 1811    8.8684 GAU  8.00e-02 -1.00e+00  1.29e+01  6.40e-01    1.0000 >   34.3312   -0.3185    1.1984  -12.2555  -54.3822   -0.6550  119.6067 189.70 189.7 200.0  0     0.0000    0.6866
AV_SPCG_--   ?    BHZ  ? P      -0 20181130 1810   55.4800 GAU  4.00e-02 -1.00e+00  1.27e+01  1.60e-01    1.0000 >   20.5715    0.0529    1.4927 -108.4188   34.1306   -1.3290  119.9640 255.82 255.8 200.0  0     0.0000    0.4114
AV_SPCP_--   ?    BHZ  ? P      ? 20181130 1810   56.5480 GAU  8.00e-02 -1.00e+00  1.07e+01  2.00e-02    1.0000 >   21.6367    0.0556    1.4723 -115.5968   31.4831   -1.6160  127.5744 255.46 255.5 200.0  0     0.0000    0.4327
AV_SPCR_--   ?    BHZ  ? P      -0 20181130 1810   56.8400 GAU  8.00e-02 -1.00e+00  1.28e+01  6.40e-01    1.0000 >   22.2207   -0.2364    1.3951 -118.7430   24.3192   -0.9840  132.5610 252.80 252.8 200.0  0     0.0000    0.4444
AK_SCM_--    ?    BHZ  ? P      -0 20181130 1810   56.8484 GAU  4.00e-02 -1.00e+00  1.36e+01  2.00e-02    1.0000 >   22.7640   -0.7712    0.9226  140.6889   95.5759   -1.0500  136.6134  76.43  76.4 200.0  0     0.0000    0.4553
AK_WAT7_--   ?    BHZ  ? S      -0 20181130 1811   16.5684 GAU  1.20e-01 -1.00e+00  1.04e+01  5.12e+00    1.0000 >   41.2516    0.4612    1.0858   58.7508  204.8162   -1.2320  150.1753  19.80  19.8 200.0  0     0.0000    0.8250
AK_WAT6_--   ?    BHZ  ? S      0 20181130 1811   17.6684 GAU  1.20e-01 -1.00e+00  1.01e+01  5.12e+00    1.0000 >   42.9972   -0.1844    1.1198  116.1703  178.1736   -1.6810  157.7052  43.36  43.4 200.0  0     0.0000    0.8599
AV_RDT_--    ?    BHZ  ? S      0 20181130 1811   21.9800 GAU  6.00e-02 -1.00e+00  1.06e+01  1.28e+00    1.0000 >   47.0662    0.0582    1.0923 -131.9721  -45.1925   -0.9300  177.1413 232.14 232.1 200.0  0     0.0000    0.9413
AV_RDJH_--   ?    BHZ  ? P      0 20181130 1811    4.6400 GAU  4.00e-02 -1.00e+00  1.46e+01  2.00e-02    1.0000 >   30.1640   -0.3796    1.2219 -153.7080  -42.3314   -1.4140  193.1779 236.78 236.8 200.0  0     0.0000    0.6033
AK_FID_--    ?    BHZ  ? S      0 20181130 1811   26.7684 GAU  2.00e-02 -1.00e+00  1.31e+01  2.00e-02    1.0000 >   51.6687    0.2441    1.0302  185.5109  -25.5209   -0.5000  198.6869 116.62 116.6 200.0  0     0.0000    1.0334
AV_RDWB_--   ?    BHZ  ? P      ? 20181130 1811    5.4600 GAU  2.00e-02 -1.00e+00  1.15e+01  2.00e-02    1.0000 >   31.2854   -0.6810    1.0041 -156.2149  -53.7095   -1.5460  201.6739 234.46 234.5 200.0  0     0.0000    0.6257
AV_RED_--    ?    BHZ  ? S      0 20181130 1811   28.9400 GAU  6.00e-02 -1.00e+00  1.00e+01  6.40e-01    1.0000 >   52.8574    1.2270    0.7501 -152.7839  -61.4282   -1.0710  203.5369 232.13 232.1 200.0  0     0.0000    1.0571
AK_KLU_--    ?    BHZ  ? S      -0 20181130 1811   28.8484 GAU  2.20e-01 -1.00e+00  1.29e+01  5.12e+00    1.0000 >   54.0777   -0.0849    0.9940  217.0370   61.6207   -1.0471  209.1549  90.52  90.5 200.0  0     0.0000    1.0816
AK_HIN_--    ?    HNZ  ? P      0 20181130 1811   11.3245 GAU  2.55e-01 -1.00e+00  1.04e+01  1.02e+01    1.0000 >   33.9895    2.4794    0.3385  192.6700  -62.1501   -0.6229  223.4621 124.22 124.2 200.0  0     0.0000    0.6798
AK_DIV_--    ?    BHZ  ? S      0 20181130 1811   31.3684 GAU  6.00e-02 -1.00e+00  1.01e+01  2.00e-02    1.0000 >   57.1944   -0.6816    0.8442  227.5020   21.7345   -0.9414  223.5504 100.77 100.8 200.0  0     0.0000    1.1439
AK_EYAK_--   ?    BHZ  ? P      0 20181130 1811   14.8684 GAU  6.00e-02 -1.00e+00  1.01e+01  3.20e-01    1.0000 >   37.2182    2.7946    0.3161  233.0342  -42.7188   -0.1339  248.9485 115.26 115.3 200.0  0     0.0000    0.7444
AT_SVW2_--   ?    BHZ  ? P      0 20181130 1811   18.0600 GAU  4.00e-02 -1.00e+00  1.11e+01  2.00e-02    1.0000 >    0.0000    0.0000    0.0000 -302.7416   25.0539   -0.4988    0.0000   0.00 359.0  -1.0  0     0.0000    0.0000
AK_RND_--    ?    BHZ  ? S      0 20181130 1811   22.3684 GAU  1.20e-01 -1.00e+00  1.18e+01  5.12e+00    1.0000 >    0.0000    0.0000    0.0000   56.9974  268.6460   -0.9936    0.0000   0.00 359.0  -1.0  0     0.0000    0.0000
END_PHASE
END_NLLOC

