NLLOC "./loc/vinti.19950423.012763.grid0" "LOCATED" "Location completed."
SIGNATURE "Anthony Lomax - ALomax Scientific   obs:./obs/vinti.obs   NLLoc:v6.04.00(26Mar2015)  run:04Jun2015 13h51m32"
COMMENT "1995 Vintimiglia Sequence (NonLinLoc Sample Location)"
GRID  101 101 21  -50 -50 0  1 1 1 PROB_DENSITY
SEARCH OCTREE nInitial 400 nEvaluated 20008 smallestNodeSide 0.156250/0.156250/0.082031 oct_tree_integral 1.093497e+01 scatter_volume 1.085768e+01
HYPOCENTER  x 4.60938 y 6.32812 z 11.7715  OT 6.76515  ix -1 iy -1 iz -1
GEOGRAPHIC  OT 1995 04 23  01 28 6.765147  Lat 43.806947 Long 7.557287 Depth 11.7715
QUALITY  Pmax 2.32508e+16 MFmin 12.9746 MFmax 13.1795 RMS 0.0553527 Nphs 8 Gap 233.626 Dist 8.8937 Mamp -9.90 0 Mdur -9.90 0
VPVSRATIO  VpVsRatio 0.5  Npair 2  Diff 1.07
STATISTICS  ExpectX 4.5419 Y 6.03179 Z 11.4506  CovXX 0.504451 XY -0.140193 XZ -0.252848 YY 2.6242 YZ 1.99305 ZZ 3.94595 EllAz1  90.3155 Dip1  4.36028 Len1  1.30973 Az2  183.443 Dip2  35.5869 Len2  2.04697 Len3  4.366677e+00
STAT_GEOG  ExpectLat 43.804280 Long 7.556446 Depth 11.450575
TRANSFORM  LAMBERT RefEllipsoid Clarke-1880  LatOrig 43.750000  LongOrig 7.500000  FirstStdParal 43.199300  SecondStdParal 44.996100  RotCW 0.000000
QML_OriginQuality  assocPhCt 21  usedPhCt 8  assocStaCt -1  usedStaCt 5  depthPhCt -1  stdErr 0.0553527  azGap 233.626  secAzGap 243.914  gtLevel -  minDist 8.8937 maxDist 19.4686 medDist 12.6254
QML_OriginUncertainty  horUnc -1  minHorUnc 1.06724  maxHorUnc 2.46108  azMaxHorUnc 176.233
QML_ConfidenceEllipsoid  semiMajorAxisLength 4.36668  semiMinorAxisLength 1.30973  semiIntermediateAxisLength 2.04697  majorAxisPlunge -54.0639  majorAxisAzimuth 174.277  majorAxisRotation 202.777
FOCALMECH  Hyp  43.806947 7.557287 11.771484 Mech  0 0 0 mf  0 nObs 0
PHASE ID Ins Cmp On Pha  FM Date     HrMn   Sec     Err  ErrMag    Coda      Amp       Per  >   TTpred    Res       Weight    StaLoc(X  Y         Z)        SDist    SAzim  RAz  RDip RQual    Tcorr 
RONE   ?    ?    ? P      ? 19950423 0128    9.4100 GAU  1.00e-01 -1.00e+00 -1.00e+00 -1.00e+00 >    2.7155 -7.0676e-02    1.0922    7.8887   14.5952   -0.3000    8.8937  21.64  21.6 141.2  9     0.0000
RONE   ?    ?    ? S      ? 19950423 0128   11.3000 GAU  1.00e-01 -1.00e+00 -1.00e+00 -1.00e+00 >    4.5621 -2.7236e-02    1.2002    7.8887   14.5952   -0.3000    8.8937  21.64  21.6 141.2  9     0.0000
SBF    ?    ?    i p      d 19950423 0128    9.9800 GAU  1.00e-01 -1.00e+00 -1.00e+00 -1.00e+00 >    3.1427 7.2127e-02    1.1102   -5.2384   12.6113   -0.8470   11.6815 302.54 302.5 131.0  9     0.0000
NEGI   ?    ?    ? S      ? 19950423 0128   12.2800 GAU  1.00e-01 -1.00e+00 -1.00e+00 -1.00e+00 >    5.4011 7.3754e-02    1.1008   16.3893   10.8705   -0.6400   12.6254  68.91  68.9 127.2  9     0.0400
NEGI   ?    ?    ? P      ? 19950423 0128    9.9700 GAU  1.00e-01 -1.00e+00 -1.00e+00 -1.00e+00 >    3.2149 -5.0087e-02    1.1536   16.3893   10.8705   -0.6400   12.6254  68.91  68.9 127.2  9     0.0400
CEPP   ?    ?    ? P      ? 19950423 0128   11.0000 GAU  1.00e-01 -1.00e+00 -1.00e+00 -1.00e+00 >    4.2509 -1.6028e-02    1.2141   19.7971   18.5085   -1.0800   19.4686  51.27  51.3 114.0  9     0.0000
CEPP   ?    ?    ? S      ? 19950423 0128   13.9600 GAU  1.00e-01 -1.00e+00 -1.00e+00 -1.00e+00 >    7.1415 5.3372e-02    1.1289   19.7971   18.5085   -1.0800   19.4686  51.27  51.3 114.0  9     0.0000
AURF   ?    ?    ? p      ? 19950423 0128   12.0700 GAU  1.00e+05 -1.00e+00 -1.00e+00 -1.00e+00 >    4.3972 9.0766e-01    0.0000  -13.8607   15.2716   -1.0400   20.5214 295.84 295.8 112.5  9     0.0000
AUTN   ?    ?    ? p      ? 19950423 0128    8.4000 GAU  1.00e+05 -1.00e+00 -1.00e+00 -1.00e+00 >    5.0313 -3.3964e+00    0.0000   -5.8149   27.2765   -2.0690   23.3988 333.54 333.5 109.8  9     0.0000
TOUF   ?    ?    P G      ? 19950423 0128   14.2800 GAU  1.00e-01 -1.00e+00 -1.00e+00 -1.00e+00 >    6.5899 9.2495e-01    0.0000  -20.1791   29.3046   -1.8500   33.7992 312.83 312.8 100.7  9     0.0000
MVIF   ?    ?    ? p      ? 19950423 0128   15.0500 GAU  1.00e+05 -1.00e+00 -1.00e+00 -1.00e+00 >    6.5543 1.7305e+00    0.0000  -27.9180   16.3343   -1.4800   34.0316 287.10 287.1 100.5  9     0.0000
LRG    ?    ?    ? G      ? 19950423 0128   24.5000 GAU  1.00e-01 -1.00e+00 -1.00e+00 -1.00e+00 >    0.0000 0.0000e+00    0.0000 -100000000000000000000.0000 -100000000000000000000.0000 -100000000000000000000.0000    0.0000   0.00 359.0  -1.0  0     0.0000
0665   ?    ?    e p      . 19950423 0127   66.7400 GAU  1.00e+05 -1.00e+00 -1.00e+00 -1.00e+00 >    0.0000 0.0000e+00    0.0000 -100000000000000000000.0000 -100000000000000000000.0000 -100000000000000000000.0000    0.0000   0.00 359.0  -1.0  0     0.0000
0669   ?    ?    ? p      ? 19950423 0127   67.3300 GAU  1.00e+05 -1.00e+00 -1.00e+00 -1.00e+00 >    0.0000 0.0000e+00    0.0000 -100000000000000000000.0000 -100000000000000000000.0000 -100000000000000000000.0000    0.0000   0.00 359.0  -1.0  0     0.0000
0666   ?    ?    i p      u 19950423 0127   68.8200 GAU  1.00e-01 -1.00e+00 -1.00e+00 -1.00e+00 >    0.0000 0.0000e+00    0.0000 -100000000000000000000.0000 -100000000000000000000.0000 -100000000000000000000.0000    0.0000   0.00 359.0  -1.0  0     0.0000
.obs   ?    ?    i p      d 19950423 0127   70.3400 GAU  1.00e-01 -1.00e+00 -1.00e+00 -1.00e+00 >    0.0000 0.0000e+00    0.0000 -100000000000000000000.0000 -100000000000000000000.0000 -100000000000000000000.0000    0.0000   0.00 359.0  -1.0  0     0.0000
0667   ?    ?    e p      . 19950423 0127   72.5600 GAU  1.00e+05 -1.00e+00 -1.00e+00 -1.00e+00 >    0.0000 0.0000e+00    0.0000 -100000000000000000000.0000 -100000000000000000000.0000 -100000000000000000000.0000    0.0000   0.00 359.0  -1.0  0     0.0400
PGF    ?    ?    ? p      ? 19950423 0127   78.1000 GAU  1.00e+05 -1.00e+00 -1.00e+00 -1.00e+00 >    0.0000 0.0000e+00    0.0000 -100000000000000000000.0000 -100000000000000000000.0000 -100000000000000000000.0000    0.0000   0.00 359.0  -1.0  0     0.0000
FRF    ?    ?    ? G      ? 19950423 0128   20.4000 GAU  1.00e-01 -1.00e+00 -1.00e+00 -1.00e+00 >    0.0000 0.0000e+00    0.0000 -100000000000000000000.0000 -100000000000000000000.0000 -100000000000000000000.0000    0.0000   0.00 359.0  -1.0  0     0.0000
LMR    ?    ?    ? G      ? 19950423 0128   23.5000 GAU  1.00e-01 -1.00e+00 -1.00e+00 -1.00e+00 >    0.0000 0.0000e+00    0.0000 -100000000000000000000.0000 -100000000000000000000.0000 -100000000000000000000.0000    0.0000   0.00 359.0  -1.0  0     0.0400
0522   ?    ?    i p      d 19950423 0127   63.7200 GAU  1.00e+05 -1.00e+00 -1.00e+00 -1.00e+00 >    0.0000 0.0000e+00    0.0000 -100000000000000000000.0000 -100000000000000000000.0000 -100000000000000000000.0000    0.0000   0.00 359.0  -1.0  0     0.0000
END_PHASE
END_NLLOC

