NLLOC "./loc/vinti.19950422.151958.grid0" "LOCATED" "Location completed."
SIGNATURE "Anthony Lomax - ALomax Scientific   obs:./obs/vinti.obs   NLLoc:v6.04.00(26Mar2015)  run:04Jun2015 13h51m31"
COMMENT "1995 Vintimiglia Sequence (NonLinLoc Sample Location)"
GRID  101 101 21  -50 -50 0  1 1 1 PROB_DENSITY
SEARCH OCTREE nInitial 400 nEvaluated 20000 smallestNodeSide 0.078125/0.078125/0.041016 oct_tree_integral 7.473829e+00 scatter_volume 7.444013e+00
HYPOCENTER  x 4.88281 y 4.64844 z 9.82324  OT 56.672  ix -1 iy -1 iz -1
GEOGRAPHIC  OT 1995 04 22  15 19 56.672035  Lat 43.791826 Long 7.560670 Depth 9.82324
QUALITY  Pmax 3.18604e+29 MFmin 20.0649 MFmax 20.2466 RMS 0.0861908 Nphs 12 Gap 188.113 Dist 10.391 Mamp -9.90 0 Mdur -9.90 0
VPVSRATIO  VpVsRatio -1  Npair 1  Diff 0
STATISTICS  ExpectX 4.96598 Y 4.98628 Z 9.92275  CovXX 0.196435 XY -0.14169 XZ 0.261475 YY 1.75891 YZ 0.958554 ZZ 3.28101 EllAz1  260.539 Dip1  7.52983 Len1  0.697411 Az2  347.108 Dip2  -24.3594 Len2  2.17986 Len3  3.639527e+00
STAT_GEOG  ExpectLat 43.794866 Long 7.561707 Depth 9.922753
TRANSFORM  LAMBERT RefEllipsoid Clarke-1880  LatOrig 43.750000  LongOrig 7.500000  FirstStdParal 43.199300  SecondStdParal 44.996100  RotCW 0.000000
QML_OriginQuality  assocPhCt 21  usedPhCt 12  assocStaCt -1  usedStaCt 9  depthPhCt -1  stdErr 0.0861908  azGap 188.113  secAzGap 228.012  gtLevel -  minDist 10.391 maxDist 35.1571 medDist 20.3602
QML_OriginUncertainty  horUnc -1  minHorUnc 0.64999  maxHorUnc 2.01861  azMaxHorUnc 174.86
QML_ConfidenceEllipsoid  semiMajorAxisLength 3.63953  semiMinorAxisLength 0.697411  semiIntermediateAxisLength 2.17986  majorAxisPlunge 64.3562  majorAxisAzimuth 6.52185  majorAxisRotation 206.931
FOCALMECH  Hyp  43.791826 7.560670 9.823242 Mech  0 0 0 mf  0 nObs 0
PHASE ID Ins Cmp On Pha  FM Date     HrMn   Sec     Err  ErrMag    Coda      Amp       Per  >   TTpred    Res       Weight    StaLoc(X  Y         Z)        SDist    SAzim  RAz  RDip RQual    Tcorr 
RONE   ?    ?    ? P      ? 19950422 1519   59.2800 GAU  1.00e-01 -1.00e+00 -1.00e+00 -1.00e+00 >    2.6694 -6.1420e-02    1.0828    7.8887   14.5952   -0.3000   10.3910  16.81  16.8 128.0  9     0.0000
RONE   ?    ?    ? S      ? 19950422 1520    1.1200 GAU  1.00e-01 -1.00e+00 -1.00e+00 -1.00e+00 >    4.4846 -3.6602e-02    1.1244    7.8887   14.5952   -0.3000   10.3910  16.81  16.8 128.0  9     0.0000
SBF    ?    ?    i p      d 19950422 1519   59.8800 GAU  1.00e-01 -1.00e+00 -1.00e+00 -1.00e+00 >    3.1189 8.9046e-02    1.0113   -5.2384   12.6113   -0.8470   12.8781 308.19 308.2 122.1  9     0.0000
NEGI   ?    ?    ? S      ? 19950422 1520    2.1100 GAU  1.00e-01 -1.00e+00 -1.00e+00 -1.00e+00 >    5.2156 1.8235e-01    0.6681   16.3893   10.8705   -0.6400   13.0811  61.60  61.6 121.3  9     0.0400
NEGI   ?    ?    ? P      ? 19950422 1519   59.8200 GAU  1.00e-01 -1.00e+00 -1.00e+00 -1.00e+00 >    3.1045 3.4320e-03    1.1473   16.3893   10.8705   -0.6400   13.0811  61.60  61.6 121.3  9     0.0400
REVF   ?    ?    P G      ? 19950422 1520    0.1700 GAU  1.00e-01 -1.00e+00 -1.00e+00 -1.00e+00 >    3.6254 -1.2739e-01    0.8895  -10.6730   -1.1024   -0.7000   16.5848 249.71 249.7 115.1  9     0.0000
CEPP   ?    ?    ? S      ? 19950422 1520    3.8200 GAU  1.00e-01 -1.00e+00 -1.00e+00 -1.00e+00 >    7.1793 -3.1365e-02    1.0988   19.7971   18.5085   -1.0800   20.3602  47.10  47.1 110.5  9     0.0000
CEPP   ?    ?    ? P      ? 19950422 1520    0.9100 GAU  1.00e-01 -1.00e+00 -1.00e+00 -1.00e+00 >    4.2734 -3.5446e-02    1.1259   19.7971   18.5085   -1.0800   20.3602  47.10  47.1 110.5  9     0.0000
AURF   ?    ?    P G      ? 19950422 1520    1.1900 GAU  1.00e-01 -1.00e+00 -1.00e+00 -1.00e+00 >    4.4488 6.9212e-02    1.0632  -13.8607   15.2716   -1.0400   21.5446 299.54 299.5 109.3  9     0.0000
AUTN   ?    ?    ? p      ? 19950422 1520    1.6800 GAU  1.00e-01 -1.00e+00 -1.00e+00 -1.00e+00 >    5.1936 -1.8568e-01    0.6611   -5.8149   27.2765   -2.0690   25.0294 334.70 334.7 106.7  9     0.0000
MVIF   ?    ?    i p      d 19950422 1520    3.3700 GAU  1.00e-01 -1.00e+00 -1.00e+00 -1.00e+00 >    6.6361 6.1896e-02    1.0602  -27.9180   16.3343   -1.4800   34.8203 289.61 289.6  98.8  9     0.0000
TOUF   ?    ?    i p      u 19950422 1520    3.4900 GAU  1.00e-01 -1.00e+00 -1.00e+00 -1.00e+00 >    6.7608 5.7120e-02    1.0675  -20.1791   29.3046   -1.8500   35.1571 314.53 314.5  98.8  9     0.0000
LRG    ?    ?    ? G      ? 19950422 1520   14.8000 GAU  1.00e-01 -1.00e+00 -1.00e+00 -1.00e+00 >    0.0000 0.0000e+00    0.0000 -100000000000000000000.0000 -100000000000000000000.0000 -100000000000000000000.0000    0.0000   0.00 359.0  -1.0  0     0.0000
0665   ?    ?    i p      u 19950422 1519   58.7600 GAU  1.00e-01 -1.00e+00 -1.00e+00 -1.00e+00 >    0.0000 0.0000e+00    0.0000 -100000000000000000000.0000 -100000000000000000000.0000 -100000000000000000000.0000    0.0000   0.00 359.0  -1.0  0     0.0000
0669   ?    ?    i p      u 19950422 1519   58.9800 GAU  1.00e-01 -1.00e+00 -1.00e+00 -1.00e+00 >    0.0000 0.0000e+00    0.0000 -100000000000000000000.0000 -100000000000000000000.0000 -100000000000000000000.0000    0.0000   0.00 359.0  -1.0  0     0.0000
0667   ?    ?    e p      u 19950422 1519   59.7000 GAU  1.00e-01 -1.00e+00 -1.00e+00 -1.00e+00 >    0.0000 0.0000e+00    0.0000 -100000000000000000000.0000 -100000000000000000000.0000 -100000000000000000000.0000    0.0000   0.00 359.0  -1.0  0     0.0000
.obs   ?    ?    i p      d 19950422 1519   60.2300 GAU  1.00e-01 -1.00e+00 -1.00e+00 -1.00e+00 >    0.0000 0.0000e+00    0.0000 -100000000000000000000.0000 -100000000000000000000.0000 -100000000000000000000.0000    0.0000   0.00 359.0  -1.0  0     0.0000
CALN   ?    ?    i p      u 19950422 1519   66.5200 GAU  1.00e-01 -1.00e+00 -1.00e+00 -1.00e+00 >    0.0000 0.0000e+00    0.0000 -100000000000000000000.0000 -100000000000000000000.0000 -100000000000000000000.0000    0.0000   0.00 359.0  -1.0  0     0.0000
FRF    ?    ?    ? G      ? 19950422 1520   10.3000 GAU  1.00e-01 -1.00e+00 -1.00e+00 -1.00e+00 >    0.0000 0.0000e+00    0.0000 -100000000000000000000.0000 -100000000000000000000.0000 -100000000000000000000.0000    0.0000   0.00 359.0  -1.0  0     0.0000
LMR    ?    ?    ? G      ? 19950422 1520   13.4000 GAU  1.00e-01 -1.00e+00 -1.00e+00 -1.00e+00 >    0.0000 0.0000e+00    0.0000 -100000000000000000000.0000 -100000000000000000000.0000 -100000000000000000000.0000    0.0000   0.00 359.0  -1.0  0     0.0000
0666   ?    ?    i p      u 19950422 1519   58.7200 GAU  1.00e-01 -1.00e+00 -1.00e+00 -1.00e+00 >    0.0000 0.0000e+00    0.0000 -100000000000000000000.0000 -100000000000000000000.0000 -100000000000000000000.0000    0.0000   0.00 359.0  -1.0  0     0.0000
END_PHASE
END_NLLOC

