NLLOC "./loc/vinti.19950423.012763.grid0" "LOCATED" "Location completed."
SIGNATURE "Anthony Lomax - ALomax Scientific   obs:./obs/vinti.obs   NLLoc:v6.04.00(26Mar2015)  run:04Jun2015 13h51m32"
COMMENT "1995 Vintimiglia Sequence (NonLinLoc Sample Location)"
GRID  101 101 21  -50 -50 0  1 1 1 PROB_DENSITY
SEARCH OCTREE nInitial 400 nEvaluated 20008 smallestNodeSide 0.156250/0.156250/0.082031 oct_tree_integral 1.093497e+01 scatter_volume 1.085768e+01
HYPOCENTER  x 4.60938 y 6.32812 z 11.7715  OT 6.76515  ix -1 iy -1 iz -1
GEOGRAPHIC  OT 1995 04 23  01 28 6.765147  Lat 43.806947 Long 7.557287 Depth 11.7715
QUALITY  Pmax 2.32508e+16 MFmin 12.9746 MFmax 13.1795 RMS 0.0553527 Nphs 8 Gap 233.626 Dist 8.8937 Mamp -9.90 0 Mdur -9.90 0
VPVSRATIO  VpVsRatio 0.5  Npair 2  Diff 1.07
STATISTICS  ExpectX 4.5419 Y 6.03179 Z 11.4506  CovXX 0.504451 XY -0.140193 XZ -0.252848 YY 2.6242 YZ 1.99305 ZZ 3.94595 EllAz1  90.3155 Dip1  4.36028 Len1  1.30973 Az2  183.443 Dip2  35.5869 Len2  2.04697 Len3  4.366677e+00
STAT_GEOG  ExpectLat 43.804280 Long 7.556446 Depth 11.450575
TRANSFORM  LAMBERT RefEllipsoid Clarke-1880  LatOrig 43.750000  LongOrig 7.500000  FirstStdParal 43.199300  SecondStdParal 44.996100  RotCW 0.000000
QML_OriginQuality  assocPhCt 1693837232  usedPhCt 8  assocStaCt 32767  usedStaCt 1693803928  depthPhCt 32767  stdErr 0.0553527  azGap 233.626  secAzGap 0  gtLevel   minDist 5.09279e-313 maxDist 0 medDist 0
QML_OriginUncertainty  horUnc -1  minHorUnc 6.95327e-310  maxHorUnc 6.95322e-310  azMaxHorUnc 90
QML_ConfidenceEllipsoid  semiMajorAxisLength 4.36668  semiMinorAxisLength 1.30973  semiIntermediateAxisLength 2.04697  majorAxisPlunge 0  majorAxisAzimuth 0  majorAxisRotation 4.36035
FOCALMECH  Hyp  43.806947 7.557287 11.771500 Mech  0 0 0 mf  0 nObs 0
DIFFERENTIAL  Nhyp 140735655831720
PHASE ID Ins Cmp On Pha  FM Date     HrMn   Sec     Err  ErrMag    Coda      Amp       Per       PriorWt  >   TTpred    Res       Weight    StaLoc(X  Y         Z)        SDist    SAzim  RAz  RDip RQual    Tcorr       TTerr
RONE         ?    ?    ? P      ? 19950423 0128    9.4100 GAU  1.00e-01 -1.00e+00 -1.00e+00 -1.00e+00    1.0000 >    2.7155 -7.0676e-02    1.0922    7.8887   14.5952   -0.3000    8.8937  21.64  21.6 141.2  9     0.0000   -1.0000
RONE         ?    ?    ? S      ? 19950423 0128   11.3000 GAU  1.00e-01 -1.00e+00 -1.00e+00 -1.00e+00    1.0000 >    4.5621 -2.7236e-02    1.2002    7.8887   14.5952   -0.3000    8.8937  21.64  21.6 141.2  9     0.0000   -1.0000
SBF          ?    ?    i p      d 19950423 0128    9.9800 GAU  1.00e-01 -1.00e+00 -1.00e+00 -1.00e+00    1.0000 >    3.1427 7.2127e-02    1.1102   -5.2384   12.6113   -0.8470   11.6815 302.54 302.5 131.0  9     0.0000   -1.0000
NEGI         ?    ?    ? S      ? 19950423 0128   12.2800 GAU  1.00e-01 -1.00e+00 -1.00e+00 -1.00e+00    1.0000 >    5.4011 7.3754e-02    1.1008   16.3893   10.8705   -0.6400   12.6254  68.91  68.9 127.2  9     0.0400   -1.0000
NEGI         ?    ?    ? P      ? 19950423 0128    9.9700 GAU  1.00e-01 -1.00e+00 -1.00e+00 -1.00e+00    1.0000 >    3.2149 -5.0087e-02    1.1536   16.3893   10.8705   -0.6400   12.6254  68.91  68.9 127.2  9     0.0400   -1.0000
CEPP         ?    ?    ? P      ? 19950423 0128   11.0000 GAU  1.00e-01 -1.00e+00 -1.00e+00 -1.00e+00    1.0000 >    4.2509 -1.6028e-02    1.2141   19.7971   18.5085   -1.0800   19.4686  51.27  51.3 114.0  9     0.0000   -1.0000
CEPP         ?    ?    ? S      ? 19950423 0128   13.9600 GAU  1.00e-01 -1.00e+00 -1.00e+00 -1.00e+00    1.0000 >    7.1415 5.3372e-02    1.1289   19.7971   18.5085   -1.0800   19.4686  51.27  51.3 114.0  9     0.0000   -1.0000
AURF         ?    ?    ? p      ? 19950423 0128   12.0700 GAU  1.00e+05 -1.00e+00 -1.00e+00 -1.00e+00    1.0000 >    4.3972 9.0766e-01    0.0000  -13.8607   15.2716   -1.0400   20.5214 295.84 295.8 112.5  9     0.0000   -1.0000
AUTN         ?    ?    ? p      ? 19950423 0128    8.4000 GAU  1.00e+05 -1.00e+00 -1.00e+00 -1.00e+00    1.0000 >    5.0313 -3.3964e+00    0.0000   -5.8149   27.2765   -2.0690   23.3988 333.54 333.5 109.8  9     0.0000   -1.0000
TOUF         ?    ?    P G      ? 19950423 0128   14.2800 GAU  1.00e-01 -1.00e+00 -1.00e+00 -1.00e+00    1.0000 >    6.5899 9.2495e-01    0.0000  -20.1791   29.3046   -1.8500   33.7992 312.83 312.8 100.7  9     0.0000   -1.0000
MVIF         ?    ?    ? p      ? 19950423 0128   15.0500 GAU  1.00e+05 -1.00e+00 -1.00e+00 -1.00e+00    1.0000 >    6.5543 1.7305e+00    0.0000  -27.9180   16.3343   -1.4800   34.0316 287.10 287.1 100.5  9     0.0000   -1.0000
LRG          ?    ?    ? G      ? 19950423 0128   24.5000 GAU  1.00e-01 -1.00e+00 -1.00e+00 -1.00e+00    1.0000 >    0.0000 0.0000e+00    0.0000 -100000000000000000000.0000 -100000000000000000000.0000 -100000000000000000000.0000    0.0000   0.00 359.0  -1.0  0     0.0000   -1.0000
0665         ?    ?    e p      . 19950423 0127   66.7400 GAU  1.00e+05 -1.00e+00 -1.00e+00 -1.00e+00    1.0000 >    0.0000 0.0000e+00    0.0000 -100000000000000000000.0000 -100000000000000000000.0000 -100000000000000000000.0000    0.0000   0.00 359.0  -1.0  0     0.0000   -1.0000
0669         ?    ?    ? p      ? 19950423 0127   67.3300 GAU  1.00e+05 -1.00e+00 -1.00e+00 -1.00e+00    1.0000 >    0.0000 0.0000e+00    0.0000 -100000000000000000000.0000 -100000000000000000000.0000 -100000000000000000000.0000    0.0000   0.00 359.0  -1.0  0     0.0000   -1.0000
0666         ?    ?    i p      u 19950423 0127   68.8200 GAU  1.00e-01 -1.00e+00 -1.00e+00 -1.00e+00    1.0000 >    0.0000 0.0000e+00    0.0000 -100000000000000000000.0000 -100000000000000000000.0000 -100000000000000000000.0000    0.0000   0.00 359.0  -1.0  0     0.0000   -1.0000
.obs         ?    ?    i p      d 19950423 0127   70.3400 GAU  1.00e-01 -1.00e+00 -1.00e+00 -1.00e+00    1.0000 >    0.0000 0.0000e+00    0.0000 -100000000000000000000.0000 -100000000000000000000.0000 -100000000000000000000.0000    0.0000   0.00 359.0  -1.0  0     0.0000   -1.0000
0667         ?    ?    e p      . 19950423 0127   72.5600 GAU  1.00e+05 -1.00e+00 -1.00e+00 -1.00e+00    1.0000 >    0.0000 0.0000e+00    0.0000 -100000000000000000000.0000 -100000000000000000000.0000 -100000000000000000000.0000    0.0000   0.00 359.0  -1.0  0     0.0400   -1.0000
PGF          ?    ?    ? p      ? 19950423 0127   78.1000 GAU  1.00e+05 -1.00e+00 -1.00e+00 -1.00e+00    1.0000 >    0.0000 0.0000e+00    0.0000 -100000000000000000000.0000 -100000000000000000000.0000 -100000000000000000000.0000    0.0000   0.00 359.0  -1.0  0     0.0000   -1.0000
FRF          ?    ?    ? G      ? 19950423 0128   20.4000 GAU  1.00e-01 -1.00e+00 -1.00e+00 -1.00e+00    1.0000 >    0.0000 0.0000e+00    0.0000 -100000000000000000000.0000 -100000000000000000000.0000 -100000000000000000000.0000    0.0000   0.00 359.0  -1.0  0     0.0000   -1.0000
LMR          ?    ?    ? G      ? 19950423 0128   23.5000 GAU  1.00e-01 -1.00e+00 -1.00e+00 -1.00e+00    1.0000 >    0.0000 0.0000e+00    0.0000 -100000000000000000000.0000 -100000000000000000000.0000 -100000000000000000000.0000    0.0000   0.00 359.0  -1.0  0     0.0400   -1.0000
0522         ?    ?    i p      d 19950423 0127   63.7200 GAU  1.00e+05 -1.00e+00 -1.00e+00 -1.00e+00    1.0000 >    0.0000 0.0000e+00    0.0000 -100000000000000000000.0000 -100000000000000000000.0000 -100000000000000000000.0000    0.0000   0.00 359.0  -1.0  0     0.0000   -1.0000
END_PHASE
SCATTER Nsamples 5000
   4.8413    5.5888   13.2382  4.11e+01
   4.7845    5.4280   13.1718  4.11e+01
   3.8752    7.6599   11.8516  4.11e+01
   3.9426    7.6065   11.9318  4.11e+01
   5.3530    9.5518   13.8140  3.90e+01
   5.2422    2.6823    7.1027  3.90e+01
   3.4844    5.3539   11.2558  4.11e+01
   3.4688    5.6218   11.2477  4.11e+01
   4.6159    4.1302   10.7638  4.11e+01
   4.5470    4.2766   10.7262  4.11e+01
   4.7145    4.5820    7.6476  3.90e+01
   4.4973    5.3682   13.0649  4.11e+01
   4.9327    9.8308   14.1994  3.90e+01
   3.7709    7.7177   10.4254  3.90e+01
   4.7944    6.9305   10.6767  4.11e+01
   4.6956    7.1729   10.7780  4.11e+01
   4.4436    4.4788   11.8280  4.11e+01
   4.4691    4.4511   11.8952  4.11e+01
   2.8486    4.1678   10.4392  3.90e+01
   4.3841    4.1548   10.3660  4.11e+01
   3.8655    4.9978   11.3987  4.11e+01
   3.9680    4.9906   11.3365  4.11e+01
   4.9963    6.0391   13.5320  4.10e+01
   3.4245    3.7803   12.0820  3.90e+01
   4.6346    7.0532   10.5334  4.10e+01
   4.6024    7.1509   10.5521  4.10e+01
   4.7763    8.5921   12.8104  4.10e+01
   4.7582    8.6146   12.8059  4.10e+01
   2.6496    7.8405   12.8704  3.90e+01
   2.9233    8.0548   12.9884  3.90e+01
   4.9091    8.2813   13.3551  4.10e+01
   3.9891    4.8501   11.1111  4.10e+01
   4.0380    4.8077   11.0005  4.10e+01
   4.8072   10.1146   11.5748  3.69e+01
   4.8616    7.9749   11.5281  4.10e+01
   4.2384    8.5491   12.5279  4.10e+01
   4.3711    8.7159   12.6057  4.10e+01
   4.5500    8.5444   12.1251  4.10e+01
   5.5634    3.3280   12.7713  3.90e+01
   4.8847    8.6800   12.5349  4.10e+01
   4.8964    8.6209   12.5352  4.10e+01
   5.0118    5.9773   10.4623  4.10e+01
   3.5344    7.1080   12.0752  4.10e+01
   3.1565    5.0144   13.1278  3.89e+01
   3.6118    5.0380   11.4486  4.10e+01
   4.1626    5.9684   13.2428  4.10e+01
   5.2945    9.1483   12.3034  3.89e+01
   5.3799    9.0377   12.2103  3.89e+01
   4.8165    7.9935   13.5399  4.10e+01
   4.6619    5.0391    9.6340  4.10e+01
   4.6597    5.1620    9.6233  4.10e+01
   3.9045    8.0632   12.3706  4.10e+01
   4.4705    7.4959   13.6495  4.10e+01
   4.6793    7.2219   13.6592  4.10e+01
   4.1116    5.0437   10.1155  4.10e+01
   4.1465    5.2405   10.0181  4.10e+01
   3.7170    5.5563   12.1876  4.10e+01
   3.6278    5.5169   12.2005  4.10e+01
   3.1901    8.1782   13.7147  3.89e+01
   3.4601    6.9022   12.7119  4.10e+01
   3.8556    7.9528   12.6414  4.10e+01
   5.1116    7.1646   11.1851  4.10e+01
   4.6683    4.1132   11.0605  4.10e+01
   3.7350    5.1424   11.6860  4.10e+01
   4.1031    4.6532   11.3844  4.10e+01
   5.2780    4.7264   12.4307  4.10e+01
   4.2022    6.5569   13.3038  4.10e+01
   4.8429    5.2476    9.3820  4.10e+01
   5.3007    8.0019   12.6965  4.10e+01
   5.0749    8.0127   12.6727  4.10e+01
   4.0667    6.7754   10.6021  4.10e+01
   3.3050    6.0535   12.0471  4.10e+01
   4.7270    5.5998    9.6381  4.10e+01
   4.7579    3.3859   12.4617  3.89e+01
   3.7902    7.1127   13.2483  4.10e+01
   5.5156    3.0932    9.6859  3.89e+01
   4.2152    8.5270   12.9232  4.10e+01
   4.1591    8.5596   12.8793  4.10e+01
   4.3024    5.8032   12.9747  4.10e+01
   4.2719    5.6421   13.0451  4.10e+01
   5.2156    4.2761   11.0429  4.10e+01
   5.1166    7.7606   11.8319  4.10e+01
   4.9287    5.0442   13.0028  4.10e+01
   4.1323    7.3968   13.5696  4.10e+01
   4.3212    6.4778   10.4691  4.10e+01
   4.2441    6.4577   10.3872  4.10e+01
   4.7055    6.9753   13.6558  4.10e+01
   4.6182    4.0731   10.1372  4.10e+01
   4.4936    2.7772    8.6055  3.89e+01
   5.2548    4.2320    9.4833  4.10e+01
   4.3356    6.9599   10.7401  4.10e+01
   4.2347    6.9583   10.7779  4.10e+01
   4.3161    4.3943   10.3450  4.10e+01
   5.2103    4.5448   11.9755  4.10e+01
   5.9565   10.4986   13.2143  3.68e+01
   4.6482    4.5815    9.6275  4.10e+01
   4.6859    9.3035   14.6952  3.89e+01
   4.7297    9.1480   14.6124  3.89e+01
   2.6115    9.1785   13.8545  3.68e+01
   3.2553    5.6466   11.9040  4.10e+01
   4.6936    4.1178   11.5600  4.10e+01
   3.6397    7.7367   13.8102  3.89e+01
   4.6755    8.1915   13.5583  4.10e+01
   5.1175    7.9699   12.4061  4.10e+01
   3.8006    5.0428   12.1906  4.10e+01
   4.1026    9.8454   11.9154  3.89e+01
   5.2029    7.9285   10.8848  3.89e+01
   5.1775    7.8065   10.9620  3.89e+01
   3.9937    6.5842   11.0317  4.09e+01
   5.2463    5.9363   13.1777  4.09e+01
   4.1681    6.2167   10.3267  4.09e+01
   5.1779    5.4328   13.1127  4.09e+01
   3.4806    6.7707   12.8818  4.09e+01
   3.6526    6.8350   12.8588  4.09e+01
   4.6504    8.1655   11.6186  4.09e+01
   4.5654    8.1731   11.5117  4.09e+01
   4.8576    4.8514    9.2565  4.09e+01
   5.2545    4.7553    9.4475  4.09e+01
   4.2950    8.6948   12.1679  4.09e+01
   4.2365    8.4743   12.1988  4.09e+01
   3.6798    6.2531   11.3319  4.09e+01
   4.8679    5.8273    9.8316  4.09e+01
   3.4236    6.4030   12.2983  4.09e+01
   4.0897    8.2533   11.7994  4.09e+01
   3.7974    6.3171   10.9833  4.09e+01
   3.5003    6.1214   11.2560  4.09e+01
   4.4890    5.1913   12.9126  4.09e+01
   5.1803    4.6012   14.6185  3.88e+01
   4.0621    7.1452   11.1914  4.09e+01
   4.0281    4.8981   11.6542  4.09e+01
   4.3901    7.3509   10.7680  4.09e+01
   5.0339    7.8052   13.2022  4.09e+01
   5.7090    2.1206    9.3818  3.68e+01
   5.5633    5.0805   11.0738  4.09e+01
   4.5625    6.8266   13.6793  4.09e+01
   5.0403    6.7638   13.3017  4.09e+01
   4.7192    8.5156   13.1874  4.09e+01
   4.1538    4.6656   13.4494  3.88e+01
   5.1142    5.1054    9.6509  4.09e+01
   4.6352    8.4526   13.4263  4.09e+01
   4.9735    2.9770    9.3410  3.88e+01
   3.1338    4.0040    9.1880  3.88e+01
   5.5215    5.0123   10.6917  4.09e+01
   3.9447    5.1714   10.5012  4.09e+01
   3.8017    4.7304   10.7756  4.09e+01
   3.7879    4.7561   10.8161  4.09e+01
   5.3557    5.4010   11.2716  4.09e+01
   3.8006    6.1846   10.6956  4.09e+01
   4.3546    7.3347   10.9852  4.09e+01
   5.0958    2.9609    6.8167  3.88e+01
   3.8839    4.1031   14.5089  3.67e+01
   5.5820    4.8135   10.6482  4.09e+01
   2.9342    6.1815   13.4190  3.88e+01
   2.8185    5.0562   10.3873  3.88e+01
   4.9713    6.4058   13.6956  4.09e+01
   3.2927    5.9683   11.7888  4.09e+01
   3.9545    2.3443    6.2071  3.67e+01
   4.3127    9.0730   14.1923  3.88e+01
   3.9820    9.2012   14.2176  3.88e+01
   5.0641    4.6443    9.2276  4.09e+01
   5.6466    4.5745   10.4040  3.88e+01
   5.1476    5.2213   12.9243  4.09e+01
   5.2350    5.1844   12.8890  4.09e+01
   3.4935    5.1962   11.0022  4.09e+01
   4.9597    7.7457   13.6349  4.09e+01
   3.1388    6.1634   12.4333  4.09e+01
   5.4013    4.8116   10.9224  4.09e+01
   4.7242    5.4861   14.5975  3.88e+01
   4.9424    7.4620   10.8809  4.09e+01
   4.9124    7.4943   10.8908  4.09e+01
   4.6838    8.8847   12.9148  4.09e+01
   4.6886    4.2605    9.3338  4.09e+01
   4.1816    5.5341   12.8812  4.09e+01
   4.6663    8.8439   12.6214  4.09e+01
   3.3121    7.7430   11.2656  3.88e+01
   4.5548    3.1807    6.9620  3.88e+01
   5.2983    7.8595   13.0560  4.09e+01
   3.6805    7.3981   12.5497  4.09e+01
   3.5493    7.4337   12.5291  4.09e+01
   5.4236    9.8680   13.1270  3.88e+01
   5.9500    4.0616    9.8613  3.88e+01
   3.5976    6.6403   11.5015  4.09e+01
   5.2190    6.2525   10.5333  4.09e+01
   5.4322    3.4985    6.6429  3.88e+01
   4.5971    4.7666    9.5034  4.09e+01
   3.7509    8.0456   12.0406  4.09e+01
   5.1099    4.2185    9.3031  4.09e+01
   5.1820    6.1145   13.4339  4.09e+01
   4.8996    2.5126    7.9586  3.88e+01
   3.9674    7.7811   13.1650  4.09e+01
   4.8814    8.1914   13.5043  4.09e+01
   4.2465    5.8865   10.0435  4.09e+01
   3.3102    5.7987   12.1851  4.09e+01
   3.6004    5.9134   11.0565  4.09e+01
   4.8988    7.1618    9.6383  3.88e+01
   4.6996    7.4035    9.5638  3.88e+01
   4.3489    8.3670   13.3148  4.09e+01
   4.5142    8.0476   13.7529  4.09e+01
   5.2727    7.2021   13.3760  4.09e+01
   5.5368    5.7212   11.3355  4.09e+01
   3.2305    5.6124   11.7425  4.09e+01
   4.4282    4.2953   11.3629  4.09e+01
   3.8743    7.2562   11.3578  4.09e+01
   5.4234    5.5302   11.4863  4.09e+01
   3.3203    6.2865   11.8820  4.09e+01
   5.5463    5.4812   10.8713  4.09e+01
   5.1594   12.2178   16.3944  3.67e+01
   4.7413    8.5265   12.2286  4.09e+01
   4.3281    4.9036   12.2602  4.09e+01
   3.3070    5.8378   11.4944  4.09e+01
   3.9347    6.2157   13.0855  4.09e+01
   5.5817    5.1996   11.3758  4.09e+01
   4.9944    2.4204    8.5313  3.67e+01
   4.3653    6.5961   13.4955  4.08e+01
   3.6737    6.5625   14.0351  3.88e+01
   4.6530    4.1395    9.6890  4.08e+01
   4.8550   10.2821   13.2821  3.88e+01
   4.8897    4.6705   12.3445  4.08e+01
   4.9879    5.9455    9.8725  4.08e+01
   3.7996    8.0632   13.1140  4.08e+01
   3.9523    7.9193   13.0783  4.08e+01
   5.4657    5.7359   11.7669  4.08e+01
   3.6647    7.4411   12.1514  4.08e+01
   3.9811    5.6552   12.9156  4.08e+01
   2.3051    2.7698    8.7217  3.67e+01
   4.2049    4.0386    8.2256  3.88e+01
   4.0469    8.5676   10.7647  3.88e+01
   3.9601    8.5873   10.6284  3.88e+01
   5.1706    5.3708    9.8111  4.08e+01
   5.0786    7.3879   11.3817  4.08e+01
   5.3497    4.8981   10.3142  4.08e+01
   5.2610    4.2159   11.4125  4.08e+01
   4.8476    4.5408    9.0454  4.08e+01
   4.1179    7.8989   13.4653  4.08e+01
   3.8168    5.7241   10.6286  4.08e+01
   4.8467    3.9441   10.0664  4.08e+01
   2.8115    4.6872    9.9884  3.87e+01
   3.4421    5.0878   12.0877  4.08e+01
   3.6781    5.1551   12.0315  4.08e+01
   0.7002    0.5990    4.0954  3.46e+01
   3.2570    6.3208   12.5592  4.08e+01
   4.8606    4.0228   10.3578  4.08e+01
   4.1616    7.7752   11.1047  4.08e+01
   4.9208    5.9995   13.6414  4.08e+01
   5.1225    9.8353   14.6807  3.87e+01
   2.7661    5.7518   10.7730  3.87e+01
   4.2880    4.4322   11.7359  4.08e+01
   5.2161    3.8191   14.3113  3.87e+01
   3.7681    3.4072   11.4165  3.87e+01
   5.0916    3.9724    9.8836  4.08e+01
   5.6042    5.1723   10.3649  4.08e+01
   4.4877    5.2141    9.4998  4.08e+01
   5.6461    4.7782   11.0629  3.87e+01
   5.2129    3.6542   13.3808  3.87e+01
   5.0690    5.5051   13.2057  4.08e+01
   4.9038    5.1766   13.1423  4.08e+01
   3.1238    5.1819   12.8844  3.87e+01
   4.0302    6.3236   13.2065  4.08e+01
   4.8548    8.6661   13.3741  4.08e+01
   4.4063    4.8227   14.2750  3.87e+01
   3.1950    6.8538   12.3636  4.08e+01
   5.3285    4.7962   11.2380  4.08e+01
   4.9762    4.8493   12.8476  4.08e+01
   4.0623    2.6401    1.0861  3.66e+01
   4.9819    8.0542   13.7387  4.08e+01
   4.9250    4.0098    9.7236  4.08e+01
   4.3091    3.6129    8.7295  3.87e+01
   4.8223    8.2876   11.7735  4.08e+01
   4.0743    4.8816    9.9930  4.08e+01
   5.1721    4.0151    9.6444  4.08e+01
   5.2198    6.9352   14.5754  3.87e+01
   4.5923    7.5686   10.9230  4.08e+01
   3.0612    7.5222   12.1678  3.87e+01
   5.3520    4.4708   10.3540  4.08e+01
   4.3443    8.6366   13.2604  4.08e+01
   5.4345    6.0477   11.4916  4.08e+01
   3.1685    5.3888   12.0961  4.08e+01
   1.2029    2.1579    3.3180  3.45e+01
   3.6621    7.1147   11.7919  4.08e+01
   5.3076    3.9750   10.2580  4.08e+01
   5.5649    5.8275   11.0348  4.08e+01
   5.4384    5.9823   11.9369  4.08e+01
   4.9474    4.2964    9.1552  4.08e+01
   5.2133    4.3258    9.0884  4.08e+01
   4.9577    5.6199    8.0031  3.87e+01
   3.2768    3.5086   10.3542  3.87e+01
   4.2821    4.5951   10.1464  4.08e+01
   3.3088    5.3659   11.3802  4.08e+01
   4.7756    4.2903   11.9013  4.08e+01
   4.1655    5.3489    9.9085  4.08e+01
   4.7160    5.0634    9.2803  4.08e+01
   3.4744    4.9739   11.3949  4.08e+01
   5.2237    4.8725   12.6783  4.08e+01
   4.6335    4.4793   12.1990  4.08e+01
   3.4687    4.9834   11.2752  4.08e+01
   3.4430    5.3155   10.8678  4.08e+01
   5.5204    4.6740   10.0100  4.08e+01
   5.0875    3.7516    9.4299  4.08e+01
   4.9708    3.8748   10.8170  4.08e+01
   5.0531    4.6602   12.1836  4.08e+01
   5.0662    5.0098   12.9767  4.08e+01
   5.6148    8.3524   14.7585  3.87e+01
   1.5266    2.0502    5.9543  3.45e+01
   5.1404    4.9001    9.3432  4.08e+01
   6.5399    0.9819    1.6812  3.66e+01
   3.4644    7.3409   12.9341  4.07e+01
   5.1220    7.9305   12.0189  4.07e+01
   3.8979    7.4344   13.3979  4.07e+01
   4.0008    5.5696   12.7180  4.07e+01
   3.5506    5.9958   12.9008  4.07e+01
   4.9313    4.9514    9.0387  4.07e+01
   5.2237    4.5388    9.1721  4.07e+01
   3.2663    6.8131   12.0247  4.07e+01
   3.8970    7.5966   11.5989  4.07e+01
   4.2205    9.5834   13.8704  3.87e+01
