NLLOC "./loc/vinti.19950422.154718.grid0" "LOCATED" "Location completed."
SIGNATURE "Anthony Lomax - ALomax Scientific   obs:./obs/vinti.obs   NLLoc:v6.04.00(26Mar2015)  run:04Jun2015 13h51m32"
COMMENT "1995 Vintimiglia Sequence (NonLinLoc Sample Location)"
GRID  101 101 21  -50 -50 0  1 1 1 PROB_DENSITY
SEARCH OCTREE nInitial 400 nEvaluated 20000 smallestNodeSide 0.156250/0.156250/0.082031 oct_tree_integral 9.446037e+00 scatter_volume 9.446037e+00
HYPOCENTER  x 3.51562 y 3.20312 z 7.58789  OT 16.4941  ix -1 iy -1 iz -1
GEOGRAPHIC  OT 1995 04 22  15 47 16.494069  Lat 43.778824 Long 7.543673 Depth 7.58789
QUALITY  Pmax 8.19221e+31 MFmin 21.6074 MFmax 21.9266 RMS 0.0629132 Nphs 13 Gap 230.323 Dist 12.2026 Mamp -9.90 0 Mdur -9.90 0
VPVSRATIO  VpVsRatio 1.78102  Npair 3  Diff 2.35
STATISTICS  ExpectX 3.62348 Y 3.17467 Z 7.00736  CovXX 0.251629 XY 0.365841 XZ 0.721219 YY 1.83277 YZ 2.32105 ZZ 6.16801 EllAz1  96.3839 Dip1  -4.36231 Len1  0.740498 Az2  4.44372 Dip2  -23.9321 Len2  1.70962 Len3  5.065556e+00
STAT_GEOG  ExpectLat 43.778567 Long 7.545013 Depth 7.007363
TRANSFORM  LAMBERT RefEllipsoid Clarke-1880  LatOrig 43.750000  LongOrig 7.500000  FirstStdParal 43.199300  SecondStdParal 44.996100  RotCW 0.000000
QML_OriginQuality  assocPhCt 27  usedPhCt 13  assocStaCt -1  usedStaCt 9  depthPhCt -1  stdErr 0.0629132  azGap 230.323  secAzGap 242.432  gtLevel -  minDist 12.2026 maxDist 35.2523 medDist 22.3459
QML_OriginUncertainty  horUnc -1  minHorUnc 0.627291  maxHorUnc 2.09777  azMaxHorUnc 12.4163
QML_ConfidenceEllipsoid  semiMajorAxisLength 5.06556  semiMinorAxisLength 0.740498  semiIntermediateAxisLength 1.70962  majorAxisPlunge 65.6239  majorAxisAzimuth 16.076  majorAxisRotation 15.8755
FOCALMECH  Hyp  43.778824 7.543673 7.587891 Mech  0 0 0 mf  0 nObs 0
PHASE ID Ins Cmp On Pha  FM Date     HrMn   Sec     Err  ErrMag    Coda      Amp       Per  >   TTpred    Res       Weight    StaLoc(X  Y         Z)        SDist    SAzim  RAz  RDip RQual    Tcorr 
RONE   ?    ?    ? P      ? 19950422 1547   19.2900 GAU  1.00e-01 -1.00e+00 -1.00e+00 -1.00e+00 >    2.7218 7.4118e-02    1.1383    7.8887   14.5952   -0.3000   12.2026  21.00  21.0 116.8  9     0.0000
RONE   ?    ?    ? S      ? 19950422 1547   21.0200 GAU  1.00e-01 -1.00e+00 -1.00e+00 -1.00e+00 >    4.5726 -4.6716e-02    1.2370    7.8887   14.5952   -0.3000   12.2026  21.00  21.0 116.8  9     0.0000
SBF    ?    ?    P G      ? 19950422 1547   19.8900 GAU  1.00e-01 -1.00e+00 -1.00e+00 -1.00e+00 >    2.9280 4.6797e-01    0.0292   -5.2384   12.6113   -0.8470   12.8509 317.06 317.1 116.4  9     0.0000
NEGI   ?    ?    ? S      ? 19950422 1547   21.9400 GAU  1.00e-01 -1.00e+00 -1.00e+00 -1.00e+00 >    5.3962 9.6896e-03    1.2646   16.3893   10.8705   -0.6400   14.9840  59.22  59.2 112.9  9     0.0400
NEGI   ?    ?    ? P      ? 19950422 1547   19.8000 GAU  1.00e-01 -1.00e+00 -1.00e+00 -1.00e+00 >    3.2120 5.3883e-02    1.1982   16.3893   10.8705   -0.6400   14.9840  59.22  59.2 112.9  9     0.0400
AURF   ?    ?    P G      ? 19950422 1547   20.6300 GAU  1.00e-01 -1.00e+00 -1.00e+00 -1.00e+00 >    4.2621 -1.2614e-01    0.9751  -13.8607   15.2716   -1.0400   21.1562 304.78 304.8 107.2  9     0.0000
CEPP   ?    ?    ? P      ? 19950422 1547   20.9600 GAU  1.00e-01 -1.00e+00 -1.00e+00 -1.00e+00 >    4.4601 5.8558e-03    1.2740   19.7971   18.5085   -1.0800   22.3459  46.77  46.8 106.4  9     0.0000
CEPP   ?    ?    ? S      ? 19950422 1547   23.9700 GAU  1.00e-01 -1.00e+00 -1.00e+00 -1.00e+00 >    7.4929 -1.6996e-02    1.2216   19.7971   18.5085   -1.0800   22.3459  46.77  46.8 106.4  9     0.0000
AUTN   ?    ?    P G      ? 19950422 1547   21.7300 GAU  1.00e-01 -1.00e+00 -1.00e+00 -1.00e+00 >    5.2082 2.7720e-02    1.2485   -5.8149   27.2765   -2.0690   25.8184 338.81 338.8 104.9  9     0.0000
IMI    ?    ?    ? P      ? 19950422 1547   22.3300 GAU  1.00e-01 -1.00e+00 -1.00e+00 -1.00e+00 >    5.9276 -9.1708e-02    1.1031   31.5793   17.9062   -0.8400   31.6820  62.35  62.3 102.0  9     0.0000
IMI    ?    ?    ? S      ? 19950422 1547   26.4100 GAU  1.00e-01 -1.00e+00 -1.00e+00 -1.00e+00 >    9.9584 -4.2502e-02    1.1373   31.5793   17.9062   -0.8400   31.6820  62.35  62.3 102.0  9     0.0000
MVIF   ?    ?    P G      ? 19950422 1547   21.9500 GAU  1.00e-01 -1.00e+00 -1.00e+00 -1.00e+00 >    6.4388 -9.8286e-01    0.0000  -27.9180   16.3343   -1.4800   34.0661 292.67 292.7 101.4  9     0.0000
TOUF   ?    ?    P G      ? 19950422 1547   23.2500 GAU  1.00e-01 -1.00e+00 -1.00e+00 -1.00e+00 >    6.7028 5.3170e-02    1.1731  -20.1791   29.3046   -1.8500   35.2523 317.77 317.8 101.2  9     0.0000
0666   ?    ?    e p      u 19950422 1547   18.7700 GAU  1.00e-01 -1.00e+00 -1.00e+00 -1.00e+00 >    0.0000 0.0000e+00    0.0000 -100000000000000000000.0000 -100000000000000000000.0000 -100000000000000000000.0000    0.0000   0.00 359.0  -1.0  0     0.0000
PZZ    ?    ?    ? S      ? 19950422 1547   41.6400 GAU  1.00e+00 -1.00e+00 -1.00e+00 -1.00e+00 >    0.0000 0.0000e+00    0.0000 -100000000000000000000.0000 -100000000000000000000.0000 -100000000000000000000.0000    0.0000   0.00 359.0  -1.0  0     0.0000
0665   ?    ?    e p      u 19950422 1547   18.8200 GAU  1.00e-01 -1.00e+00 -1.00e+00 -1.00e+00 >    0.0000 0.0000e+00    0.0000 -100000000000000000000.0000 -100000000000000000000.0000 -100000000000000000000.0000    0.0000   0.00 359.0  -1.0  0     0.0000
.obs   ?    ?    i p      u 19950422 1547   20.2100 GAU  1.00e-01 -1.00e+00 -1.00e+00 -1.00e+00 >    0.0000 0.0000e+00    0.0000 -100000000000000000000.0000 -100000000000000000000.0000 -100000000000000000000.0000    0.0000   0.00 359.0  -1.0  0     0.0400
ENR    ?    ?    ? P      ? 19950422 1547   25.4700 GAU  1.00e-01 -1.00e+00 -1.00e+00 -1.00e+00 >    0.0000 0.0000e+00    0.0000 -100000000000000000000.0000 -100000000000000000000.0000 -100000000000000000000.0000    0.0000   0.00 359.0  -1.0  0     0.0400
STV    ?    ?    ? P      ? 19950422 1547   26.1300 GAU  1.00e-01 -1.00e+00 -1.00e+00 -1.00e+00 >    0.0000 0.0000e+00    0.0000 -100000000000000000000.0000 -100000000000000000000.0000 -100000000000000000000.0000    0.0000   0.00 359.0  -1.0  0     0.0000
FIN    ?    ?    ? P      ? 19950422 1547   29.0300 GAU  1.00e+00 -1.00e+00 -1.00e+00 -1.00e+00 >    0.0000 0.0000e+00    0.0000 -100000000000000000000.0000 -100000000000000000000.0000 -100000000000000000000.0000    0.0000   0.00 359.0  -1.0  0     0.0000
FRF    ?    ?    ? G      ? 19950422 1547   30.4000 GAU  1.00e-01 -1.00e+00 -1.00e+00 -1.00e+00 >    0.0000 0.0000e+00    0.0000 -100000000000000000000.0000 -100000000000000000000.0000 -100000000000000000000.0000    0.0000   0.00 359.0  -1.0  0     0.0000
PZZ    ?    ?    ? P      ? 19950422 1547   31.3900 GAU  1.00e+00 -1.00e+00 -1.00e+00 -1.00e+00 >    0.0000 0.0000e+00    0.0000 -100000000000000000000.0000 -100000000000000000000.0000 -100000000000000000000.0000    0.0000   0.00 359.0  -1.0  0     0.0000
ENR    ?    ?    ? S      ? 19950422 1547   31.4900 GAU  1.00e-01 -1.00e+00 -1.00e+00 -1.00e+00 >    0.0000 0.0000e+00    0.0000 -100000000000000000000.0000 -100000000000000000000.0000 -100000000000000000000.0000    0.0000   0.00 359.0  -1.0  0     0.0000
STV    ?    ?    ? S      ? 19950422 1547   32.4500 GAU  1.00e-01 -1.00e+00 -1.00e+00 -1.00e+00 >    0.0000 0.0000e+00    0.0000 -100000000000000000000.0000 -100000000000000000000.0000 -100000000000000000000.0000    0.0000   0.00 359.0  -1.0  0     0.0400
LMR    ?    ?    ? G      ? 19950422 1547   33.8000 GAU  1.00e-01 -1.00e+00 -1.00e+00 -1.00e+00 >    0.0000 0.0000e+00    0.0000 -100000000000000000000.0000 -100000000000000000000.0000 -100000000000000000000.0000    0.0000   0.00 359.0  -1.0  0     0.0000
LRG    ?    ?    ? G      ? 19950422 1547   34.4000 GAU  1.00e-01 -1.00e+00 -1.00e+00 -1.00e+00 >    0.0000 0.0000e+00    0.0000 -100000000000000000000.0000 -100000000000000000000.0000 -100000000000000000000.0000    0.0000   0.00 359.0  -1.0  0     0.0000
FIN    ?    ?    ? S      ? 19950422 1547   37.3200 GAU  1.00e+00 -1.00e+00 -1.00e+00 -1.00e+00 >    0.0000 0.0000e+00    0.0000 -100000000000000000000.0000 -100000000000000000000.0000 -100000000000000000000.0000    0.0000   0.00 359.0  -1.0  0     0.0000
END_PHASE
END_NLLOC

