NLLOC "./loc/vinti.19950422.151153.grid0" "LOCATED" "Location completed."
SIGNATURE "Anthony Lomax - ALomax Scientific   obs:./obs/vinti.obs   NLLoc:v6.04.00(26Mar2015)  run:04Jun2015 13h51m31"
COMMENT "1995 Vintimiglia Sequence (NonLinLoc Sample Location)"
GRID  101 101 21  -50 -50 0  1 1 1 PROB_DENSITY
SEARCH OCTREE nInitial 400 nEvaluated 20000 smallestNodeSide 0.156250/0.156250/0.082031 oct_tree_integral 7.906848e+00 scatter_volume 7.906848e+00
HYPOCENTER  x 4.60938 y 4.92188 z 10.7051  OT 51.049  ix -1 iy -1 iz -1
GEOGRAPHIC  OT 1995 04 22  15 11 51.048967  Lat 43.794289 Long 7.557275 Depth 10.7051
QUALITY  Pmax 2.41849e+38 MFmin 24.0434 MFmax 24.2763 RMS 0.0956408 Nphs 15 Gap 184.194 Dist 10.214 Mamp -9.90 0 Mdur -9.90 0
VPVSRATIO  VpVsRatio -1  Npair 1  Diff 0
STATISTICS  ExpectX 4.50475 Y 4.24226 Z 9.51702  CovXX 0.242797 XY 0.165038 XZ 0.418135 YY 3.39056 YZ 3.2067 ZZ 6.58015 EllAz1  88.3278 Dip1  -4.59397 Len1  0.869154 Az2  355.509 Dip2  -31.4632 Len2  2.23045 Len3  5.506663e+00
STAT_GEOG  ExpectLat 43.788172 Long 7.555969 Depth 9.517022
TRANSFORM  LAMBERT RefEllipsoid Clarke-1880  LatOrig 43.750000  LongOrig 7.500000  FirstStdParal 43.199300  SecondStdParal 44.996100  RotCW 0.000000
QML_OriginQuality  assocPhCt 1693837232  usedPhCt 15  assocStaCt 32767  usedStaCt 1693803928  depthPhCt 32767  stdErr 0.0956408  azGap 184.194  secAzGap 0  gtLevel   minDist 5.09279e-313 maxDist 0 medDist 0
QML_OriginUncertainty  horUnc -1  minHorUnc 6.95327e-310  maxHorUnc 6.95322e-310  azMaxHorUnc 90
QML_ConfidenceEllipsoid  semiMajorAxisLength 5.50666  semiMinorAxisLength 0.869154  semiIntermediateAxisLength 2.23045  majorAxisPlunge 0  majorAxisAzimuth 0  majorAxisRotation 355.404
FOCALMECH  Hyp  43.794289 7.557275 10.705100 Mech  0 0 0 mf  0 nObs 0
DIFFERENTIAL  Nhyp 140735655831720
PHASE ID Ins Cmp On Pha  FM Date     HrMn   Sec     Err  ErrMag    Coda      Amp       Per       PriorWt  >   TTpred    Res       Weight    StaLoc(X  Y         Z)        SDist    SAzim  RAz  RDip RQual    Tcorr       TTerr
RONE         ?    ?    ? P      ? 19950422 1511   53.6300 GAU  1.00e-01 -1.00e+00 -1.00e+00 -1.00e+00    1.0000 >    2.7362 -1.5520e-01    0.9495    7.8887   14.5952   -0.3000   10.2140  18.73  18.7 131.6  9     0.0000   -1.0000
RONE         ?    ?    ? S      ? 19950422 1511   55.7000 GAU  1.00e-01 -1.00e+00 -1.00e+00 -1.00e+00    1.0000 >    4.5969 5.4159e-02    1.2120    7.8887   14.5952   -0.3000   10.2140  18.73  18.7 131.6  9     0.0000   -1.0000
SBF          ?    ?    P G      ? 19950422 1511   54.3200 GAU  1.00e-01 -1.00e+00 -1.00e+00 -1.00e+00    1.0000 >    3.1435 1.2755e-01    0.9748   -5.2384   12.6113   -0.8470   12.4942 307.98 308.0 124.4  9     0.0000   -1.0000
NEGI         ?    ?    ? S      ? 19950422 1511   56.4200 GAU  1.00e-01 -1.00e+00 -1.00e+00 -1.00e+00    1.0000 >    5.3662 -3.5186e-02    1.2673   16.3893   10.8705   -0.6400   13.1967  63.21  63.2 122.3  9     0.0400   -1.0000
NEGI         ?    ?    ? P      ? 19950422 1511   54.1300 GAU  1.00e-01 -1.00e+00 -1.00e+00 -1.00e+00    1.0000 >    3.1942 -1.5315e-01    0.9577   16.3893   10.8705   -0.6400   13.1967  63.21  63.2 122.3  9     0.0400   -1.0000
REVF         ?    ?    P G      ? 19950422 1511   53.8700 GAU  1.00e-01 -1.00e+00 -1.00e+00 -1.00e+00    1.0000 >    3.6613 -8.4027e-01    0.0079  -10.6730   -1.1024   -0.7000   16.4269 248.49 248.5 115.8  9     0.0000   -1.0000
CEPP         ?    ?    ? S      ? 19950422 1511   58.3400 GAU  1.00e-01 -1.00e+00 -1.00e+00 -1.00e+00    1.0000 >    7.2627 2.8303e-02    1.2245   19.7971   18.5085   -1.0800   20.3780  48.18  48.2 110.3  9     0.0000   -1.0000
CEPP         ?    ?    ? P      ? 19950422 1511   55.3200 GAU  1.00e-01 -1.00e+00 -1.00e+00 -1.00e+00    1.0000 >    4.3231 -5.2021e-02    1.2514   19.7971   18.5085   -1.0800   20.3780  48.18  48.2 110.3  9     0.0000   -1.0000
AURF         ?    ?    P G      ? 19950422 1511   55.5400 GAU  1.00e-01 -1.00e+00 -1.00e+00 -1.00e+00    1.0000 >    4.4354 5.5626e-02    1.2087  -13.8607   15.2716   -1.0400   21.1722 299.26 299.3 109.2  9     0.0000   -1.0000
AURF         ?    ?    ? p      ? 19950422 1511   55.5700 GAU  5.00e-01 -1.00e+00 -1.00e+00 -1.00e+00    1.0000 >    4.4354 8.5626e-02    0.5007  -13.8607   15.2716   -1.0400   21.1722 299.26 299.3 109.2  9     0.0000   -1.0000
AUTN         ?    ?    P G      ? 19950422 1511   56.0300 GAU  1.00e-01 -1.00e+00 -1.00e+00 -1.00e+00    1.0000 >    5.1736 -1.9253e-01    0.7954   -5.8149   27.2765   -2.0690   24.6657 335.00 335.0 106.1  9     0.0000   -1.0000
AUTN         ?    ?    i p      u 19950422 1511   56.1800 GAU  1.00e-01 -1.00e+00 -1.00e+00 -1.00e+00    1.0000 >    5.1736 -4.2530e-02    1.2621   -5.8149   27.2765   -2.0690   24.6657 335.00 335.0 106.1  9     0.0000   -1.0000
IMI          ?    ?    ? S      ? 19950422 1512    0.8500 GAU  1.00e-01 -1.00e+00 -1.00e+00 -1.00e+00    1.0000 >    9.6725 1.2850e-01    0.9469   31.5793   17.9062   -0.8400   29.9328  64.29  64.3 100.5  9     0.0000   -1.0000
IMI          ?    ?    ? P      ? 19950422 1511   56.8700 GAU  1.00e-01 -1.00e+00 -1.00e+00 -1.00e+00    1.0000 >    5.7575 6.3576e-02    1.1813   31.5793   17.9062   -0.8400   29.9328  64.29  64.3 100.5  9     0.0000   -1.0000
MVIF         ?    ?    P G      ? 19950422 1511   57.6400 GAU  1.00e-01 -1.00e+00 -1.00e+00 -1.00e+00    1.0000 >    6.5979 -6.8549e-03    1.2600  -27.9180   16.3343   -1.4800   34.4713 289.33 289.3  98.0  9     0.0000   -1.0000
0666         ?    ?    e p      d 19950422 1511   53.0400 GAU  1.00e-01 -1.00e+00 -1.00e+00 -1.00e+00    1.0000 >    0.0000 0.0000e+00    0.0000 -100000000000000000000.0000 -100000000000000000000.0000 -100000000000000000000.0000    0.0000   0.00 359.0  -1.0  0     0.0000   -1.0000
PZZ          ?    ?    ? S      ? 19950422 1512   15.4000 GAU  1.00e+00 -1.00e+00 -1.00e+00 -1.00e+00    1.0000 >    0.0000 0.0000e+00    0.0000 -100000000000000000000.0000 -100000000000000000000.0000 -100000000000000000000.0000    0.0000   0.00 359.0  -1.0  0     0.0000   -1.0000
0665         ?    ?    e p      d 19950422 1511   53.0800 GAU  1.00e-01 -1.00e+00 -1.00e+00 -1.00e+00    1.0000 >    0.0000 0.0000e+00    0.0000 -100000000000000000000.0000 -100000000000000000000.0000 -100000000000000000000.0000    0.0000   0.00 359.0  -1.0  0     0.0000   -1.0000
.obs         ?    ?    i p      d 19950422 1511   54.5200 GAU  1.00e-01 -1.00e+00 -1.00e+00 -1.00e+00    1.0000 >    0.0000 0.0000e+00    0.0000 -100000000000000000000.0000 -100000000000000000000.0000 -100000000000000000000.0000    0.0000   0.00 359.0  -1.0  0     0.0000   -1.0000
ENR          ?    ?    ? P      ? 19950422 1512    0.0800 GAU  1.00e-01 -1.00e+00 -1.00e+00 -1.00e+00    1.0000 >    0.0000 0.0000e+00    0.0000 -100000000000000000000.0000 -100000000000000000000.0000 -100000000000000000000.0000    0.0000   0.00 359.0  -1.0  0     0.0000   -1.0000
STV          ?    ?    ? P      ? 19950422 1512    0.5800 GAU  1.00e-01 -1.00e+00 -1.00e+00 -1.00e+00    1.0000 >    0.0000 0.0000e+00    0.0000 -100000000000000000000.0000 -100000000000000000000.0000 -100000000000000000000.0000    0.0000   0.00 359.0  -1.0  0     0.0000   -1.0000
ROB          ?    ?    ? P      ? 19950422 1512    1.7800 GAU  5.00e-01 -1.00e+00 -1.00e+00 -1.00e+00    1.0000 >    0.0000 0.0000e+00    0.0000 -100000000000000000000.0000 -100000000000000000000.0000 -100000000000000000000.0000    0.0000   0.00 359.0  -1.0  0     0.0000   -1.0000
FIN          ?    ?    ? P      ? 19950422 1512    3.3300 GAU  5.00e-01 -1.00e+00 -1.00e+00 -1.00e+00    1.0000 >    0.0000 0.0000e+00    0.0000 -100000000000000000000.0000 -100000000000000000000.0000 -100000000000000000000.0000    0.0000   0.00 359.0  -1.0  0     0.0000   -1.0000
FRF          ?    ?    ? G      ? 19950422 1512    4.7000 GAU  1.00e-01 -1.00e+00 -1.00e+00 -1.00e+00    1.0000 >    0.0000 0.0000e+00    0.0000 -100000000000000000000.0000 -100000000000000000000.0000 -100000000000000000000.0000    0.0000   0.00 359.0  -1.0  0     0.0000   -1.0000
PZZ          ?    ?    ? P      ? 19950422 1512    5.7900 GAU  1.00e+00 -1.00e+00 -1.00e+00 -1.00e+00    1.0000 >    0.0000 0.0000e+00    0.0000 -100000000000000000000.0000 -100000000000000000000.0000 -100000000000000000000.0000    0.0000   0.00 359.0  -1.0  0     0.0000   -1.0000
ENR          ?    ?    ? S      ? 19950422 1512    5.8000 GAU  1.00e-01 -1.00e+00 -1.00e+00 -1.00e+00    1.0000 >    0.0000 0.0000e+00    0.0000 -100000000000000000000.0000 -100000000000000000000.0000 -100000000000000000000.0000    0.0000   0.00 359.0  -1.0  0     0.0000   -1.0000
STV          ?    ?    ? S      ? 19950422 1512    6.7100 GAU  1.00e-01 -1.00e+00 -1.00e+00 -1.00e+00    1.0000 >    0.0000 0.0000e+00    0.0000 -100000000000000000000.0000 -100000000000000000000.0000 -100000000000000000000.0000    0.0000   0.00 359.0  -1.0  0     0.0400   -1.0000
LMR          ?    ?    ? G      ? 19950422 1512    7.4000 GAU  1.00e-01 -1.00e+00 -1.00e+00 -1.00e+00    1.0000 >    0.0000 0.0000e+00    0.0000 -100000000000000000000.0000 -100000000000000000000.0000 -100000000000000000000.0000    0.0000   0.00 359.0  -1.0  0     0.0000   -1.0000
LRG          ?    ?    ? G      ? 19950422 1512    8.9000 GAU  1.00e-01 -1.00e+00 -1.00e+00 -1.00e+00    1.0000 >    0.0000 0.0000e+00    0.0000 -100000000000000000000.0000 -100000000000000000000.0000 -100000000000000000000.0000    0.0000   0.00 359.0  -1.0  0     0.0000   -1.0000
ROB          ?    ?    ? S      ? 19950422 1512    9.1100 GAU  5.00e-01 -1.00e+00 -1.00e+00 -1.00e+00    1.0000 >    0.0000 0.0000e+00    0.0000 -100000000000000000000.0000 -100000000000000000000.0000 -100000000000000000000.0000    0.0000   0.00 359.0  -1.0  0     0.0000   -1.0000
FIN          ?    ?    ? S      ? 19950422 1512   11.5100 GAU  5.00e-01 -1.00e+00 -1.00e+00 -1.00e+00    1.0000 >    0.0000 0.0000e+00    0.0000 -100000000000000000000.0000 -100000000000000000000.0000 -100000000000000000000.0000    0.0000   0.00 359.0  -1.0  0     0.0000   -1.0000
END_PHASE
SCATTER Nsamples 4997
   4.2179    7.0263   10.9080  9.19e+01
   6.0245    6.4774   13.9777  8.78e+01
   5.1003    5.6755   11.0134  9.19e+01
   5.1930    5.8465   11.0668  9.19e+01
   3.7904    6.8193    6.8243  8.78e+01
   4.2699    3.8660    8.3125  9.19e+01
   4.4046    3.5234   11.1895  9.19e+01
   5.2350    3.8096   11.7498  9.19e+01
   5.2376    4.2637    9.8495  9.19e+01
   4.1540    3.3433    8.3135  9.19e+01
   4.5648    2.9336    8.0178  9.19e+01
   5.1596    4.4158   10.0906  9.19e+01
   5.3058    4.6629   10.0310  9.19e+01
   4.7455    2.6047    9.9755  9.19e+01
   4.7894    2.6314    9.8621  9.19e+01
   4.0626    3.0383    8.4823  9.19e+01
   4.3149    3.0336    9.3999  9.19e+01
   4.1123    2.8823    9.3638  9.19e+01
   4.7506    6.6098   10.6810  9.19e+01
   3.9549    3.6311    6.0326  8.98e+01
   4.7086    7.0466   11.2124  9.19e+01
   5.0711    3.2047    9.7737  9.19e+01
   4.6207    6.9432   10.3424  9.19e+01
   4.5931    4.8147   12.2844  9.19e+01
   4.4671    4.9477   12.2586  9.19e+01
   4.6023    2.5644    6.1677  8.98e+01
   4.6039    4.5025   12.1405  9.19e+01
   5.1531    3.3481   10.6968  9.19e+01
   5.2698    3.1951   10.7595  9.19e+01
   4.1546    6.9101   13.0361  8.98e+01
   4.0353    6.8974   12.9871  8.98e+01
   5.0832    3.9331    9.7577  9.19e+01
   4.4010    2.4243    8.5724  9.19e+01
   4.5668    4.9333   10.6666  9.40e+01
   4.6401    4.9767   10.7140  9.40e+01
   4.7142    6.0224   10.0260  9.19e+01
   3.4171    2.1748    3.2594  8.98e+01
   3.6389    3.4608    9.8471  8.98e+01
   4.6753    4.9450   10.6616  9.40e+01
   4.5506    4.9225   10.6465  9.40e+01
   4.6771    5.0929   10.8011  9.40e+01
   5.3071    5.6017   12.5053  9.19e+01
   4.6840    4.9316   10.8212  9.40e+01
   4.3878    2.3720    8.3175  9.19e+01
   4.8392    5.9457   12.6764  9.19e+01
   4.9281    6.2054   12.7109  9.19e+01
   4.6404    5.0742   10.6948  9.39e+01
   4.5498    5.0893   10.8803  9.39e+01
   4.5392    4.6948   10.6569  9.39e+01
   4.9365   -0.6154    2.0012  8.98e+01
   5.1862    4.7482   10.2186  9.19e+01
   5.8650    1.1640   10.1163  8.77e+01
   4.6778    4.6945   10.5454  9.39e+01
   4.6217   -0.1624    2.4501  8.98e+01
   4.6199   -0.1930    2.5527  8.98e+01
   3.7558    8.6464   11.7813  8.98e+01
   4.0149    6.6620    8.1793  8.98e+01
   4.9618    8.1475   12.4939  8.98e+01
   4.8906    4.0355   11.8156  9.19e+01
   4.6510    4.8768   10.5021  9.39e+01
   4.6015    4.9234   10.5709  9.39e+01
   4.6236    4.7685   10.7336  9.39e+01
   4.6359    4.8101   10.6826  9.39e+01
   4.9751   -0.6033    3.0833  8.98e+01
   5.0944    6.5048   12.0938  9.19e+01
   4.5497    4.9146   10.8463  9.39e+01
   4.5718    4.8717   10.8893  9.39e+01
   4.6497    5.1086   10.5867  9.39e+01
   4.5562    5.1452   10.9871  9.39e+01
   4.5442    5.2653   10.8583  9.39e+01
   4.5949    4.7594   10.4415  9.39e+01
   4.5588    4.7522   10.4928  9.39e+01
   4.1230    6.6482   10.0957  9.18e+01
   4.6092    5.3067   10.7482  9.39e+01
   4.6817    5.2416   10.9285  9.39e+01
   4.4526    2.7933    9.6926  9.18e+01
   4.4942    2.7265    9.7778  9.18e+01
   4.7027   -0.3401    3.7614  8.98e+01
   4.6397    4.8419   10.7718  9.39e+01
   4.0325    3.0052    0.6776  8.98e+01
   4.4607    5.1001   12.4237  9.18e+01
   3.9890    2.8426   12.9016  8.77e+01
   4.6169    4.5945   10.5439  9.39e+01
   3.9532    0.7554    9.4454  8.98e+01
   4.5683    4.9832   10.4667  9.39e+01
   4.6171    4.8522   10.4202  9.39e+01
   4.6152    4.5415   10.4426  9.39e+01
   4.9062    1.9523    5.0680  8.98e+01
   4.1566    7.4376   11.7818  9.18e+01
   4.5591    2.4368    8.9417  9.18e+01
   4.6478    5.2309   11.0421  9.39e+01
   4.5580    5.2853   10.6953  9.39e+01
   4.6326    1.7349    3.3377  8.98e+01
   4.6610    4.7653   10.3824  9.39e+01
   4.5539    5.1104   11.0172  9.39e+01
   4.6770    4.9971   10.9914  9.39e+01
   4.5712    4.8920   10.9728  9.39e+01
   4.5277    6.6418   10.0024  9.18e+01
   4.6657    6.7431    9.8644  9.18e+01
   4.6563    5.0177   10.5644  9.39e+01
   4.6764    4.6016   10.6195  9.39e+01
   4.5894    4.6277   10.6552  9.39e+01
   4.4299    8.6271   11.1965  8.97e+01
   4.2163    2.2430    3.5244  8.97e+01
   4.2131    2.4358    3.5112  8.97e+01
   4.5859    4.5774   10.3538  9.39e+01
   4.5002    4.1537   11.8618  9.18e+01
   3.6620    2.1106    8.2563  9.18e+01
   3.5113    2.1844    8.0930  9.18e+01
   3.7342    2.1585    2.8305  8.97e+01
   4.6503   -0.5123    4.5405  8.97e+01
   4.4959   -0.2014    4.4364  8.97e+01
   4.1777    3.6757    8.1030  9.18e+01
   3.4470    2.1556    8.4240  9.18e+01
   4.6724    5.3257   10.9437  9.39e+01
   4.5834    5.4262   10.9161  9.39e+01
   4.5663    4.7252   10.8631  9.39e+01
   4.5565    5.2867   11.0986  9.39e+01
   4.6052    5.1801   11.0933  9.39e+01
   4.6734    5.3583   11.0053  9.39e+01
   4.5775    5.4421   10.8315  9.39e+01
   4.5843    5.3464   10.8825  9.39e+01
   4.6190    4.5863   10.6979  9.39e+01
   4.6714    2.8090    7.8478  9.18e+01
   4.6538    5.2335   10.5946  9.39e+01
   4.6695    5.2855   10.6513  9.39e+01
   5.0466    6.3916   11.7229  9.18e+01
   4.5477    4.5512   10.3178  9.39e+01
   4.5443    4.5156    8.3992  9.18e+01
   4.6274    4.8456   10.3898  9.39e+01
   4.4880    2.2421    7.9376  9.18e+01
   4.5798    5.4550   11.1456  9.39e+01
   5.9964    4.6274   13.8978  8.76e+01
   4.1645    6.3882   12.2095  9.18e+01
   3.5830    2.1094    7.9431  9.18e+01
   4.2663    5.2139    8.5364  9.18e+01
   4.6430    4.7857   10.2774  9.39e+01
   4.5510    5.1039   11.0839  9.39e+01
   4.0822    6.3768    9.6660  9.18e+01
   4.5212    4.7357    8.5625  9.18e+01
   4.6671    4.9760    8.6737  9.18e+01
   4.5616    5.3157   10.7565  9.39e+01
   4.0677    7.5342    9.9768  8.97e+01
   4.1664    7.8307    9.9626  8.97e+01
   4.3330    4.8914    8.5226  9.18e+01
   4.3336    4.8776    8.4332  9.18e+01
   4.1959    3.2639   10.2777  9.18e+01
   4.6776    5.1483   10.4741  9.39e+01
   5.0026    3.5662    9.6587  9.18e+01
   4.6520    4.8912   11.0352  9.39e+01
   4.9758    2.5081    8.3505  9.18e+01
   4.6454    4.3969   10.4149  9.39e+01
   4.5371    4.4817   10.3594  9.39e+01
   4.6766    4.5126   10.4229  9.39e+01
   3.7177    1.9763    8.5563  9.18e+01
   4.5191    4.2995    8.3065  9.18e+01
   5.1918    5.1773   10.3557  9.18e+01
   5.1360    5.0095   10.4953  9.18e+01
   5.2327    1.4931    8.6699  8.97e+01
   4.9117    2.3651    8.7258  9.18e+01
   4.5072    3.1221    7.8084  9.18e+01
   4.1630    2.7246    8.6412  9.18e+01
   4.0700    2.5659    8.6855  9.18e+01
   5.1586    6.1215   11.2221  9.18e+01
   5.1996    6.1670   11.1951  9.18e+01
   3.2590    0.8771    7.0031  8.97e+01
   4.6382    4.4585   10.3355  9.39e+01
   4.6315    4.5578   10.7615  9.39e+01
   5.4016    3.1388   13.1749  8.76e+01
   5.0619    6.2138   12.5138  9.18e+01
   4.6427    5.2191   11.1706  9.39e+01
   4.6096    4.4145   10.5131  9.39e+01
   4.5453    6.4942   13.5704  8.97e+01
   4.7583    2.8781   10.8086  9.18e+01
   4.6137    5.3639   11.1945  9.39e+01
   4.7732    4.8979   10.8591  9.39e+01
   4.3063    2.5938    9.0195  9.18e+01
   4.9785    2.3609    9.1826  9.18e+01
   4.6337    4.7981   10.9639  9.39e+01
   4.4900    7.2463   10.9465  9.18e+01
   4.6032    4.6370   10.2445  9.39e+01
   4.6437    4.5869   10.2032  9.39e+01
   4.7155    4.8377   10.7742  9.38e+01
   4.2683    4.0359    8.1275  9.18e+01
   4.3491    5.5982    8.8423  9.18e+01
   3.6562    1.9750    1.6335  8.97e+01
   4.2435    7.4258   11.3457  9.18e+01
   4.1942    3.0988    8.1272  9.18e+01
   4.6476    5.2158   10.5383  9.38e+01
   4.6173    5.3702   10.6731  9.38e+01
   4.6075    5.3771   10.6774  9.38e+01
   4.7011    4.9076   10.9533  9.38e+01
   4.7425    4.8756   10.8188  9.38e+01
   4.4755    1.7003    1.6588  8.97e+01
   3.5240    2.1004    7.7214  9.18e+01
   3.4020    2.4057    2.3378  8.97e+01
   4.6703    6.1193    5.8557  8.76e+01
   4.8078    4.7580   10.7182  9.38e+01
   4.8079    4.8265   10.7422  9.38e+01
   4.4230    5.2067    8.7496  9.18e+01
   4.8590    5.8442   14.3081  8.76e+01
   4.7786    4.8357   10.8623  9.38e+01
   4.7484    4.7769   10.8380  9.38e+01
   4.8761    3.7067    0.2667  8.97e+01
   4.7888   -0.3706    5.1379  8.97e+01
   4.9945   -0.2959    5.1978  8.97e+01
   4.6928    3.4166   11.2995  9.18e+01
   3.3361    0.9201    6.4467  8.97e+01
   4.6607    4.4273   10.2290  9.38e+01
   4.6445    4.0459    8.1187  9.18e+01
   4.5656    3.7783    8.0795  9.18e+01
   4.7122    5.1303   10.9874  9.38e+01
   4.7842    5.0026   11.0139  9.38e+01
   4.7421    5.1185   11.0591  9.38e+01
   4.6841    4.9975   10.3251  9.38e+01
   4.6639    5.4854   11.0652  9.38e+01
   4.5593    5.5016   11.1524  9.38e+01
   3.9086    2.3843    1.8885  8.97e+01
   4.6605    4.4305   10.6562  9.38e+01
   4.2743    7.1486   12.2627  9.18e+01
   4.7906    4.9665   11.0147  9.38e+01
   4.1320    7.1724   10.6086  9.18e+01
   4.1548    4.6708    8.3485  9.18e+01
   4.5597    4.7956   10.2202  9.38e+01
   4.8217    4.7294   10.5985  9.38e+01
   4.7123    4.9613   10.6998  9.38e+01
   4.7549    4.9530   10.7455  9.38e+01
   4.7452    5.1519   10.8675  9.38e+01
   3.1605    1.8561    3.5648  8.97e+01
   3.5594    1.8031    3.4792  8.97e+01
   4.6221    5.5829   10.9848  9.38e+01
   3.4962    2.0543    1.7739  8.97e+01
   4.7480    4.6451   10.7074  9.38e+01
   4.7447    5.0677   11.0753  9.38e+01
   4.6866    5.0090   11.2346  9.38e+01
   4.7993    5.3351   12.7367  9.17e+01
   5.1569    2.8727    9.9457  9.17e+01
   4.7506    4.5382   10.5929  9.38e+01
   4.4440    2.2210    7.7883  9.17e+01
   4.6576    5.0046   10.3700  9.38e+01
   4.7611    4.7004   10.9298  9.38e+01
   3.5868    2.1852    8.7961  9.17e+01
   4.5833    4.9986   11.1072  9.38e+01
   4.5870    4.9377   11.1404  9.38e+01
   5.0076    1.6606    9.2275  8.97e+01
   4.6611    5.6112   11.2035  9.38e+01
   4.2837    3.0860    9.8390  9.17e+01
   4.4166    5.1459   10.6175  9.38e+01
   4.6928    4.5788   10.7706  9.38e+01
