NLLOC "./loc/vinti.19950421.080259.grid0" "LOCATED" "Location completed."
SIGNATURE "Anthony Lomax - ALomax Scientific   obs:./obs/vinti.obs   NLLoc:v6.04.00(26Mar2015)  run:04Jun2015 13h51m31"
COMMENT "1995 Vintimiglia Sequence (NonLinLoc Sample Location)"
GRID  101 101 21  -50 -50 0  1 1 1 PROB_DENSITY
SEARCH OCTREE nInitial 400 nEvaluated 20016 smallestNodeSide 0.156250/0.156250/0.082031 oct_tree_integral 1.059607e+01 scatter_volume 1.056773e+01
HYPOCENTER  x 4.76562 y 6.01562 z 8.49023  OT 57.0903  ix -1 iy -1 iz -1
GEOGRAPHIC  OT 1995 04 21  08 02 57.090251  Lat 43.804133 Long 7.559227 Depth 8.49023
QUALITY  Pmax 2.5502e+28 MFmin 17.7259 MFmax 17.8636 RMS 0.0904332 Nphs 12 Gap 177.917 Dist 9.13028 Mamp -9.90 0 Mdur -9.90 0
VPVSRATIO  VpVsRatio 0.5  Npair 2  Diff 1
STATISTICS  ExpectX 4.91035 Y 5.92252 Z 8.51681  CovXX 0.385857 XY -0.191734 XZ 1.04506 YY 1.0013 YZ -0.537028 ZZ 9.97732 EllAz1  79.4953 Dip1  -5.45845 Len1  0.937044 Az2  349.929 Dip2  4.52761 Len2  1.87145 Len3  5.977978e+00
STAT_GEOG  ExpectLat 43.803294 Long 7.561024 Depth 8.516814
TRANSFORM  LAMBERT RefEllipsoid Clarke-1880  LatOrig 43.750000  LongOrig 7.500000  FirstStdParal 43.199300  SecondStdParal 44.996100  RotCW 0.000000
QML_OriginQuality  assocPhCt 1693837232  usedPhCt 12  assocStaCt 32767  usedStaCt 1693803928  depthPhCt 32767  stdErr 0.0904332  azGap 177.917  secAzGap 0  gtLevel   minDist 5.09279e-313 maxDist 0 medDist 0
QML_OriginUncertainty  horUnc -1  minHorUnc 6.95327e-310  maxHorUnc 6.95322e-310  azMaxHorUnc 90
QML_ConfidenceEllipsoid  semiMajorAxisLength 5.97798  semiMinorAxisLength 0.937044  semiIntermediateAxisLength 1.87145  majorAxisPlunge 0  majorAxisAzimuth 0  majorAxisRotation 354.449
FOCALMECH  Hyp  43.804133 7.559227 8.490230 Mech  0 0 0 mf  0 nObs 0
DIFFERENTIAL  Nhyp 140735655831720
PHASE ID Ins Cmp On Pha  FM Date     HrMn   Sec     Err  ErrMag    Coda      Amp       Per       PriorWt  >   TTpred    Res       Weight    StaLoc(X  Y         Z)        SDist    SAzim  RAz  RDip RQual    Tcorr       TTerr
RONE         ?    ?    ? P      U 19950421 0802   59.4400 GAU  1.00e-01 -1.00e+00 -1.00e+00 -1.00e+00    1.0000 >    2.3659 -1.6133e-02    1.2811    7.8887   14.5952   -0.3000    9.1303  20.00  20.0 128.2  9     0.0000   -1.0000
SBF          ?    ?    ? P      ? 19950421 0803    0.2600 GAU  1.00e-01 -1.00e+00 -1.00e+00 -1.00e+00    1.0000 >    2.8730 2.9676e-01    0.3387   -5.2384   12.6113   -0.8470   11.9826 303.40 303.4 121.2  9     0.0000   -1.0000
NEGI         ?    ?    ? P      U 19950421 0803    0.0200 GAU  1.00e-01 -1.00e+00 -1.00e+00 -1.00e+00    1.0000 >    2.9200 -3.0242e-02    1.2617   16.3893   10.8705   -0.6400   12.5968  67.33  67.3 119.6  9     0.0400   -1.0000
REVF         ?    ?    ? P      ? 19950421 0803    0.6700 GAU  1.00e-01 -1.00e+00 -1.00e+00 -1.00e+00    1.0000 >    3.5937 -1.3998e-02    1.2832  -10.6730   -1.1024   -0.7000   17.0005 245.25 245.2 113.1  9     0.0000   -1.0000
CEPP         ?    ?    ? P      U 19950421 0803    1.1400 GAU  1.00e-01 -1.00e+00 -1.00e+00 -1.00e+00    1.0000 >    4.0639 -1.4112e-02    1.2831   19.7971   18.5085   -1.0800   19.5452  50.27  50.3 110.7  9     0.0000   -1.0000
AURF         ?    ?    ? P      ? 19950421 0803    1.3900 GAU  1.00e-01 -1.00e+00 -1.00e+00 -1.00e+00    1.0000 >    4.2532 4.6549e-02    1.2573  -13.8607   15.2716   -1.0400   20.7994 296.42 296.4 109.6  9     0.0000   -1.0000
AUTN         ?    ?    ? P      ? 19950421 0803    2.0400 GAU  1.00e-01 -1.00e+00 -1.00e+00 -1.00e+00    1.0000 >    4.9189 3.0852e-02    1.2798   -5.8149   27.2765   -2.0690   23.7481 333.54 333.5 108.0  9     0.0000   -1.0000
IMI          ?    ?    ? P      ? 19950421 0803    2.7700 GAU  1.00e-01 -1.00e+00 -1.00e+00 -1.00e+00    1.0000 >    5.5799 9.9882e-02    1.1089   31.5793   17.9062   -0.8400   29.3319  66.09  66.1 104.3  9     0.0000   -1.0000
TOUF         ?    ?    ? P      ? 19950421 0803    3.5500 GAU  1.00e-01 -1.00e+00 -1.00e+00 -1.00e+00    1.0000 >    6.5503 -9.0547e-02    1.0723  -20.1791   29.3046   -1.8500   34.1264 313.03 313.0 102.2  9     0.0000   -1.0000
TOUF         ?    ?    ? S      ? 19950421 0803    7.6500 GAU  5.00e-01 -1.00e+00 -1.00e+00 -1.00e+00    1.0000 >   11.0045 -4.4475e-01    0.3332  -20.1791   29.3046   -1.8500   34.1264 313.03 313.0 102.2  9     0.0000   -1.0000
MVIF         ?    ?    ? P      ? 19950421 0803    3.5800 GAU  1.00e-01 -1.00e+00 -1.00e+00 -1.00e+00    1.0000 >    6.5043 -1.4544e-02    1.2548  -27.9180   16.3343   -1.4800   34.2738 287.52 287.5 102.0  9     0.0000   -1.0000
MVIF         ?    ?    ? S      ? 19950421 0803    8.6800 GAU  5.00e-01 -1.00e+00 -1.00e+00 -1.00e+00    1.0000 >   10.9272 6.6254e-01    0.2459  -27.9180   16.3343   -1.4800   34.2738 287.52 287.5 102.0  9     0.0000   -1.0000
END_PHASE
SCATTER Nsamples 5000
   5.0496    4.7991    8.8976  6.92e+01
   4.7093    6.7199    6.3411  6.92e+01
   4.8700    5.0016   11.2805  6.92e+01
   4.8642    5.1913   11.2116  6.92e+01
   4.5310    6.3167   10.8257  6.92e+01
   4.3968    6.5139   10.7582  6.92e+01
   4.8442    4.2542    8.8498  6.71e+01
   5.0859    6.2951    7.6640  6.92e+01
   5.2035    6.3382    7.6914  6.92e+01
   4.4146    5.6753    3.6948  6.92e+01
   4.6940    4.8973    8.5062  6.92e+01
   4.8592    4.7611    8.4082  6.92e+01
   4.5476    5.0632    6.6479  6.92e+01
   4.5824    5.0750    6.6172  6.92e+01
   4.2203    5.9187    6.0973  6.92e+01
   5.1495    4.8503   11.2334  6.92e+01
   5.0699    3.9170   13.5394  6.71e+01
   4.4505    6.7290    4.8681  6.92e+01
   4.5927    6.7840    4.8684  6.92e+01
   5.0533    6.9654   10.1631  6.92e+01
   5.0503    6.9781   10.0252  6.92e+01
   5.3548    5.8411    9.2443  6.92e+01
   5.5481    5.8982    9.3294  6.92e+01
   4.7589    6.6383   11.0735  6.92e+01
   5.2462    6.8961    9.7183  6.92e+01
   5.0590    6.8864    9.7588  6.92e+01
   4.4672    3.8376    9.3562  6.71e+01
   4.8948    3.9990    9.2118  6.71e+01
   7.4982    2.6320   16.9137  6.50e+01
   7.1853    2.5586   16.8618  6.50e+01
   4.9445    6.9675   10.6511  6.92e+01
   3.9075    5.5470    3.1051  6.71e+01
   4.5715    5.2501    9.0530  6.92e+01
   4.3878    3.7679    8.1341  6.71e+01
   4.4925    3.9372    8.1192  6.71e+01
   5.1039    4.5176    5.4326  6.71e+01
   4.5454    6.2058   10.9455  6.92e+01
   4.8197    4.8119   10.1666  6.92e+01
   4.8183    4.8879    1.9026  6.71e+01
   4.7416    4.7290    1.7166  6.71e+01
   4.4738    6.9988    2.5563  6.71e+01
   6.0011    4.5494    9.6141  6.71e+01
   6.1745    4.4552    9.5885  6.71e+01
   5.2479    5.5274    6.7476  6.92e+01
   5.3085    5.5141    6.8284  6.92e+01
   4.3987    6.3075    3.6553  6.92e+01
   4.5379    4.4040    1.2609  6.71e+01
   5.2995    5.4165   12.2009  6.91e+01
   5.2968    5.3221   12.2951  6.91e+01
   4.8320    7.2632    9.3712  6.91e+01
   4.8465    7.3580    9.3942  6.91e+01
   5.5755    4.8656   11.1435  6.91e+01
   5.4572    4.9032   11.1068  6.91e+01
   5.3761    4.8879   10.7037  6.91e+01
   5.6144    4.7620   10.7799  6.91e+01
   5.2734    6.6922   13.7651  6.71e+01
   4.6740    6.0880    3.1233  6.91e+01
   4.5916    6.1703    3.2391  6.91e+01
   4.9613    4.7220    8.1463  6.91e+01
   4.7952    4.9329    8.1321  6.91e+01
   4.5731    4.9704    0.3933  6.71e+01
   4.7130    4.4444    0.5782  6.71e+01
   4.1474    6.1098    9.1129  6.91e+01
   4.1051    6.1790    9.0463  6.91e+01
   4.8914    7.2978    9.0412  6.91e+01
   4.8627    5.3377    5.0843  6.91e+01
   4.7152    5.5985    5.0835  6.91e+01
   6.7116    3.4157   15.4529  6.50e+01
   7.4712    2.7127   15.2294  6.50e+01
   4.9524    3.8540    9.9212  6.71e+01
   4.7394    5.3601   14.0774  6.71e+01
   4.6959    5.2173   14.0391  6.71e+01
   5.2588    5.2095   12.0727  6.91e+01
   5.1874    5.0442   12.0813  6.91e+01
   5.8549    6.3838   10.6722  6.70e+01
   5.7321    6.5641   10.5700  6.70e+01
   4.2221    6.2823    9.3477  6.91e+01
   4.7252    5.4272   11.7578  6.91e+01
   4.1005    5.6448    5.8738  6.91e+01
   4.3465    5.8121    5.8631  6.91e+01
   4.2399    6.2442    4.6272  6.91e+01
   4.1751    6.0145    4.6356  6.91e+01
   5.3000    6.9235    9.4029  6.91e+01
   5.0016    6.9187    9.4895  6.91e+01
   4.8512    7.9767    6.2145  6.70e+01
   4.9922    5.9603   11.6812  6.91e+01
   5.2057    6.6591    8.2437  6.91e+01
   5.0283    6.8284    8.2939  6.91e+01
   4.3779    8.3042   10.7310  6.70e+01
   5.4490    5.1479   12.2351  6.91e+01
   5.2157    4.8834    8.6277  6.91e+01
   5.0176    4.7304    8.5880  6.91e+01
   4.5461    5.2431    6.3550  6.91e+01
   4.5153    5.2495    6.3812  6.91e+01
   4.1946    5.8112    8.3101  6.91e+01
   4.0632    5.8887    8.2161  6.91e+01
   4.8164    4.0380    7.3700  6.70e+01
   4.5347    4.2224    7.5224  6.70e+01
   5.3233    6.3811   10.5455  6.91e+01
   4.6435    5.3842    4.4677  6.91e+01
   4.6263    5.5440    4.5684  6.91e+01
   5.6061    4.8453   11.3715  6.91e+01
   5.0724    6.9115   10.4214  6.91e+01
   4.7732    7.2114    9.6965  6.91e+01
   4.7533    7.4873    9.7619  6.91e+01
   5.3974    4.9101   10.4230  6.91e+01
   4.7134    5.9929    4.6420  6.91e+01
   4.7965    5.9415    4.6206  6.91e+01
   4.7876    5.7547    4.5239  6.91e+01
   4.7709    5.8451    4.5659  6.91e+01
   5.4087    8.6484   13.4459  6.49e+01
   5.8243    8.7183   13.3338  6.49e+01
   5.6001    5.5319    9.0306  6.91e+01
   5.3505    5.5121    9.0920  6.91e+01
   4.0948    6.7342    5.2939  6.91e+01
   4.2786    6.6926    5.3494  6.91e+01
   5.2658    5.8069    6.7015  6.91e+01
   3.7870    7.0596    0.8591  6.70e+01
   3.8841    7.3027    0.9553  6.70e+01
   5.9021    4.1460   15.2431  6.70e+01
   5.5056    5.9833   11.7114  6.91e+01
   5.3287    6.1819   11.7089  6.91e+01
   4.2193    6.5386    4.4457  6.91e+01
   4.3523    6.5430    4.5072  6.91e+01
   4.6366    5.1435    9.4107  6.91e+01
   3.9578    5.5720    2.4617  6.70e+01
   4.2240    5.6129    2.3429  6.70e+01
   4.6214    8.0871   11.8225  6.70e+01
   4.9022    8.0730   11.8503  6.70e+01
   4.8780    7.2205    8.7671  6.91e+01
   4.4454    7.0176   10.0420  6.91e+01
   4.5341    6.9664   10.0270  6.91e+01
   5.6494    5.8815   14.3307  6.70e+01
   4.4500    5.9901    3.0910  6.91e+01
   5.5736    6.3665   10.2363  6.91e+01
   5.4065    6.4667   10.2729  6.91e+01
   5.5892    6.0106    9.4705  6.91e+01
   5.5978    6.2082    9.3544  6.91e+01
   4.7676    4.8536    7.8749  6.91e+01
   4.5338    5.6484    3.4421  6.91e+01
   4.6830    5.7618    3.4052  6.91e+01
   4.6048    5.4806   10.6345  6.91e+01
   4.4456    5.6074   10.6595  6.91e+01
   5.0995    6.8395   11.2728  6.91e+01
   4.5435    6.8858    1.9128  6.70e+01
   4.9171    7.0014    1.8701  6.70e+01
   4.9114    5.1361    5.7842  6.91e+01
   5.3601    6.4284   10.8609  6.91e+01
   4.4878    7.4489    8.4526  6.91e+01
   4.3824    7.2914    8.5306  6.91e+01
   5.3018    4.1696    7.6159  6.70e+01
   4.4499    7.2982    8.5933  6.91e+01
   4.5458    7.4734    8.5555  6.91e+01
   4.3814    7.4240    1.2392  6.70e+01
   5.4023    5.5413   12.3343  6.91e+01
   4.5715    6.7995   10.5920  6.91e+01
   4.2572    6.4098   10.9420  6.70e+01
   5.6697    4.4023   15.6309  6.70e+01
   5.7064    4.5590   15.5951  6.70e+01
   4.7253    4.7745   10.3442  6.91e+01
   4.6704    7.0410    6.0427  6.91e+01
   4.9365    5.6411   11.8188  6.91e+01
   4.8051    6.4254   11.5857  6.91e+01
   4.9452    6.4755   11.5489  6.91e+01
   5.2996    6.5275   11.7747  6.91e+01
   4.2307    5.7719    5.4451  6.91e+01
   4.0790    6.0524    9.3053  6.91e+01
   4.1186    6.1512    9.1895  6.91e+01
   5.3150    4.5677    2.2492  6.49e+01
   5.6056    4.3305    2.4039  6.49e+01
   4.6784    6.8500    4.4628  6.91e+01
   5.5669    5.7563   12.1927  6.91e+01
   5.5497    5.6685   12.1527  6.91e+01
   4.5969    6.1424    2.9301  6.91e+01
   5.0514    4.7389   11.5805  6.91e+01
   5.0429    4.8712   11.5430  6.91e+01
   4.3542    6.7135    9.1833  6.90e+01
   4.4837    7.3489    8.0757  6.90e+01
   4.4523    6.2787    3.3768  6.90e+01
   4.6776    7.2003    8.9888  6.90e+01
   5.3585    4.7358   11.6962  6.90e+01
   5.3998    4.8759   11.7248  6.90e+01
   4.7451    6.5253    5.1700  6.90e+01
   4.9252    6.4899    5.1387  6.90e+01
   4.7330    6.9440    7.0665  6.90e+01
   4.9016    7.1274    7.1031  6.90e+01
   5.5718    5.0941   12.4090  6.90e+01
   4.3206    7.0006    7.4849  6.90e+01
   4.2642    7.1428    7.5060  6.90e+01
   4.5000    6.8762   12.8024  6.70e+01
   4.7370    7.1219   12.9468  6.70e+01
   4.3324    5.5031    1.7055  6.70e+01
   5.4434    4.9826   10.1146  6.90e+01
   5.5783    5.1868    9.2364  6.90e+01
   5.4470    5.0010    9.2490  6.90e+01
   4.0841    7.0853    7.7491  6.90e+01
   4.4167    5.7255    3.2003  6.90e+01
   5.0018    5.1671   12.2560  6.90e+01
   5.0295    5.3577   12.4301  6.90e+01
   4.0895    6.0708    4.3659  6.90e+01
   4.2384    6.0195    4.3765  6.90e+01
   4.4070    5.2836    6.0043  6.90e+01
   5.0392    6.0723    6.8137  6.90e+01
   4.6748    6.0040    2.7368  6.90e+01
   4.5170    6.1082    2.7564  6.90e+01
   5.0998    4.6581    1.2794  6.49e+01
   4.3595    7.0417    7.0699  6.90e+01
   4.1834    7.0093    7.0816  6.90e+01
   4.7520    7.2003    8.3687  6.90e+01
   5.3902    4.5077    0.4307  6.49e+01
   5.8935    4.4456    0.4075  6.49e+01
   5.2830    4.8611    8.2088  6.90e+01
   5.1690    4.7547    8.2913  6.90e+01
   4.3245    5.8959    8.6637  6.90e+01
   4.3246    5.6998    8.6435  6.90e+01
   4.3897    4.3366    6.7638  6.69e+01
   5.1159    4.6327    1.9265  6.49e+01
   5.1901    6.9071    9.1849  6.90e+01
   4.9420    4.8443    7.4837  6.90e+01
   4.8963    7.1969   10.0279  6.90e+01
   4.7601    7.4320   10.1027  6.90e+01
   3.9090    5.4003    1.0939  6.69e+01
   4.2611    5.9511   11.3993  6.69e+01
   5.3570    6.4634   10.0026  6.90e+01
   4.5880    5.0863    9.8085  6.90e+01
   4.4854    3.8684   10.8090  6.69e+01
   4.8218    6.8627    6.0087  6.90e+01
   4.9902    5.3204    4.7185  6.90e+01
   4.9406    5.4211    4.6961  6.90e+01
   4.0770    6.8625    4.9562  6.90e+01
   4.3172    7.1871    8.1359  6.90e+01
   4.5328    6.2599    3.1581  6.90e+01
   4.6593    6.3998    3.2441  6.90e+01
   4.3200    6.5043    4.1206  6.90e+01
   4.1842    6.2692    4.2073  6.90e+01
   4.6216    7.1901    7.8505  6.90e+01
   5.1492    6.4746    7.3015  6.90e+01
   4.4694    6.1561    2.6104  6.90e+01
   4.8863    5.0518   11.5616  6.90e+01
   4.3796    5.4068    4.1568  6.90e+01
   5.5261    6.3317   11.2755  6.90e+01
   5.5946    6.4473   11.2630  6.90e+01
   5.4332    2.8552   16.1662  6.48e+01
   5.6163    5.7719    9.0214  6.90e+01
   6.0241    6.4625   13.4459  6.69e+01
   4.1617    7.0096    6.8156  6.90e+01
   4.1224    7.1299    6.7989  6.90e+01
   4.3942    5.8053    3.0879  6.90e+01
   5.3616    5.5410   12.5448  6.90e+01
   5.3906    5.5270   12.4742  6.90e+01
   4.4641    7.3505    9.3264  6.90e+01
   4.5756    7.3439    9.3098  6.90e+01
   4.5509    5.6413   11.0996  6.90e+01
   5.0814    6.8975   10.7667  6.90e+01
   5.0774    5.3526    6.5213  6.90e+01
   5.1090    5.4469    6.5154  6.90e+01
   6.6890    4.8919   13.9879  6.69e+01
   6.3261    4.7067   13.9362  6.69e+01
   4.1286    5.7059    5.2251  6.90e+01
   4.8457    4.9112    7.2433  6.90e+01
   5.1688    5.8781   12.4038  6.90e+01
   4.8667    7.2717    8.3414  6.90e+01
   4.7154    7.4305    8.2583  6.90e+01
   4.3329    6.1996    9.4969  6.90e+01
   4.3272    5.5174    0.4285  6.69e+01
   4.1553    5.3682    0.5053  6.69e+01
   5.3179    5.1371   12.5559  6.90e+01
   5.1561    5.0517    7.0460  6.90e+01
   5.0344    5.0220    7.0037  6.90e+01
   4.5672    6.0834    2.3997  6.90e+01
   5.3162    4.8432   11.9901  6.90e+01
   6.2272    4.0587   10.6656  6.69e+01
   6.6471    4.4283   13.6077  6.69e+01
   5.4317    5.8985   12.4323  6.89e+01
   4.8565    5.8189    4.1560  6.89e+01
   4.8489    6.0084    4.3057  6.89e+01
   4.7492    4.9243   10.7519  6.89e+01
   4.4559    5.6356    2.8639  6.89e+01
   4.4095    6.2809    3.1085  6.89e+01
   4.9707    5.1482    5.5394  6.89e+01
   4.7274    5.2383    5.4302  6.89e+01
   5.1563    5.1570   14.9377  6.69e+01
   4.9801    7.5657    5.7781  6.69e+01
   6.3010    4.7621   14.6330  6.69e+01
   4.6166    5.1382    5.6104  6.89e+01
   5.4351    5.3200    8.7042  6.89e+01
   4.7959    6.9386   10.9081  6.89e+01
   5.9353    5.0970   15.1018  6.68e+01
   5.1044    8.2944   11.3978  6.68e+01
   4.8224    8.7028    7.8283  6.68e+01
   4.6101    6.1852    2.1431  6.89e+01
   4.2450    6.3894    9.6054  6.89e+01
   4.5625    7.1860    5.5787  6.89e+01
   4.9170    5.6074    4.5435  6.89e+01
   4.0975    7.1693    8.4880  6.89e+01
   4.6213    8.5103   11.0122  6.68e+01
   5.2181    6.0932   12.2952  6.89e+01
   4.2841    6.0749    4.0785  6.89e+01
   5.3918    4.8925    9.8397  6.89e+01
   5.3061    5.0004   12.3248  6.89e+01
   4.4988    6.5960    4.1146  6.89e+01
   4.5870    6.5858    4.1044  6.89e+01
   4.2184    6.9061    6.4314  6.89e+01
   4.4832    7.4976    7.4046  6.89e+01
   4.6005    5.7345    2.6434  6.89e+01
   5.9086    4.2529   15.4503  6.68e+01
   5.3510    6.1406   11.9905  6.89e+01
   4.9741    6.5290   11.6973  6.89e+01
   5.3633    5.1918    3.7398  6.68e+01
   4.3908    6.5086    2.8808  6.89e+01
   4.3109    5.7016    9.0099  6.89e+01
   4.1795    5.6942    9.0234  6.89e+01
   5.3044    5.8720    6.3351  6.89e+01
   5.2922    5.6757    6.3143  6.89e+01
   6.2852    4.6496   13.1585  6.68e+01
   5.3351    4.7294   12.2504  6.89e+01
   4.8395    6.6874   11.4819  6.89e+01
   5.2853    4.8981    7.9938  6.89e+01
   5.2198    7.0533    6.8249  6.68e+01
   4.1052    6.7969    4.7233  6.89e+01
   5.0835    5.3649   12.5662  6.89e+01
   5.0011    4.9179   11.9502  6.89e+01
   4.3646    6.4326    3.7861  6.89e+01
   4.5604    6.1279    2.0218  6.89e+01
   4.6626    4.6036   13.4630  6.68e+01
   5.0688    7.1468    8.7835  6.89e+01
   4.4179    6.3198   11.1052  6.89e+01
   4.6809    6.3719   11.1116  6.89e+01
   5.5608    5.9461    9.0260  6.89e+01
   5.3720    6.0995    9.0373  6.89e+01
   4.6880    4.0640    6.1161  6.68e+01
   5.3036    7.9742    7.8525  6.68e+01
   5.4677    7.5821    7.6703  6.68e+01
   4.1525    5.8783    4.9078  6.89e+01
   4.5164    6.1479    1.9197  6.89e+01
   4.5382    5.1826   10.0272  6.89e+01
   4.6450    5.9750   11.2357  6.89e+01
   4.6006    5.9889    1.7017  6.89e+01
   4.4354    5.9006    2.4854  6.89e+01
   4.6302    5.4297    3.9258  6.89e+01
   5.4268    5.2181   12.6423  6.89e+01
   4.1125    7.0680    8.5536  6.89e+01
   4.5715    6.4227    2.7625  6.89e+01
   4.8536    5.5996   12.1123  6.89e+01
   4.3936    6.2084    1.4940  6.89e+01
   4.6551    6.0161    1.5900  6.89e+01
   5.4356    4.7723    4.6510  6.68e+01
   5.5646    4.3986    4.6670  6.68e+01
   5.5044    5.4147   12.6620  6.89e+01
   4.8008    4.8892    7.0109  6.89e+01
   4.6793    5.5776   10.9585  6.89e+01
   4.4911    6.2363    1.3631  6.89e+01
   4.9942    6.5477    4.7845  6.89e+01
   4.9679    6.9315    6.8757  6.89e+01
   4.5908    6.1927    1.2461  6.89e+01
   4.3789    6.1253    1.0393  6.89e+01
   4.6168    7.2226    9.5203  6.89e+01
   5.4876    6.4254    9.6763  6.89e+01
   4.2689    6.4242    3.6724  6.89e+01
   4.2149    6.8036    9.4274  6.89e+01
   5.6087    6.3763   11.5455  6.89e+01
   5.5283    4.1745   14.1382  6.68e+01
   5.0315    6.7496    7.7272  6.88e+01
   5.4653    5.2744    8.9456  6.88e+01
   4.8588    5.5380    4.2903  6.88e+01
   4.3170    6.8404    4.5384  6.88e+01
   3.8243    7.9330    7.5520  6.68e+01
   5.5940    7.7452   12.4210  6.68e+01
   5.4754    7.9664   12.4224  6.68e+01
   4.5207    5.6942    2.4532  6.88e+01
   6.5078    5.3089   13.4883  6.68e+01
   6.8535    5.3950   13.7472  6.68e+01
   5.5696    4.9269   12.4355  6.88e+01
   4.4462    6.2832    2.5007  6.88e+01
   4.7511    7.4920   10.3665  6.88e+01
   5.4462    5.7837   12.6300  6.88e+01
   5.5192    5.6274   12.5399  6.88e+01
   5.2147    6.6027   11.5964  6.88e+01
   4.3646    6.2423    3.7039  6.88e+01
