NLLOC "./loc/vinti.19950422.154718.grid0" "LOCATED" "Location completed."
SIGNATURE "Anthony Lomax - ALomax Scientific   obs:./obs/vinti.obs   NLLoc:v6.04.00(26Mar2015)  run:04Jun2015 13h51m32"
COMMENT "1995 Vintimiglia Sequence (NonLinLoc Sample Location)"
GRID  101 101 21  -50 -50 0  1 1 1 PROB_DENSITY
SEARCH OCTREE nInitial 400 nEvaluated 20000 smallestNodeSide 0.156250/0.156250/0.082031 oct_tree_integral 9.446037e+00 scatter_volume 9.446037e+00
HYPOCENTER  x 3.51562 y 3.20312 z 7.58789  OT 16.4941  ix -1 iy -1 iz -1
GEOGRAPHIC  OT 1995 04 22  15 47 16.494069  Lat 43.778824 Long 7.543673 Depth 7.58789
QUALITY  Pmax 8.19221e+31 MFmin 21.6074 MFmax 21.9266 RMS 0.0629132 Nphs 13 Gap 230.323 Dist 12.2026 Mamp -9.90 0 Mdur -9.90 0
VPVSRATIO  VpVsRatio 1.78102  Npair 3  Diff 2.35
STATISTICS  ExpectX 3.62348 Y 3.17467 Z 7.00736  CovXX 0.251629 XY 0.365841 XZ 0.721219 YY 1.83277 YZ 2.32105 ZZ 6.16801 EllAz1  96.3839 Dip1  -4.36231 Len1  0.740498 Az2  4.44372 Dip2  -23.9321 Len2  1.70962 Len3  5.065556e+00
STAT_GEOG  ExpectLat 43.778567 Long 7.545013 Depth 7.007363
TRANSFORM  LAMBERT RefEllipsoid Clarke-1880  LatOrig 43.750000  LongOrig 7.500000  FirstStdParal 43.199300  SecondStdParal 44.996100  RotCW 0.000000
QML_OriginQuality  assocPhCt 1693837232  usedPhCt 13  assocStaCt 32767  usedStaCt 1693803928  depthPhCt 32767  stdErr 0.0629132  azGap 230.323  secAzGap 0  gtLevel   minDist 5.09279e-313 maxDist 0 medDist 0
QML_OriginUncertainty  horUnc -1  minHorUnc 6.95327e-310  maxHorUnc 6.95322e-310  azMaxHorUnc 90
QML_ConfidenceEllipsoid  semiMajorAxisLength 5.06556  semiMinorAxisLength 0.740498  semiIntermediateAxisLength 1.70962  majorAxisPlunge 0  majorAxisAzimuth 0  majorAxisRotation 355.611
FOCALMECH  Hyp  43.778824 7.543673 7.587890 Mech  0 0 0 mf  0 nObs 0
DIFFERENTIAL  Nhyp 140735655831720
PHASE ID Ins Cmp On Pha  FM Date     HrMn   Sec     Err  ErrMag    Coda      Amp       Per       PriorWt  >   TTpred    Res       Weight    StaLoc(X  Y         Z)        SDist    SAzim  RAz  RDip RQual    Tcorr       TTerr
RONE         ?    ?    ? P      ? 19950422 1547   19.2900 GAU  1.00e-01 -1.00e+00 -1.00e+00 -1.00e+00    1.0000 >    2.7218 7.4118e-02    1.1383    7.8887   14.5952   -0.3000   12.2026  21.00  21.0 116.8  9     0.0000   -1.0000
RONE         ?    ?    ? S      ? 19950422 1547   21.0200 GAU  1.00e-01 -1.00e+00 -1.00e+00 -1.00e+00    1.0000 >    4.5726 -4.6716e-02    1.2370    7.8887   14.5952   -0.3000   12.2026  21.00  21.0 116.8  9     0.0000   -1.0000
SBF          ?    ?    P G      ? 19950422 1547   19.8900 GAU  1.00e-01 -1.00e+00 -1.00e+00 -1.00e+00    1.0000 >    2.9280 4.6797e-01    0.0292   -5.2384   12.6113   -0.8470   12.8509 317.06 317.1 116.4  9     0.0000   -1.0000
NEGI         ?    ?    ? S      ? 19950422 1547   21.9400 GAU  1.00e-01 -1.00e+00 -1.00e+00 -1.00e+00    1.0000 >    5.3962 9.6896e-03    1.2646   16.3893   10.8705   -0.6400   14.9840  59.22  59.2 112.9  9     0.0400   -1.0000
NEGI         ?    ?    ? P      ? 19950422 1547   19.8000 GAU  1.00e-01 -1.00e+00 -1.00e+00 -1.00e+00    1.0000 >    3.2120 5.3883e-02    1.1982   16.3893   10.8705   -0.6400   14.9840  59.22  59.2 112.9  9     0.0400   -1.0000
AURF         ?    ?    P G      ? 19950422 1547   20.6300 GAU  1.00e-01 -1.00e+00 -1.00e+00 -1.00e+00    1.0000 >    4.2621 -1.2614e-01    0.9751  -13.8607   15.2716   -1.0400   21.1562 304.78 304.8 107.2  9     0.0000   -1.0000
CEPP         ?    ?    ? P      ? 19950422 1547   20.9600 GAU  1.00e-01 -1.00e+00 -1.00e+00 -1.00e+00    1.0000 >    4.4601 5.8558e-03    1.2740   19.7971   18.5085   -1.0800   22.3459  46.77  46.8 106.4  9     0.0000   -1.0000
CEPP         ?    ?    ? S      ? 19950422 1547   23.9700 GAU  1.00e-01 -1.00e+00 -1.00e+00 -1.00e+00    1.0000 >    7.4929 -1.6996e-02    1.2216   19.7971   18.5085   -1.0800   22.3459  46.77  46.8 106.4  9     0.0000   -1.0000
AUTN         ?    ?    P G      ? 19950422 1547   21.7300 GAU  1.00e-01 -1.00e+00 -1.00e+00 -1.00e+00    1.0000 >    5.2082 2.7720e-02    1.2485   -5.8149   27.2765   -2.0690   25.8184 338.81 338.8 104.9  9     0.0000   -1.0000
IMI          ?    ?    ? P      ? 19950422 1547   22.3300 GAU  1.00e-01 -1.00e+00 -1.00e+00 -1.00e+00    1.0000 >    5.9276 -9.1708e-02    1.1031   31.5793   17.9062   -0.8400   31.6820  62.35  62.3 102.0  9     0.0000   -1.0000
IMI          ?    ?    ? S      ? 19950422 1547   26.4100 GAU  1.00e-01 -1.00e+00 -1.00e+00 -1.00e+00    1.0000 >    9.9584 -4.2502e-02    1.1373   31.5793   17.9062   -0.8400   31.6820  62.35  62.3 102.0  9     0.0000   -1.0000
MVIF         ?    ?    P G      ? 19950422 1547   21.9500 GAU  1.00e-01 -1.00e+00 -1.00e+00 -1.00e+00    1.0000 >    6.4388 -9.8286e-01    0.0000  -27.9180   16.3343   -1.4800   34.0661 292.67 292.7 101.4  9     0.0000   -1.0000
TOUF         ?    ?    P G      ? 19950422 1547   23.2500 GAU  1.00e-01 -1.00e+00 -1.00e+00 -1.00e+00    1.0000 >    6.7028 5.3170e-02    1.1731  -20.1791   29.3046   -1.8500   35.2523 317.77 317.8 101.2  9     0.0000   -1.0000
0666         ?    ?    e p      u 19950422 1547   18.7700 GAU  1.00e-01 -1.00e+00 -1.00e+00 -1.00e+00    1.0000 >    0.0000 0.0000e+00    0.0000 -100000000000000000000.0000 -100000000000000000000.0000 -100000000000000000000.0000    0.0000   0.00 359.0  -1.0  0     0.0000   -1.0000
PZZ          ?    ?    ? S      ? 19950422 1547   41.6400 GAU  1.00e+00 -1.00e+00 -1.00e+00 -1.00e+00    1.0000 >    0.0000 0.0000e+00    0.0000 -100000000000000000000.0000 -100000000000000000000.0000 -100000000000000000000.0000    0.0000   0.00 359.0  -1.0  0     0.0000   -1.0000
0665         ?    ?    e p      u 19950422 1547   18.8200 GAU  1.00e-01 -1.00e+00 -1.00e+00 -1.00e+00    1.0000 >    0.0000 0.0000e+00    0.0000 -100000000000000000000.0000 -100000000000000000000.0000 -100000000000000000000.0000    0.0000   0.00 359.0  -1.0  0     0.0000   -1.0000
.obs         ?    ?    i p      u 19950422 1547   20.2100 GAU  1.00e-01 -1.00e+00 -1.00e+00 -1.00e+00    1.0000 >    0.0000 0.0000e+00    0.0000 -100000000000000000000.0000 -100000000000000000000.0000 -100000000000000000000.0000    0.0000   0.00 359.0  -1.0  0     0.0400   -1.0000
ENR          ?    ?    ? P      ? 19950422 1547   25.4700 GAU  1.00e-01 -1.00e+00 -1.00e+00 -1.00e+00    1.0000 >    0.0000 0.0000e+00    0.0000 -100000000000000000000.0000 -100000000000000000000.0000 -100000000000000000000.0000    0.0000   0.00 359.0  -1.0  0     0.0400   -1.0000
STV          ?    ?    ? P      ? 19950422 1547   26.1300 GAU  1.00e-01 -1.00e+00 -1.00e+00 -1.00e+00    1.0000 >    0.0000 0.0000e+00    0.0000 -100000000000000000000.0000 -100000000000000000000.0000 -100000000000000000000.0000    0.0000   0.00 359.0  -1.0  0     0.0000   -1.0000
FIN          ?    ?    ? P      ? 19950422 1547   29.0300 GAU  1.00e+00 -1.00e+00 -1.00e+00 -1.00e+00    1.0000 >    0.0000 0.0000e+00    0.0000 -100000000000000000000.0000 -100000000000000000000.0000 -100000000000000000000.0000    0.0000   0.00 359.0  -1.0  0     0.0000   -1.0000
FRF          ?    ?    ? G      ? 19950422 1547   30.4000 GAU  1.00e-01 -1.00e+00 -1.00e+00 -1.00e+00    1.0000 >    0.0000 0.0000e+00    0.0000 -100000000000000000000.0000 -100000000000000000000.0000 -100000000000000000000.0000    0.0000   0.00 359.0  -1.0  0     0.0000   -1.0000
PZZ          ?    ?    ? P      ? 19950422 1547   31.3900 GAU  1.00e+00 -1.00e+00 -1.00e+00 -1.00e+00    1.0000 >    0.0000 0.0000e+00    0.0000 -100000000000000000000.0000 -100000000000000000000.0000 -100000000000000000000.0000    0.0000   0.00 359.0  -1.0  0     0.0000   -1.0000
ENR          ?    ?    ? S      ? 19950422 1547   31.4900 GAU  1.00e-01 -1.00e+00 -1.00e+00 -1.00e+00    1.0000 >    0.0000 0.0000e+00    0.0000 -100000000000000000000.0000 -100000000000000000000.0000 -100000000000000000000.0000    0.0000   0.00 359.0  -1.0  0     0.0000   -1.0000
STV          ?    ?    ? S      ? 19950422 1547   32.4500 GAU  1.00e-01 -1.00e+00 -1.00e+00 -1.00e+00    1.0000 >    0.0000 0.0000e+00    0.0000 -100000000000000000000.0000 -100000000000000000000.0000 -100000000000000000000.0000    0.0000   0.00 359.0  -1.0  0     0.0400   -1.0000
LMR          ?    ?    ? G      ? 19950422 1547   33.8000 GAU  1.00e-01 -1.00e+00 -1.00e+00 -1.00e+00    1.0000 >    0.0000 0.0000e+00    0.0000 -100000000000000000000.0000 -100000000000000000000.0000 -100000000000000000000.0000    0.0000   0.00 359.0  -1.0  0     0.0000   -1.0000
LRG          ?    ?    ? G      ? 19950422 1547   34.4000 GAU  1.00e-01 -1.00e+00 -1.00e+00 -1.00e+00    1.0000 >    0.0000 0.0000e+00    0.0000 -100000000000000000000.0000 -100000000000000000000.0000 -100000000000000000000.0000    0.0000   0.00 359.0  -1.0  0     0.0000   -1.0000
FIN          ?    ?    ? S      ? 19950422 1547   37.3200 GAU  1.00e+00 -1.00e+00 -1.00e+00 -1.00e+00    1.0000 >    0.0000 0.0000e+00    0.0000 -100000000000000000000.0000 -100000000000000000000.0000 -100000000000000000000.0000    0.0000   0.00 359.0  -1.0  0     0.0000   -1.0000
END_PHASE
SCATTER Nsamples 4896
   3.9602    2.8242   10.8877  7.52e+01
   3.0956    1.2988    2.7655  7.73e+01
   3.0063    1.4180    2.6585  7.73e+01
   2.8157    3.0001    7.5103  7.72e+01
   2.8899    3.0468    7.4711  7.72e+01
   4.0485    5.4906    9.5245  7.72e+01
   3.8617    5.4085    9.6586  7.72e+01
   3.4834    1.9972    3.6461  7.72e+01
   3.6053    3.5889    3.3131  7.52e+01
   3.1157    1.3198    3.0736  7.72e+01
   2.9064    1.4588    3.0503  7.72e+01
   3.5632    1.2523    3.6456  7.72e+01
   3.4576    1.5000    3.6534  7.72e+01
   3.2521    2.4753    2.0701  7.72e+01
   4.0253    2.3877    8.6124  7.72e+01
   3.2334    4.6208    9.1281  7.72e+01
   3.4982    3.8951    6.4833  7.72e+01
   3.6056    3.9940    6.5402  7.72e+01
   3.8672    2.9481    9.6377  7.72e+01
   3.8502    3.0641    9.5516  7.72e+01
   2.9277    2.6744    3.4270  7.72e+01
   4.1246    5.7067    9.5736  7.72e+01
   3.1329    2.3325    1.3308  7.72e+01
   3.4373    2.3708    1.3828  7.72e+01
   3.6047    1.3015    6.7023  7.72e+01
   4.2629    3.4175    9.2277  7.72e+01
   4.2827    3.3615    9.2387  7.72e+01
   4.3500    4.2992   10.3668  7.72e+01
   2.9607    3.6636    6.6038  7.72e+01
   2.9404    1.3568    3.3742  7.72e+01
   4.5578    6.2309    9.9501  7.72e+01
   4.3452    3.2275    8.2577  7.72e+01
   4.0653    3.3041    8.2830  7.72e+01
   4.5590    6.1258   10.5325  7.72e+01
   4.4576    6.0578   10.5418  7.72e+01
   3.3790    3.2719    4.8603  7.72e+01
   3.7938    5.3733    9.9394  7.72e+01
   3.7903    5.5195    9.8614  7.72e+01
   5.4991    6.8737   10.8167  7.51e+01
   3.2707    0.9633    5.0082  7.72e+01
   3.2642    1.0119    5.0110  7.72e+01
   3.4948    4.2599    7.0487  7.72e+01
   3.6431    4.2846    7.0287  7.72e+01
   2.9554    2.3747    6.7424  7.72e+01
   4.6586    4.1305    9.6105  7.72e+01
   3.2988    2.5824    3.2510  7.72e+01
   3.3580    2.7681    3.1499  7.72e+01
   5.4915    6.5825   10.8555  7.51e+01
   3.0739    3.1558    5.3402  7.72e+01
   2.8521    3.3570    5.3288  7.72e+01
   3.7933    4.4541   10.3371  7.72e+01
   3.0019    2.2204    1.9237  7.72e+01
   3.7909    4.5648    7.7579  7.72e+01
   3.7721    4.3762    7.7902  7.72e+01
   4.0012    3.5637    6.8179  7.72e+01
   3.8414    3.6155    6.8277  7.72e+01
   4.2845    4.2391    8.0956  7.72e+01
   4.2397    4.2448    8.0428  7.72e+01
   2.9295    1.4958    3.7004  7.72e+01
   2.9324    1.4498    3.6821  7.72e+01
   3.1762    2.9269    8.8949  7.72e+01
   3.3289    3.0383    8.9021  7.72e+01
   4.5923    4.7737   10.5553  7.72e+01
   4.3898    4.8661   10.6571  7.72e+01
   3.5241    2.0698    8.4382  7.72e+01
   3.7223    1.9503    8.4694  7.72e+01
   3.4439    1.2658    3.4076  7.72e+01
   3.4833    4.0761   10.0723  7.72e+01
   3.4872    1.7453    3.1466  7.72e+01
   3.7251    1.6578    3.2036  7.72e+01
   4.0988    3.9508   10.3127  7.72e+01
   4.4029    4.4767    9.0444  7.72e+01
   4.1301    3.8079   11.6497  7.51e+01
   4.0322    4.0250   11.6855  7.51e+01
   4.1270    4.6513    8.3223  7.72e+01
   2.9559    3.6395    7.6476  7.72e+01
   3.7294    4.9311    8.1319  7.72e+01
   3.5883    2.5293    9.2609  7.72e+01
   3.8455    2.0906    7.3521  7.72e+01
   3.7932    2.1015    7.3179  7.72e+01
   4.6117    5.9034   10.7165  7.72e+01
   4.4901    5.6427   10.8084  7.72e+01
   4.1846    4.6580   10.5464  7.72e+01
   4.2368    4.4419   10.6324  7.72e+01
   4.5596    4.1558    9.8665  7.72e+01
   3.4100    1.5592    6.4019  7.72e+01
   3.1490    3.9508    9.5070  7.71e+01
   3.3940    3.8625    9.4768  7.71e+01
   3.9698    5.2020   11.7381  7.51e+01
   3.9960    4.2173    6.3324  7.51e+01
   4.2928    4.3642    6.3738  7.51e+01
   3.8252    2.1220    6.9233  7.71e+01
   3.9425    2.0144    6.8954  7.71e+01
   4.5993    5.2582   10.7197  7.71e+01
   4.4723    7.4829    9.7857  7.51e+01
   4.5167    7.4412    9.6606  7.51e+01
   4.3689    5.3913    9.1441  7.71e+01
   4.3036    5.4962    9.1596  7.71e+01
   3.5783    5.0851    9.2707  7.71e+01
   3.3893    2.9300    4.0918  7.71e+01
   3.0489    1.3301    4.0985  7.71e+01
   2.9261    1.4619    4.0587  7.71e+01
   3.8982    2.8023    6.0843  7.71e+01
   4.0041    2.6827    6.2302  7.71e+01
   3.4819    4.6550   10.9568  7.50e+01
   3.3162    4.7583   11.1536  7.50e+01
   3.8115    5.2341    7.8401  7.50e+01
   3.8938    5.1834    7.6908  7.50e+01
   4.2594    4.0080    7.9693  7.71e+01
   3.1082    2.1768    6.3394  7.71e+01
   4.0196    2.0963    7.6509  7.71e+01
   2.9057    3.4326    7.7720  7.71e+01
   3.0207    1.8534    5.4917  7.71e+01
   3.9946    5.4482    9.1961  7.71e+01
   4.4556    4.6638   10.3762  7.71e+01
   4.5159    4.2256    9.2471  7.71e+01
   4.5428    4.2039    9.3233  7.71e+01
   3.4303    4.6394    7.8559  7.71e+01
   3.0098    2.8423    4.1750  7.71e+01
   3.0814    2.9131    7.6666  7.71e+01
   2.7404    3.3397    2.5170  7.50e+01
   2.8688    2.7782    3.1169  7.71e+01
   4.6568    7.9609   10.7988  7.50e+01
   2.9434    2.0272    1.8028  7.71e+01
   2.8267    2.1709    1.6607  7.71e+01
   3.4979    1.5122    6.9150  7.71e+01
   3.5836    1.5011    3.0410  7.71e+01
   5.0940    5.9208   10.6463  7.50e+01
   3.4688    2.1635    3.2953  7.71e+01
   3.3980    1.0199    5.3731  7.71e+01
   2.7502    2.3847    1.1384  7.50e+01
   2.7547    2.2393    1.1835  7.50e+01
   3.5507    5.0894    9.6138  7.71e+01
   3.4677    1.7415    7.9910  7.71e+01
   3.1475    5.6943    9.6216  7.50e+01
   2.9344    2.3424    6.9659  7.71e+01
   3.6688    1.6858    2.8010  7.71e+01
   3.5293    1.7955    2.8259  7.71e+01
   4.2863    3.3033    9.6777  7.71e+01
   4.3116    3.1723    9.6347  7.71e+01
   4.0979    4.6951    8.3724  7.71e+01
   2.6107    0.7907    4.9873  7.50e+01
   3.1812    2.3910    1.2736  7.71e+01
   3.2400    2.3483    1.1527  7.71e+01
   3.4925    5.2252    8.9304  7.71e+01
   3.7292    5.1836    8.8869  7.71e+01
   4.8860    5.6705   10.3052  7.71e+01
   3.2223    4.0691    6.7927  7.71e+01
   3.0945    3.4930    6.1715  7.71e+01
   3.5156    2.2500    3.7885  7.71e+01
   3.5294    2.4973    3.9199  7.71e+01
   3.0124    1.5420    4.3771  7.71e+01
   3.8254    1.9634    7.9446  7.71e+01
   3.8698    1.9063    7.9346  7.71e+01
   3.1768    2.1222    8.0111  7.71e+01
   3.2976    2.1037    8.0145  7.71e+01
   3.2256    1.5713    1.3975  7.70e+01
   3.1666    1.7825    1.4596  7.70e+01
   3.5490    1.5485    2.6882  7.70e+01
   4.5431    6.0845   10.7798  7.70e+01
   4.5732    5.3715   11.9373  7.50e+01
   4.5951    5.2655   12.0900  7.50e+01
   4.2314    3.4371    8.0034  7.70e+01
   4.6756    5.5440    9.2583  7.70e+01
   4.5476    5.4127    9.2716  7.70e+01
   4.3484    3.6810   10.0800  7.70e+01
   4.5831    5.2934    9.0421  7.70e+01
   4.6084    5.0459    9.1569  7.70e+01
   5.5805    5.6739   10.3866  7.50e+01
   3.9181    5.0298   10.4987  7.70e+01
   4.5597    6.2889   10.4516  7.70e+01
   4.6429    6.3591   10.4363  7.70e+01
   3.5364    2.6443    4.3866  7.70e+01
   3.4437    2.6196    4.3241  7.70e+01
   3.3727    1.5111    1.5880  7.70e+01
   3.7750    2.2760    8.8885  7.70e+01
   4.7809    5.4024   10.0647  7.70e+01
   3.6231    1.3190    7.1750  7.70e+01
   3.1827    2.5966    2.9329  7.70e+01
   2.9541    2.6762    2.6682  7.70e+01
   3.4596    4.9655   10.1193  7.70e+01
   4.3419    5.6429   10.6348  7.70e+01
   3.3048    2.5267    1.5024  7.70e+01
   2.6088    3.1259    1.8752  7.49e+01
   3.2370    3.7417    5.3675  7.70e+01
   3.3432    3.6361    5.3136  7.70e+01
   2.8801    3.9341    5.4232  7.49e+01
   2.5754    3.7927    5.4376  7.49e+01
   2.9300    3.7239    7.9045  7.70e+01
   3.9429    2.4920    5.9903  7.70e+01
   4.3295    6.1682   10.0129  7.70e+01
   4.3033    6.0333   10.0517  7.70e+01
   2.9842    3.2354    4.9382  7.70e+01
   2.9369    3.4081    5.0424  7.70e+01
   4.0658    3.5595    7.7351  7.70e+01
   3.8407    2.7991    9.3698  7.70e+01
   3.6350    2.1002    8.5553  7.70e+01
   3.4017    2.6067    1.3914  7.70e+01
   4.0753    4.1974   10.5684  7.70e+01
   4.2879    4.1626   10.6128  7.70e+01
   3.8688    3.7125   10.2041  7.70e+01
   4.1003    4.7605   10.7432  7.70e+01
   2.9883    3.1965    7.9763  7.70e+01
   4.8539    5.9983   10.4595  7.70e+01
   3.6052    1.3843    2.3797  7.70e+01
   3.6602    1.2120    4.5435  7.70e+01
   4.7622    7.7873   10.8894  7.49e+01
   3.3283    4.6607    9.3536  7.70e+01
   3.6066    3.0855    4.8034  7.70e+01
   3.4489    1.5956    2.6140  7.70e+01
   3.4007    2.7063    8.7122  7.70e+01
   3.3165    2.5243    8.7869  7.70e+01
   3.6528    1.2071    4.8252  7.70e+01
   4.9394    5.4964   10.4763  7.70e+01
   3.4598    3.1640    5.3864  7.70e+01
   3.1236    2.5890    7.4467  7.70e+01
   3.5516    3.4566    5.8886  7.70e+01
   3.5347    1.1261    4.1040  7.70e+01
   4.4779    4.8346   10.7672  7.70e+01
   3.4302    1.9328    1.2282  7.70e+01
   4.0352    2.6225    5.9337  7.70e+01
   3.7930    2.5424    5.9294  7.70e+01
   3.9805    5.3424   10.1767  7.70e+01
   4.2943    3.8859   10.4781  7.70e+01
   3.3404    1.6434    7.4800  7.70e+01
   3.1781    1.8306    7.4415  7.70e+01
   4.3964    5.6957    9.4532  7.70e+01
   4.5211    5.7601    9.4045  7.70e+01
   4.4027    4.8589    8.9194  7.70e+01
   3.5387    0.9908    5.2081  7.70e+01
   4.4500    4.1962   10.1792  7.70e+01
   4.8865    5.7080   10.6598  7.70e+01
   4.6952    5.7139   10.5131  7.70e+01
   3.9801    4.0595    6.9356  7.70e+01
   2.9205    2.8378    7.8470  7.70e+01
   3.9905    3.9548   10.4528  7.70e+01
   3.6120    0.9780    3.8267  7.70e+01
   4.6579    6.3318   10.0347  7.70e+01
   3.3485    0.7688    2.2638  7.70e+01
   4.2899    5.3659   10.7893  7.70e+01
   4.4372    6.4395   10.5591  7.70e+01
   3.3775    2.2180    8.5305  7.70e+01
   3.1888    1.0185    5.6229  7.70e+01
   5.2157    7.2989   11.2843  7.49e+01
   4.8269    6.0505   10.5747  7.70e+01
   4.9364    6.1800   10.5582  7.70e+01
   3.0264    3.0996    3.7761  7.70e+01
   4.6401    4.4892   10.6290  7.70e+01
   2.8703    1.6348    5.8208  7.70e+01
   2.9960    1.4501    4.6789  7.70e+01
   2.8220    1.4399    4.6835  7.70e+01
   3.8901    3.3130   10.0237  7.70e+01
   4.5755    5.5337   10.9219  7.70e+01
   5.4539    6.5930   10.2572  7.49e+01
   3.8663    1.9050    6.2010  7.69e+01
   3.6708    1.7550    9.4361  7.49e+01
   3.2263    0.7696    2.4897  7.69e+01
   3.6528    5.6751   10.4029  7.49e+01
   5.3721    7.3971   10.7022  7.49e+01
   3.5884    1.8081    1.6249  7.69e+01
   4.6481    7.6881   10.3696  7.49e+01
   3.2214    4.2667    9.6384  7.69e+01
   2.9743    2.7099    2.3891  7.69e+01
   4.0921    3.0094    8.8081  7.69e+01
   4.3351    3.4278    7.8456  7.69e+01
   3.7063    1.2095    3.5096  7.69e+01
   3.1609    0.3625    7.1530  7.49e+01
   3.6178    2.4358    9.0343  7.69e+01
   4.0816    3.0572    8.5201  7.69e+01
   3.5720    1.5003    2.0466  7.69e+01
   3.4957    1.0364    5.5697  7.69e+01
   3.1728    0.9171    2.9496  7.69e+01
   3.3976    1.5594    6.8581  7.69e+01
   4.3890    1.3172    0.0834  7.28e+01
   3.2721    2.7315    1.2609  7.69e+01
