NLLOC "./loc/vinti.19950422.151958.grid0" "LOCATED" "Location completed."
SIGNATURE "Anthony Lomax - ALomax Scientific   obs:./obs/vinti.obs   NLLoc:v6.04.00(26Mar2015)  run:04Jun2015 13h51m31"
COMMENT "1995 Vintimiglia Sequence (NonLinLoc Sample Location)"
GRID  101 101 21  -50 -50 0  1 1 1 PROB_DENSITY
SEARCH OCTREE nInitial 400 nEvaluated 20000 smallestNodeSide 0.078125/0.078125/0.041016 oct_tree_integral 7.473829e+00 scatter_volume 7.444013e+00
HYPOCENTER  x 4.88281 y 4.64844 z 9.82324  OT 56.672  ix -1 iy -1 iz -1
GEOGRAPHIC  OT 1995 04 22  15 19 56.672035  Lat 43.791826 Long 7.560670 Depth 9.82324
QUALITY  Pmax 3.18604e+29 MFmin 20.0649 MFmax 20.2466 RMS 0.0861908 Nphs 12 Gap 188.113 Dist 10.391 Mamp -9.90 0 Mdur -9.90 0
VPVSRATIO  VpVsRatio -1  Npair 1  Diff 0
STATISTICS  ExpectX 4.96598 Y 4.98628 Z 9.92275  CovXX 0.196435 XY -0.14169 XZ 0.261475 YY 1.75891 YZ 0.958554 ZZ 3.28101 EllAz1  260.539 Dip1  7.52983 Len1  0.697411 Az2  347.108 Dip2  -24.3594 Len2  2.17986 Len3  3.639527e+00
STAT_GEOG  ExpectLat 43.794866 Long 7.561707 Depth 9.922753
TRANSFORM  LAMBERT RefEllipsoid Clarke-1880  LatOrig 43.750000  LongOrig 7.500000  FirstStdParal 43.199300  SecondStdParal 44.996100  RotCW 0.000000
QML_OriginQuality  assocPhCt 1693837232  usedPhCt 12  assocStaCt 32767  usedStaCt 1693803928  depthPhCt 32767  stdErr 0.0861908  azGap 188.113  secAzGap 0  gtLevel   minDist 5.09279e-313 maxDist 0 medDist 0
QML_OriginUncertainty  horUnc -1  minHorUnc 6.95327e-310  maxHorUnc 6.95322e-310  azMaxHorUnc 90
QML_ConfidenceEllipsoid  semiMajorAxisLength 3.63953  semiMinorAxisLength 0.697411  semiIntermediateAxisLength 2.17986  majorAxisPlunge 0  majorAxisAzimuth 0  majorAxisRotation 172.368
FOCALMECH  Hyp  43.791826 7.560670 9.823240 Mech  0 0 0 mf  0 nObs 0
DIFFERENTIAL  Nhyp 140735655831720
PHASE ID Ins Cmp On Pha  FM Date     HrMn   Sec     Err  ErrMag    Coda      Amp       Per       PriorWt  >   TTpred    Res       Weight    StaLoc(X  Y         Z)        SDist    SAzim  RAz  RDip RQual    Tcorr       TTerr
RONE         ?    ?    ? P      ? 19950422 1519   59.2800 GAU  1.00e-01 -1.00e+00 -1.00e+00 -1.00e+00    1.0000 >    2.6694 -6.1420e-02    1.0828    7.8887   14.5952   -0.3000   10.3910  16.81  16.8 128.0  9     0.0000   -1.0000
RONE         ?    ?    ? S      ? 19950422 1520    1.1200 GAU  1.00e-01 -1.00e+00 -1.00e+00 -1.00e+00    1.0000 >    4.4846 -3.6602e-02    1.1244    7.8887   14.5952   -0.3000   10.3910  16.81  16.8 128.0  9     0.0000   -1.0000
SBF          ?    ?    i p      d 19950422 1519   59.8800 GAU  1.00e-01 -1.00e+00 -1.00e+00 -1.00e+00    1.0000 >    3.1189 8.9046e-02    1.0113   -5.2384   12.6113   -0.8470   12.8781 308.19 308.2 122.1  9     0.0000   -1.0000
NEGI         ?    ?    ? S      ? 19950422 1520    2.1100 GAU  1.00e-01 -1.00e+00 -1.00e+00 -1.00e+00    1.0000 >    5.2156 1.8235e-01    0.6681   16.3893   10.8705   -0.6400   13.0811  61.60  61.6 121.3  9     0.0400   -1.0000
NEGI         ?    ?    ? P      ? 19950422 1519   59.8200 GAU  1.00e-01 -1.00e+00 -1.00e+00 -1.00e+00    1.0000 >    3.1045 3.4320e-03    1.1473   16.3893   10.8705   -0.6400   13.0811  61.60  61.6 121.3  9     0.0400   -1.0000
REVF         ?    ?    P G      ? 19950422 1520    0.1700 GAU  1.00e-01 -1.00e+00 -1.00e+00 -1.00e+00    1.0000 >    3.6254 -1.2739e-01    0.8895  -10.6730   -1.1024   -0.7000   16.5848 249.71 249.7 115.1  9     0.0000   -1.0000
CEPP         ?    ?    ? S      ? 19950422 1520    3.8200 GAU  1.00e-01 -1.00e+00 -1.00e+00 -1.00e+00    1.0000 >    7.1793 -3.1365e-02    1.0988   19.7971   18.5085   -1.0800   20.3602  47.10  47.1 110.5  9     0.0000   -1.0000
CEPP         ?    ?    ? P      ? 19950422 1520    0.9100 GAU  1.00e-01 -1.00e+00 -1.00e+00 -1.00e+00    1.0000 >    4.2734 -3.5446e-02    1.1259   19.7971   18.5085   -1.0800   20.3602  47.10  47.1 110.5  9     0.0000   -1.0000
AURF         ?    ?    P G      ? 19950422 1520    1.1900 GAU  1.00e-01 -1.00e+00 -1.00e+00 -1.00e+00    1.0000 >    4.4488 6.9212e-02    1.0632  -13.8607   15.2716   -1.0400   21.5446 299.54 299.5 109.3  9     0.0000   -1.0000
AUTN         ?    ?    ? p      ? 19950422 1520    1.6800 GAU  1.00e-01 -1.00e+00 -1.00e+00 -1.00e+00    1.0000 >    5.1936 -1.8568e-01    0.6611   -5.8149   27.2765   -2.0690   25.0294 334.70 334.7 106.7  9     0.0000   -1.0000
MVIF         ?    ?    i p      d 19950422 1520    3.3700 GAU  1.00e-01 -1.00e+00 -1.00e+00 -1.00e+00    1.0000 >    6.6361 6.1896e-02    1.0602  -27.9180   16.3343   -1.4800   34.8203 289.61 289.6  98.8  9     0.0000   -1.0000
TOUF         ?    ?    i p      u 19950422 1520    3.4900 GAU  1.00e-01 -1.00e+00 -1.00e+00 -1.00e+00    1.0000 >    6.7608 5.7120e-02    1.0675  -20.1791   29.3046   -1.8500   35.1571 314.53 314.5  98.8  9     0.0000   -1.0000
LRG          ?    ?    ? G      ? 19950422 1520   14.8000 GAU  1.00e-01 -1.00e+00 -1.00e+00 -1.00e+00    1.0000 >    0.0000 0.0000e+00    0.0000 -100000000000000000000.0000 -100000000000000000000.0000 -100000000000000000000.0000    0.0000   0.00 359.0  -1.0  0     0.0000   -1.0000
0665         ?    ?    i p      u 19950422 1519   58.7600 GAU  1.00e-01 -1.00e+00 -1.00e+00 -1.00e+00    1.0000 >    0.0000 0.0000e+00    0.0000 -100000000000000000000.0000 -100000000000000000000.0000 -100000000000000000000.0000    0.0000   0.00 359.0  -1.0  0     0.0000   -1.0000
0669         ?    ?    i p      u 19950422 1519   58.9800 GAU  1.00e-01 -1.00e+00 -1.00e+00 -1.00e+00    1.0000 >    0.0000 0.0000e+00    0.0000 -100000000000000000000.0000 -100000000000000000000.0000 -100000000000000000000.0000    0.0000   0.00 359.0  -1.0  0     0.0000   -1.0000
0667         ?    ?    e p      u 19950422 1519   59.7000 GAU  1.00e-01 -1.00e+00 -1.00e+00 -1.00e+00    1.0000 >    0.0000 0.0000e+00    0.0000 -100000000000000000000.0000 -100000000000000000000.0000 -100000000000000000000.0000    0.0000   0.00 359.0  -1.0  0     0.0000   -1.0000
.obs         ?    ?    i p      d 19950422 1519   60.2300 GAU  1.00e-01 -1.00e+00 -1.00e+00 -1.00e+00    1.0000 >    0.0000 0.0000e+00    0.0000 -100000000000000000000.0000 -100000000000000000000.0000 -100000000000000000000.0000    0.0000   0.00 359.0  -1.0  0     0.0000   -1.0000
CALN         ?    ?    i p      u 19950422 1519   66.5200 GAU  1.00e-01 -1.00e+00 -1.00e+00 -1.00e+00    1.0000 >    0.0000 0.0000e+00    0.0000 -100000000000000000000.0000 -100000000000000000000.0000 -100000000000000000000.0000    0.0000   0.00 359.0  -1.0  0     0.0000   -1.0000
FRF          ?    ?    ? G      ? 19950422 1520   10.3000 GAU  1.00e-01 -1.00e+00 -1.00e+00 -1.00e+00    1.0000 >    0.0000 0.0000e+00    0.0000 -100000000000000000000.0000 -100000000000000000000.0000 -100000000000000000000.0000    0.0000   0.00 359.0  -1.0  0     0.0000   -1.0000
LMR          ?    ?    ? G      ? 19950422 1520   13.4000 GAU  1.00e-01 -1.00e+00 -1.00e+00 -1.00e+00    1.0000 >    0.0000 0.0000e+00    0.0000 -100000000000000000000.0000 -100000000000000000000.0000 -100000000000000000000.0000    0.0000   0.00 359.0  -1.0  0     0.0000   -1.0000
0666         ?    ?    i p      u 19950422 1519   58.7200 GAU  1.00e-01 -1.00e+00 -1.00e+00 -1.00e+00    1.0000 >    0.0000 0.0000e+00    0.0000 -100000000000000000000.0000 -100000000000000000000.0000 -100000000000000000000.0000    0.0000   0.00 359.0  -1.0  0     0.0000   -1.0000
END_PHASE
SCATTER Nsamples 5000
   5.8244    5.0340   12.4717  6.93e+01
   4.4448    7.8121   10.3218  7.14e+01
   4.5177    7.5871   10.1785  7.14e+01
   4.9941    4.7794    9.7844  7.34e+01
   4.9208    3.5720   10.5173  7.14e+01
   4.8173    3.3646    9.2219  7.14e+01
   4.9260    3.1422    9.3181  7.14e+01
   5.5538    4.9298    9.6199  7.14e+01
   6.1063    4.3711   13.8780  6.93e+01
   4.9195    4.6501    9.5564  7.34e+01
   5.0616    7.5987   10.8352  7.14e+01
   5.0029    7.6143   10.9589  7.14e+01
   4.8490    4.8776   10.1919  7.34e+01
   4.9761    4.8892   10.0633  7.34e+01
   4.9561    4.9971   10.0740  7.34e+01
   4.7140    4.0173    6.6023  7.14e+01
   7.3394    1.3218   15.1139  6.51e+01
   4.9591    4.5231    9.9943  7.34e+01
   4.9147    4.3921    9.9293  7.34e+01
   4.9221    7.1396   12.0649  7.14e+01
   4.3683    7.3995    9.2854  6.93e+01
   4.8869    4.3727    9.5861  7.34e+01
   4.9040    4.3236    9.5523  7.34e+01
   4.1056    4.7089   10.2001  7.13e+01
   4.9823    4.8450   10.3148  7.34e+01
   4.7006    4.7157    9.8269  7.34e+01
   4.5008    3.7271    8.6756  7.13e+01
   4.3817    3.4052    0.4886  6.93e+01
   4.8040    3.7441    0.6011  6.93e+01
   4.6975    4.8045    9.7565  7.34e+01
   4.7788    4.8190    9.7254  7.34e+01
   4.9278    4.6970   10.2689  7.34e+01
   4.8481    4.3239    9.3936  7.34e+01
   4.8322    4.6105    9.6139  7.34e+01
   4.8120    4.6782    9.6111  7.34e+01
   4.7553    4.6315    9.5879  7.34e+01
   4.7443    4.6095    9.5684  7.34e+01
   4.7819    4.7382    9.9121  7.34e+01
   4.8970    4.5773   10.2203  7.34e+01
   4.5180    6.5941   11.3575  7.13e+01
   4.5871    6.6486   11.4420  7.13e+01
   4.2019    4.0713    8.3724  7.13e+01
   4.5150    5.4324    7.0362  6.93e+01
   4.6814    6.0947   11.4225  7.13e+01
   4.5863    6.1088   11.4278  7.13e+01
   5.1938    4.3860    8.0457  7.13e+01
   4.8003    4.7687    9.6295  7.34e+01
   5.2700    4.2918    7.6026  7.13e+01
   5.6202    2.8801    4.8763  6.93e+01
   4.8946    4.2842    9.3129  7.34e+01
   4.7396    4.5479    9.4741  7.34e+01
   4.8311    4.6069    9.4775  7.34e+01
   4.9142    4.2674    9.6981  7.34e+01
   4.8185    4.6289    9.7746  7.34e+01
   4.9761    4.8747   10.3542  7.34e+01
   4.9040    4.9301   10.3547  7.34e+01
   4.8821    4.8989    9.9251  7.34e+01
   4.9487    4.5309    9.3183  7.34e+01
   5.4057    3.5886    7.8397  7.13e+01
   5.3968    3.4471    7.8548  7.13e+01
   4.7055    4.8673    9.9896  7.34e+01
   4.9053    5.0275   10.2097  7.34e+01
   4.8068    4.9734    9.8926  7.34e+01
   4.8981    5.1290   10.3238  7.34e+01
   5.4925    6.5877   12.2493  7.13e+01
   4.9372    4.7995    9.6208  7.34e+01
   4.8959    4.8124    9.6657  7.34e+01
   5.0327    3.0243    7.9878  7.13e+01
   4.8116    4.8296    9.5287  7.34e+01
   4.6954    4.7174    9.5485  7.34e+01
   6.2170    7.0154   12.1901  6.92e+01
   6.0062    7.3189   12.2391  6.92e+01
   5.6064    4.6213   12.4187  7.13e+01
   5.5473    4.4714   12.4221  7.13e+01
   4.4688    3.5715    7.5500  7.13e+01
   4.0948    4.1651    8.1095  7.13e+01
   4.3252    4.2178    8.0933  7.13e+01
   4.8050    4.6191    9.3899  7.34e+01
   4.1105    5.4758   10.6233  7.13e+01
   5.1630    3.2773   10.9183  7.13e+01
   4.7957    4.9062   10.0317  7.34e+01
   4.9810    4.7803   10.3696  7.34e+01
   4.8672    4.8183   10.3381  7.34e+01
   4.2866    4.6590    7.6121  7.13e+01
   4.1465    4.6280    7.6963  7.13e+01
   4.9738    4.3588    9.2105  7.34e+01
   4.8509    4.3175    9.2251  7.34e+01
   4.8903    5.0295   10.1061  7.34e+01
   5.3504    2.9433    9.1677  7.13e+01
   5.4852    3.0985    9.1806  7.13e+01
   4.2922    4.8275    7.8379  7.13e+01
   4.7226    4.9477    9.7927  7.34e+01
   4.4045    4.4020    7.1168  7.13e+01
   5.5987    5.3456   12.1462  7.13e+01
   4.7859    4.7109   10.0767  7.34e+01
   5.4610    3.1417   11.4533  7.13e+01
   4.9341    5.0421   10.3992  7.34e+01
   4.9039    4.6507   10.2797  7.34e+01
   4.8921    4.6712   10.3322  7.34e+01
   5.5704    3.0293    7.7523  7.13e+01
   4.2023    5.2402    6.5871  6.92e+01
   4.0297    5.4475    6.7527  6.92e+01
   5.0940    4.4978    9.8873  7.34e+01
   5.0324    6.8046   12.4143  7.13e+01
   5.1540    4.5177    9.9499  7.34e+01
   4.7748    4.4650    9.4215  7.34e+01
   4.8128    4.4686    9.3538  7.34e+01
   4.8600    4.4828   10.1640  7.34e+01
   5.2551    2.9379    8.2765  7.13e+01
   4.5967    7.4886   11.3316  7.13e+01
   4.7036    4.4996    9.5282  7.34e+01
   5.4949    5.9672   12.2537  7.13e+01
   5.4529    6.1484   12.2678  7.13e+01
   4.7364    4.9111   10.1090  7.34e+01
   4.8682    4.9240   10.4427  7.34e+01
   4.6933    4.9753    9.7564  7.34e+01
   4.7685    4.9941    9.7014  7.34e+01
   5.1326    4.4757   10.0207  7.34e+01
   5.0175    4.6487   10.1022  7.34e+01
   5.1185    4.5942   10.1370  7.34e+01
   4.9151    4.8581    9.8253  7.34e+01
   4.8936    4.5793    9.3875  7.34e+01
   4.8059    3.6045    6.4298  7.13e+01
   4.8799    3.6984    6.5609  7.13e+01
   4.8448    5.0381   10.0624  7.34e+01
   5.2294    2.9077    7.5565  7.13e+01
   5.0193    4.3373    9.7402  7.34e+01
   5.0271    4.2335    9.7334  7.34e+01
   4.7821    4.4003    9.2918  7.34e+01
   4.7141    6.1725    9.2498  7.13e+01
   4.8178    4.7718    9.4844  7.34e+01
   5.0146    4.5577    9.9951  7.34e+01
   5.1003    4.2767    9.8345  7.34e+01
   5.6062    5.8073   10.4502  7.13e+01
   5.5987    5.9071   10.3401  7.13e+01
   5.0157    4.3256    9.6054  7.34e+01
   5.0662    4.4806    9.7221  7.34e+01
   4.7451    4.5465    9.3051  7.34e+01
   4.9477    4.4007    9.2500  7.34e+01
   4.9703    5.0206   10.4320  7.34e+01
   4.2115    4.1267    8.7491  7.13e+01
   4.6542    5.8565    8.7505  7.13e+01
   4.7619    3.3774    6.9418  7.13e+01
   5.0136    4.6817   10.2109  7.34e+01
   4.8741    4.2361    9.1842  7.34e+01
   4.7157    6.3514   12.0971  7.13e+01
   4.9496    4.2294    9.8565  7.34e+01
   4.7723    4.6837    9.9887  7.34e+01
   4.7386    4.5991    9.9518  7.34e+01
   4.5835    8.0713   10.7745  7.13e+01
   5.0330    4.5283   10.1347  7.34e+01
   5.0703    4.4626   10.1063  7.34e+01
   5.0414    5.9879    9.6952  7.13e+01
   5.0510    4.2954    9.8659  7.34e+01
   5.4430    7.2282   11.8445  7.13e+01
   5.0774    3.8505    7.0691  7.13e+01
   5.1327    3.8018    7.2079  7.13e+01
   4.6736    3.8561    6.8318  7.13e+01
   4.6027    2.6395    5.7695  6.92e+01
   4.9237    4.7111    9.5946  7.34e+01
   5.1079    4.2327    9.5177  7.34e+01
   4.7351    5.0424   10.0143  7.34e+01
   6.1872    6.6562   12.7078  6.92e+01
   4.7024    4.4470    9.1918  7.34e+01
   5.0538    4.9856   12.3226  7.13e+01
   4.9716    4.8408   10.4324  7.34e+01
   4.8015    5.1457   10.1001  7.34e+01
   5.2527    7.7116   12.3043  7.13e+01
   5.1773    6.0869   12.3126  7.13e+01
   5.0677    6.1992   12.3335  7.13e+01
   4.7831    5.0195    9.9488  7.33e+01
   4.8116    4.8831   10.2255  7.33e+01
   4.7603    4.8889    9.6230  7.33e+01
   5.0687    4.7875   10.2495  7.33e+01
   5.1147    4.7914   10.1800  7.33e+01
   4.7019    4.3990    9.6819  7.33e+01
   5.1464    4.5852   10.2774  7.33e+01
   4.9869    5.1298    9.9467  7.33e+01
   5.0899    4.8214   10.3078  7.33e+01
   5.0076    4.7033   10.2724  7.33e+01
   5.1272    4.2704    9.9817  7.33e+01
   4.9844    4.6370   10.3695  7.33e+01
   4.8821    4.4967   10.2015  7.33e+01
   5.0710    4.2711    9.4466  7.33e+01
   5.0101    4.4483   10.2144  7.33e+01
   4.9701    5.2362   10.2889  7.33e+01
   4.8873    4.1730    9.3225  7.33e+01
   4.8902    4.0822    9.3226  7.33e+01
   5.3040    5.5468   12.4659  7.13e+01
   4.8233    5.0947   10.1895  7.33e+01
   4.7228    5.0593   10.2310  7.33e+01
   4.9748    5.2187   10.3569  7.33e+01
   5.0090    4.5380    9.8162  7.33e+01
   4.7845    4.7894    9.4089  7.33e+01
   4.7584    4.8375    9.3968  7.33e+01
   4.9756    4.0954    9.3651  7.33e+01
   4.7022    5.1308    9.8577  7.33e+01
   4.9749    5.0377   10.5656  7.33e+01
   4.9162    4.9651   10.5052  7.33e+01
   4.7113    4.6005    9.2198  7.33e+01
   4.8835    4.9483    9.7141  7.33e+01
   5.0453    4.7469   10.0794  7.33e+01
   4.9688    4.1098    9.2162  7.33e+01
   4.2450    5.6478   10.4088  7.13e+01
   4.8550    4.2376    9.9985  7.33e+01
   4.9360    4.2941    9.9987  7.33e+01
   5.0585    4.7713   10.3383  7.33e+01
   4.5731    3.7149    8.9033  7.12e+01
   4.6840    3.5139    8.9490  7.12e+01
   4.9080    5.2006   10.1831  7.33e+01
   4.8259    4.4069    9.1243  7.33e+01
   4.9524    4.2459    9.0266  7.33e+01
   4.9952    4.2992    9.0941  7.33e+01
   5.2563    3.0464    8.6567  7.12e+01
   4.9974    4.0748    9.4733  7.33e+01
   4.8585    4.6707    9.3228  7.33e+01
   4.8553    5.1981   10.4621  7.33e+01
   5.0172    4.2238   10.0578  7.33e+01
   5.0003    4.6090   10.3826  7.33e+01
   4.7836    4.8123   10.2451  7.33e+01
   5.0539    4.3973    9.5688  7.33e+01
   5.0935    4.5060    9.5729  7.33e+01
   4.9575    4.1062    9.1796  7.33e+01
   4.9371    5.0900    8.2284  7.12e+01
   4.7740    5.1445    8.3123  7.12e+01
   5.1371    4.2016    9.5192  7.33e+01
   4.9944    4.4041    9.1847  7.33e+01
   4.9304    5.1649   12.0358  7.12e+01
   4.9307    8.2860   11.3634  7.12e+01
   5.0553    4.1573    9.5131  7.33e+01
   5.1445    4.1827    9.6511  7.33e+01
   5.1072    4.3295    9.3804  7.33e+01
   4.7309    4.9249   10.2580  7.33e+01
   4.7971    4.9874    9.5664  7.33e+01
   4.8294    5.1489   10.2572  7.33e+01
   4.7755    5.1383   10.3045  7.33e+01
   4.9744    4.0723    9.5713  7.33e+01
   4.8433    5.0464    9.7838  7.33e+01
   5.1361    4.1065    9.4149  7.33e+01
   5.0276    4.5206   10.2995  7.33e+01
   4.5039    4.7523   11.4770  7.12e+01
   4.5372    4.8495   11.3603  7.12e+01
   4.9719    4.8143    9.4816  7.33e+01
   5.0859    4.8605   10.2579  7.33e+01
   5.0598    4.9950   10.2858  7.33e+01
   5.1113    4.7065   10.4899  7.33e+01
   4.8528    5.3064   10.1226  7.33e+01
   4.9920    5.3037   10.1190  7.33e+01
   5.0982    4.8826   10.3406  7.33e+01
   5.0730    4.0738    9.7585  7.33e+01
   4.5928    4.1769   10.6821  7.12e+01
   4.8819    5.0329    9.8881  7.33e+01
   4.6363    2.7408    9.3770  6.91e+01
   4.6977    8.6697   12.3839  6.91e+01
   5.4054    2.8949    9.4027  7.12e+01
   4.8780    4.0645    9.0569  7.33e+01
   4.9365    4.6897   10.5716  7.33e+01
   5.3984    6.1225   10.6123  7.12e+01
   4.8975    5.2517   10.5505  7.33e+01
   4.8524    5.1711   10.5517  7.33e+01
   5.5272    5.4309   13.5848  6.91e+01
   5.0325    4.9864   10.2234  7.33e+01
   4.2235    4.3475    7.8596  7.12e+01
   4.7892    5.9119   12.1068  7.12e+01
   5.8140    3.6012   10.1546  7.12e+01
   4.7785    7.8666   10.5515  7.12e+01
   5.1029    4.2945   10.1211  7.33e+01
   5.0504    4.8997   10.4640  7.33e+01
   4.9786    4.4786   10.2716  7.33e+01
   4.6683    8.1202   11.0178  7.12e+01
   5.0579    4.1267    9.3508  7.33e+01
   4.6893    4.5232    9.0609  7.33e+01
   4.8813    5.0703   10.6034  7.33e+01
   5.1786    2.8422    7.2638  7.12e+01
   4.5791    6.3118    9.1904  7.12e+01
   4.9269    4.3742   10.0502  7.33e+01
   4.8057    4.2651    9.2868  7.33e+01
   4.8393    4.2864    9.3361  7.33e+01
   5.4537    5.2227   12.4382  7.12e+01
   4.9742    4.5649   10.4746  7.33e+01
   4.8349    4.7357    9.3361  7.33e+01
   4.8383    4.3085    9.2463  7.33e+01
   4.8990    4.2158    9.6042  7.33e+01
   5.0710    4.6385   10.4400  7.33e+01
   4.7288    4.5369    9.1617  7.33e+01
   5.2194    6.2805    9.9520  7.12e+01
   5.6725    3.6514    9.6881  7.12e+01
   4.6993    5.1797   10.1049  7.33e+01
   5.0904    4.1321    9.7777  7.33e+01
   5.1260    4.1961    9.7978  7.33e+01
   4.7869    4.4046    9.9207  7.33e+01
   4.7515    4.5766   10.1520  7.33e+01
   4.8310    4.6181   10.1558  7.33e+01
   4.6914    4.3174    9.4236  7.33e+01
   6.1650    2.3774   12.3807  6.91e+01
   4.9271    4.9475   10.6598  7.33e+01
   4.8544    6.5294    9.3982  7.12e+01
   4.7331    5.1889   10.2214  7.33e+01
   4.6935    5.2240   10.2435  7.33e+01
   6.7429    2.1555    3.3812  6.50e+01
   5.4604    3.9836   12.3727  7.12e+01
   5.4754    7.4219   11.5706  7.12e+01
   4.1781    6.1735    9.9500  7.12e+01
   4.9549    4.3280    8.9565  7.33e+01
   4.9535    4.8802    9.6702  7.33e+01
   5.0469    4.6875    9.8497  7.33e+01
   5.1292    4.9172   10.0944  7.33e+01
   4.8080    4.2236    9.1400  7.33e+01
   4.8285    5.2789   10.0529  7.33e+01
   4.9133    3.4099    9.6450  7.12e+01
   5.0280    4.3671    9.3174  7.33e+01
   4.7187    5.0031   10.4061  7.33e+01
   5.1257    4.7374   10.5228  7.33e+01
   4.8949    5.4441   10.3644  7.33e+01
   4.7144    5.0859    9.7574  7.33e+01
   4.8312    5.0803    9.7615  7.33e+01
