NLLOC "./loc/vinti.19950422.154718.grid0" "LOCATED" "Location completed."
SIGNATURE "Anthony Lomax - ALomax Scientific   NLLoc:v5.11.6 29Nov2010 11h34m16"
COMMENT "1995 Vintimiglia Sequence (NonLinLoc Sample Location)"
GRID  101 101 21  -50 -50 0  1 1 1 PROB_DENSITY
SEARCH OCTREE nInitial 400 nEvaluated 10024 smallestNodeSide 0.156250/0.156250/0.082031 oct_tree_integral 9.348341e+00 scatter_volume 9.348341e+00
HYPOCENTER  x 3.51562 y 3.20312 z 7.58789  OT 16.4941  ix -1 iy -1 iz -1
GEOGRAPHIC  OT 1995 04 22  15 47   16.4941  Lat 43.7788 Long 7.54367 Depth 7.58789
QUALITY  Pmax 8.19221e+31 MFmin 21.6074 MFmax 21.9266 RMS 0.0629132 Nphs 13 Gap 230.323 Dist 12.2026 Mamp  -9.9 0 Mdur  -9.9 0
VPVSRATIO  VpVsRatio 1.76723  Npair 4  Diff 2.35
STATISTICS  ExpectX 3.62693 Y 3.19669 Z 7.02341  CovXX 0.260166 XY 0.36355 XZ 0.760075 YY 1.83666 YZ 2.34123 ZZ 6.23187 EllAz1  95.1975 Dip1  -5.12654 Len1  0.748294 Az2  2.93717 Dip2  -23.7313 Len2  1.70623 Len3  5.092067e+00
STAT_GEOG  ExpectLat 43.7788 Long 7.54506 Depth 7.02341
TRANSFORM  LAMBERT RefEllipsoid Clarke-1880  LatOrig 43.750000  LongOrig 7.500000  FirstStdParal 43.199300  SecondStdParal 44.996100  RotCW 0.000000
QML_OriginQuality  assocPhCt 27  usedPhCt 13  assocStaCt -1  usedStaCt 9  depthPhCt -1  stdErr 0.0629132  azGap 230.323  secAzGap 242.432  gtLevel -  minDist 12.2026 maxDist 35.2523 medDist 22.3459
QML_OriginUncertainty  horUnc -1  minHorUnc 0.644085  maxHorUnc 2.09949  azMaxHorUnc 12.3799
FOCALMECH  Hyp  43.7788 7.54367 7.58789 Mech  0 0 0 mf  0 nObs 0
PHASE ID Ins Cmp On Pha  FM Date     HrMn   Sec     Err  ErrMag    Coda      Amp       Per       PriorWt  >   TTpred    Res       Weight    StaLoc(X  Y         Z)        SDist    SAzim  RAz  RDip RQual    Tcorr       TTerr
RONE   ?    ?    ? P      ? 19950422 1547   19.2900 GAU  1.00e-01 -1.00e+00 -1.00e+00 -1.00e+00    1.0000 >    2.7218    0.0741    1.1383    7.8887   14.5952   -0.3000   12.2026  21.00  21.0 116.8  9     0.0000    0.0500
RONE   ?    ?    ? S      ? 19950422 1547   21.0200 GAU  1.00e-01 -1.00e+00 -1.00e+00 -1.00e+00    1.0000 >    4.5726   -0.0467    1.2370    7.8887   14.5952   -0.3000   12.2026  21.00  21.0 116.8  9     0.0000    0.0500
SBF    ?    ?    P G      ? 19950422 1547   19.8900 GAU  1.00e-01 -1.00e+00 -1.00e+00 -1.00e+00    1.0000 >    2.9280    0.4680    0.0292   -5.2384   12.6113   -0.8470   12.8509 317.06 317.1 116.4  9     0.0000    0.0500
NEGI   ?    ?    ? P      ? 19950422 1547   19.8000 GAU  1.00e-01 -1.00e+00 -1.00e+00 -1.00e+00    1.0000 >    3.2120    0.0539    1.1982   16.3893   10.8705   -0.6400   14.9840  59.22  59.2 112.9  9     0.0400    0.0500
NEGI   ?    ?    ? S      ? 19950422 1547   21.9400 GAU  1.00e-01 -1.00e+00 -1.00e+00 -1.00e+00    1.0000 >    5.3962    0.0097    1.2646   16.3893   10.8705   -0.6400   14.9840  59.22  59.2 112.9  9     0.0400    0.0540
AURF   ?    ?    P G      ? 19950422 1547   20.6300 GAU  1.00e-01 -1.00e+00 -1.00e+00 -1.00e+00    1.0000 >    4.2621   -0.1261    0.9751  -13.8607   15.2716   -1.0400   21.1562 304.78 304.8 107.2  9     0.0000    0.0500
CEPP   ?    ?    ? P      ? 19950422 1547   20.9600 GAU  1.00e-01 -1.00e+00 -1.00e+00 -1.00e+00    1.0000 >    4.4601    0.0059    1.2740   19.7971   18.5085   -1.0800   22.3459  46.77  46.8 106.4  9     0.0000    0.0500
CEPP   ?    ?    ? S      ? 19950422 1547   23.9700 GAU  1.00e-01 -1.00e+00 -1.00e+00 -1.00e+00    1.0000 >    7.4929   -0.0170    1.2216   19.7971   18.5085   -1.0800   22.3459  46.77  46.8 106.4  9     0.0000    0.0749
AUTN   ?    ?    P G      ? 19950422 1547   21.7300 GAU  1.00e-01 -1.00e+00 -1.00e+00 -1.00e+00    1.0000 >    5.2082    0.0277    1.2485   -5.8149   27.2765   -2.0690   25.8184 338.81 338.8 104.9  9     0.0000    0.0521
IMI    ?    ?    ? P      ? 19950422 1547   22.3300 GAU  1.00e-01 -1.00e+00 -1.00e+00 -1.00e+00    1.0000 >    5.9276   -0.0917    1.1031   31.5793   17.9062   -0.8400   31.6820  62.35  62.3 102.0  9     0.0000    0.0593
IMI    ?    ?    ? S      ? 19950422 1547   26.4100 GAU  1.00e-01 -1.00e+00 -1.00e+00 -1.00e+00    1.0000 >    9.9584   -0.0425    1.1373   31.5793   17.9062   -0.8400   31.6820  62.35  62.3 102.0  9     0.0000    0.0996
MVIF   ?    ?    P G      ? 19950422 1547   21.9500 GAU  1.00e-01 -1.00e+00 -1.00e+00 -1.00e+00    1.0000 >    6.4388   -0.9829    0.0000  -27.9180   16.3343   -1.4800   34.0661 292.67 292.7 101.4  9     0.0000    0.0644
TOUF   ?    ?    P G      ? 19950422 1547   23.2500 GAU  1.00e-01 -1.00e+00 -1.00e+00 -1.00e+00    1.0000 >    6.7028    0.0532    1.1731  -20.1791   29.3046   -1.8500   35.2523 317.77 317.8 101.2  9     0.0000    0.0670
END_PHASE
END_NLLOC

