NLLOC "./loc/vinti.19950422.151959.grid0" "LOCATED" "Location completed."
SIGNATURE "Anthony Lomax - ALomax Scientific   NLLoc:v5.11.6 29Nov2010 11h34m17"
COMMENT "1995 Vintimiglia Sequence (NonLinLoc Sample Location)"
GRID  101 101 21  -50 -50 0  1 1 1 PROB_DENSITY
SEARCH OCTREE nInitial 400 nEvaluated 10024 smallestNodeSide 0.156250/0.156250/0.082031 oct_tree_integral 7.884577e+00 scatter_volume 7.884577e+00
HYPOCENTER  x 4.14062 y 6.01562 z 11.6074  OT 56.5455  ix -1 iy -1 iz -1
GEOGRAPHIC  OT 1995 04 22  15 19   56.5455  Lat 43.8041 Long 7.55146 Depth 11.6074
QUALITY  Pmax 6.8297e+22 MFmin 21.6568 MFmax 21.892 RMS 964.928 Nphs 13 Gap 219.463 Dist 9.36251 Mamp  -9.9 0 Mdur  -9.9 0
VPVSRATIO  VpVsRatio 1.0009  Npair 4  Diff 2.24
STATISTICS  ExpectX 4.00813 Y 5.42348 Z 11.0346  CovXX 0.300485 XY 0.192876 XZ 0.228189 YY 2.36 YZ 1.82564 ZZ 3.85809 EllAz1  93.8103 Dip1  -1.70311 Len1  0.995673 Az2  2.66182 Dip2  -33.9835 Len2  2.00339 Len3  4.243306e+00
STAT_GEOG  ExpectLat 43.7988 Long 7.54981 Depth 11.0346
TRANSFORM  LAMBERT RefEllipsoid Clarke-1880  LatOrig 43.750000  LongOrig 7.500000  FirstStdParal 43.199300  SecondStdParal 44.996100  RotCW 0.000000
QML_OriginQuality  assocPhCt 27  usedPhCt 13  assocStaCt -1  usedStaCt 9  depthPhCt -1  stdErr 964.928  azGap 219.463  secAzGap 228.833  gtLevel -  minDist 9.36251 maxDist 33.6783 medDist 20.2416
QML_OriginUncertainty  horUnc -1  minHorUnc 0.806182  maxHorUnc 2.33863  azMaxHorUnc 5.30436
FOCALMECH  Hyp  43.8041 7.55146 11.6074 Mech  0 0 0 mf  0 nObs 0
PHASE ID Ins Cmp On Pha  FM Date     HrMn   Sec     Err  ErrMag    Coda      Amp       Per       PriorWt  >   TTpred    Res       Weight    StaLoc(X  Y         Z)        SDist    SAzim  RAz  RDip RQual    Tcorr       TTerr
RONE   ?    ?    ? P      ? 19950422 1519   59.2800 GAU  1.00e-01 -1.00e+00 -1.00e+00 -1.00e+00    1.0000 >    2.7438   -0.0093    1.4326    7.8887   14.5952   -0.3000    9.3625  23.60  23.6 138.9  9     0.0000    0.0500
RONE   ?    ?    ? S      ? 19950422 1520    1.1200 GAU  1.00e-01 -1.00e+00 -1.00e+00 -1.00e+00    1.0000 >    4.6096   -0.0351    1.3954    7.8887   14.5952   -0.3000    9.3625  23.60  23.6 138.9  9     0.0000    0.0500
SBF    ?    ?    P G      ? 19950422 1547   19.8900 GAU  1.00e-01 -1.00e+00 -1.00e+00 -1.00e+00    1.0000 >    3.1002 1640.2443    0.8116   -5.2384   12.6113   -0.8470   11.4660 305.12 305.1 131.2  9     0.0000    0.0500
NEGI   ?    ?    ? P      ? 19950422 1519   59.8200 GAU  1.00e-01 -1.00e+00 -1.00e+00 -1.00e+00    1.0000 >    3.2705   -0.0360    1.3933   16.3893   10.8705   -0.6400   13.1758  68.38  68.4 125.0  9     0.0400    0.0500
NEGI   ?    ?    ? S      ? 19950422 1520    2.1100 GAU  1.00e-01 -1.00e+00 -1.00e+00 -1.00e+00    1.0000 >    5.4944    0.0301    1.3965   16.3893   10.8705   -0.6400   13.1758  68.38  68.4 125.0  9     0.0400    0.0549
CEPP   ?    ?    ? P      ? 19950422 1520    0.9100 GAU  1.00e-01 -1.00e+00 -1.00e+00 -1.00e+00    1.0000 >    4.3228    0.0417    1.3799   19.7971   18.5085   -1.0800   20.0299  51.41  51.4 112.7  9     0.0000    0.0500
CEPP   ?    ?    ? S      ? 19950422 1520    3.8200 GAU  1.00e-01 -1.00e+00 -1.00e+00 -1.00e+00    1.0000 >    7.2622    0.0122    1.3756   19.7971   18.5085   -1.0800   20.0299  51.41  51.4 112.7  9     0.0000    0.0726
AURF   ?    ?    P G      ? 19950422 1547   20.6300 GAU  1.00e-01 -1.00e+00 -1.00e+00 -1.00e+00    1.0000 >    4.3461 1639.7384    0.1177  -13.8607   15.2716   -1.0400   20.2416 297.21 297.2 112.3  9     0.0000    0.0500
AUTN   ?    ?    P G      ? 19950422 1547   21.7300 GAU  1.00e-01 -1.00e+00 -1.00e+00 -1.00e+00    1.0000 >    5.0344 1640.1500    1.0015   -5.8149   27.2765   -2.0690   23.4764 334.91 334.9 109.2  9     0.0000    0.0503
IMI    ?    ?    ? P      ? 19950422 1547   22.3300 GAU  1.00e-01 -1.00e+00 -1.00e+00 -1.00e+00    1.0000 >    5.7797 1640.0047    0.7526   31.5793   17.9062   -0.8400   29.9043  66.57  66.6 102.2  9     0.0000    0.0578
IMI    ?    ?    ? S      ? 19950422 1547   26.4100 GAU  1.00e-01 -1.00e+00 -1.00e+00 -1.00e+00    1.0000 >    9.7099 1640.1545    0.9508   31.5793   17.9062   -0.8400   29.9043  66.57  66.6 102.2  9     0.0000    0.0971
TOUF   ?    ?    P G      ? 19950422 1547   23.2500 GAU  1.00e-01 -1.00e+00 -1.00e+00 -1.00e+00    1.0000 >    6.5655 1640.1390    0.9924  -20.1791   29.3046   -1.8500   33.6723 313.76 313.8 100.3  9     0.0000    0.0657
MVIF   ?    ?    P G      ? 19950422 1547   21.9500 GAU  1.00e-01 -1.00e+00 -1.00e+00 -1.00e+00    1.0000 >    6.4945 1638.9099    0.0000  -27.9180   16.3343   -1.4800   33.6783 287.84 287.8 100.1  9     0.0000    0.0649
END_PHASE
END_NLLOC

